{
"type": "FeatureCollection",
"name": "basins",
"crs": { "type": "name", "properties": { "name": "urn:ogc:def:crs:OGC:1.3:CRS84" } },
"features": [
{ "type": "Feature", "properties": { "value": 1.0 }, "geometry": { "type": "Polygon", "coordinates": [ [ [ 35.516667, 5.383333 ], [ 35.516667, 5.283333 ], [ 35.616667, 5.283333 ], [ 35.616667, 5.183333 ], [ 35.816667, 5.183333 ], [ 35.816667, 4.983333 ], [ 35.716667, 4.983333 ], [ 35.716667, 5.083333 ], [ 35.616667, 5.083333 ], [ 35.616667, 4.983333 ], [ 35.516667, 4.983333 ], [ 35.516667, 4.883333 ], [ 35.316667, 4.883333 ], [ 35.316667, 4.783333 ], [ 35.116667, 4.783333 ], [ 35.116667, 5.383333 ], [ 35.316667, 5.383333 ], [ 35.316667, 5.283333 ], [ 35.416667, 5.283333 ], [ 35.416667, 5.383333 ], [ 35.516667, 5.383333 ] ] ] } },
{ "type": "Feature", "properties": { "value": 2.0 }, "geometry": { "type": "Polygon", "coordinates": [ [ [ 35.616667, 5.883333 ], [ 35.616667, 5.583333 ], [ 35.716667, 5.583333 ], [ 35.716667, 5.383333 ], [ 35.916667, 5.383333 ], [ 35.916667, 5.283333 ], [ 36.016667, 5.283333 ], [ 36.016667, 4.983333 ], [ 35.816667, 4.983333 ], [ 35.816667, 5.183333 ], [ 35.616667, 5.183333 ], [ 35.616667, 5.283333 ], [ 35.516667, 5.283333 ], [ 35.516667, 5.383333 ], [ 35.416667, 5.383333 ], [ 35.416667, 5.283333 ], [ 35.316667, 5.283333 ], [ 35.316667, 6.083333 ], [ 35.416667, 6.083333 ], [ 35.416667, 6.183333 ], [ 35.616667, 6.183333 ], [ 35.616667, 6.083333 ], [ 35.516667, 6.083333 ], [ 35.516667, 5.883333 ], [ 35.616667, 5.883333 ] ] ] } },
{ "type": "Feature", "properties": { "value": 3.0 }, "geometry": { "type": "Polygon", "coordinates": [ [ [ 37.316667, 9.183333 ], [ 37.316667, 9.083333 ], [ 37.416667, 9.083333 ], [ 37.416667, 8.983333 ], [ 37.616667, 8.983333 ], [ 37.616667, 8.883333 ], [ 37.516667, 8.883333 ], [ 37.516667, 8.683333 ], [ 37.716667, 8.683333 ], [ 37.716667, 8.783333 ], [ 37.816667, 8.783333 ], [ 37.816667, 8.883333 ], [ 37.916667, 8.883333 ], [ 37.916667, 8.683333 ], [ 38.016667, 8.683333 ], [ 38.016667, 8.583333 ], [ 38.216667, 8.583333 ], [ 38.216667, 8.483333 ], [ 38.316667, 8.483333 ], [ 38.316667, 8.383333 ], [ 38.416667, 8.383333 ], [ 38.416667, 8.283333 ], [ 38.316667, 8.283333 ], [ 38.316667, 8.183333 ], [ 38.216667, 8.183333 ], [ 38.216667, 8.083333 ], [ 38.116667, 8.083333 ], [ 38.116667, 7.983333 ], [ 38.016667, 7.983333 ], [ 38.016667, 7.883333 ], [ 37.916667, 7.883333 ], [ 37.916667, 7.783333 ], [ 37.816667, 7.783333 ], [ 37.816667, 7.283333 ], [ 37.916667, 7.283333 ], [ 37.916667, 7.083333 ], [ 37.816667, 7.083333 ], [ 37.816667, 6.883333 ], [ 37.716667, 6.883333 ], [ 37.716667, 6.583333 ], [ 37.616667, 6.583333 ], [ 37.616667, 6.283333 ], [ 37.416667, 6.283333 ], [ 37.416667, 6.183333 ], [ 37.316667, 6.183333 ], [ 37.316667, 6.083333 ], [ 37.216667, 6.083333 ], [ 37.216667, 6.183333 ], [ 37.116667, 6.183333 ], [ 37.116667, 6.283333 ], [ 36.916667, 6.283333 ], [ 36.916667, 6.183333 ], [ 36.716667, 6.183333 ], [ 36.716667, 6.083333 ], [ 36.616667, 6.083333 ], [ 36.616667, 5.983333 ], [ 36.716667, 5.983333 ], [ 36.716667, 5.883333 ], [ 36.616667, 5.883333 ], [ 36.616667, 5.783333 ], [ 36.716667, 5.783333 ], [ 36.716667, 5.383333 ], [ 36.516667, 5.383333 ], [ 36.516667, 5.183333 ], [ 36.416667, 5.183333 ], [ 36.416667, 5.083333 ], [ 36.116667, 5.083333 ], [ 36.116667, 4.983333 ], [ 36.016667, 4.983333 ], [ 36.016667, 5.283333 ], [ 35.916667, 5.283333 ], [ 35.916667, 5.383333 ], [ 35.716667, 5.383333 ], [ 35.716667, 5.583333 ], [ 35.616667, 5.583333 ], [ 35.616667, 5.883333 ], [ 35.516667, 5.883333 ], [ 35.516667, 6.083333 ], [ 35.616667, 6.083333 ], [ 35.616667, 6.183333 ], [ 35.516667, 6.183333 ], [ 35.516667, 6.283333 ], [ 35.616667, 6.283333 ], [ 35.616667, 6.383333 ], [ 35.716667, 6.383333 ], [ 35.716667, 6.483333 ], [ 35.816667, 6.483333 ], [ 35.816667, 6.383333 ], [ 35.916667, 6.383333 ], [ 35.916667, 6.883333 ], [ 35.816667, 6.883333 ], [ 35.816667, 6.983333 ], [ 35.716667, 6.983333 ], [ 35.716667, 7.183333 ], [ 35.816667, 7.183333 ], [ 35.816667, 7.283333 ], [ 35.916667, 7.283333 ], [ 35.916667, 7.383333 ], [ 35.716667, 7.383333 ], [ 35.716667, 7.483333 ], [ 35.616667, 7.483333 ], [ 35.616667, 7.583333 ], [ 35.916667, 7.583333 ], [ 35.916667, 7.683333 ], [ 36.116667, 7.683333 ], [ 36.116667, 7.783333 ], [ 36.516667, 7.783333 ], [ 36.516667, 7.683333 ], [ 36.616667, 7.683333 ], [ 36.616667, 7.783333 ], [ 36.916667, 7.783333 ], [ 36.916667, 7.883333 ], [ 36.816667, 7.883333 ], [ 36.816667, 8.083333 ], [ 36.916667, 8.083333 ], [ 36.916667, 8.383333 ], [ 37.016667, 8.383333 ], [ 37.016667, 8.583333 ], [ 37.116667, 8.583333 ], [ 37.116667, 8.683333 ], [ 37.016667, 8.683333 ], [ 37.016667, 8.783333 ], [ 36.916667, 8.783333 ], [ 36.916667, 9.283333 ], [ 37.016667, 9.283333 ], [ 37.016667, 9.383333 ], [ 37.116667, 9.383333 ], [ 37.116667, 9.283333 ], [ 37.216667, 9.283333 ], [ 37.216667, 9.183333 ], [ 37.316667, 9.183333 ] ] ] } },
{ "type": "Feature", "properties": { "value": 4.0 }, "geometry": { "type": "Polygon", "coordinates": [ [ [ 35.916667, 4.983333 ], [ 35.916667, 4.883333 ], [ 35.816667, 4.883333 ], [ 35.816667, 4.983333 ], [ 35.916667, 4.983333 ] ] ] } }
]
}
