{
"type": "FeatureCollection",
"name": "basins_highres",
"crs": { "type": "name", "properties": { "name": "urn:ogc:def:crs:OGC:1.3:CRS84" } },
"features": [
{ "type": "Feature", "properties": { "value": 2.0 }, "geometry": { "type": "Polygon", "coordinates": [ [ [ 35.975, 5.116667 ], [ 35.975, 5.125 ], [ 35.991667, 5.125 ], [ 35.991667, 5.116667 ], [ 36.0, 5.116667 ], [ 36.0, 5.1 ], [ 35.991667, 5.1 ], [ 35.991667, 5.058333 ], [ 35.983333, 5.058333 ], [ 35.983333, 5.05 ], [ 35.991667, 5.05 ], [ 35.991667, 5.033333 ], [ 35.983333, 5.033333 ], [ 35.983333, 5.025 ], [ 35.975, 5.025 ], [ 35.975, 5.008333 ], [ 35.958333, 5.008333 ], [ 35.958333, 5.0 ], [ 35.95, 5.0 ], [ 35.95, 5.008333 ], [ 35.925, 5.008333 ], [ 35.925, 5.016667 ], [ 35.916667, 5.016667 ], [ 35.916667, 5.008333 ], [ 35.908333, 5.008333 ], [ 35.908333, 5.0 ], [ 35.9, 5.0 ], [ 35.9, 4.991667 ], [ 35.891667, 4.991667 ], [ 35.891667, 4.983333 ], [ 35.883333, 4.983333 ], [ 35.883333, 4.991667 ], [ 35.875, 4.991667 ], [ 35.875, 5.0 ], [ 35.883333, 5.0 ], [ 35.883333, 5.016667 ], [ 35.891667, 5.016667 ], [ 35.891667, 5.025 ], [ 35.883333, 5.025 ], [ 35.883333, 5.05 ], [ 35.875, 5.05 ], [ 35.875, 5.058333 ], [ 35.866667, 5.058333 ], [ 35.866667, 5.066667 ], [ 35.875, 5.066667 ], [ 35.875, 5.075 ], [ 35.883333, 5.075 ], [ 35.883333, 5.1 ], [ 35.891667, 5.1 ], [ 35.891667, 5.116667 ], [ 35.916667, 5.116667 ], [ 35.916667, 5.125 ], [ 35.933333, 5.125 ], [ 35.933333, 5.133333 ], [ 35.941667, 5.133333 ], [ 35.941667, 5.125 ], [ 35.966667, 5.125 ], [ 35.966667, 5.116667 ], [ 35.975, 5.116667 ] ] ] } },
{ "type": "Feature", "properties": { "value": 3.0 }, "geometry": { "type": "MultiPolygon", "coordinates": [ [ [ [ 35.975, 4.983333 ], [ 35.975, 5.025 ], [ 35.983333, 5.025 ], [ 35.983333, 5.033333 ], [ 35.991667, 5.033333 ], [ 35.991667, 5.05 ], [ 35.983333, 5.05 ], [ 35.983333, 5.058333 ], [ 35.991667, 5.058333 ], [ 35.991667, 5.1 ], [ 36.0, 5.1 ], [ 36.0, 5.141667 ], [ 36.008333, 5.141667 ], [ 36.008333, 5.175 ], [ 36.016667, 5.175 ], [ 36.016667, 5.183333 ], [ 36.008333, 5.183333 ], [ 36.008333, 5.191667 ], [ 36.016667, 5.191667 ], [ 36.016667, 5.208333 ], [ 36.008333, 5.208333 ], [ 36.008333, 5.25 ], [ 36.0, 5.25 ], [ 36.0, 5.266667 ], [ 35.991667, 5.266667 ], [ 35.991667, 5.283333 ], [ 35.958333, 5.283333 ], [ 35.958333, 5.291667 ], [ 35.95, 5.291667 ], [ 35.95, 5.3 ], [ 35.941667, 5.3 ], [ 35.941667, 5.308333 ], [ 35.933333, 5.308333 ], [ 35.933333, 5.316667 ], [ 35.925, 5.316667 ], [ 35.925, 5.325 ], [ 35.916667, 5.325 ], [ 35.916667, 5.333333 ], [ 35.925, 5.333333 ], [ 35.925, 5.366667 ], [ 35.916667, 5.366667 ], [ 35.916667, 5.375 ], [ 35.9, 5.375 ], [ 35.9, 5.383333 ], [ 35.875, 5.383333 ], [ 35.875, 5.375 ], [ 35.866667, 5.375 ], [ 35.866667, 5.383333 ], [ 35.85, 5.383333 ], [ 35.85, 5.375 ], [ 35.816667, 5.375 ], [ 35.816667, 5.383333 ], [ 35.791667, 5.383333 ], [ 35.791667, 5.391667 ], [ 35.783333, 5.391667 ], [ 35.783333, 5.4 ], [ 35.775, 5.4 ], [ 35.775, 5.408333 ], [ 35.75, 5.408333 ], [ 35.75, 5.4 ], [ 35.691667, 5.4 ], [ 35.691667, 5.391667 ], [ 35.658333, 5.391667 ], [ 35.658333, 5.4 ], [ 35.65, 5.4 ], [ 35.65, 5.391667 ], [ 35.625, 5.391667 ], [ 35.625, 5.433333 ], [ 35.616667, 5.433333 ], [ 35.616667, 5.458333 ], [ 35.625, 5.458333 ], [ 35.625, 5.475 ], [ 35.633333, 5.475 ], [ 35.633333, 5.483333 ], [ 35.641667, 5.483333 ], [ 35.641667, 5.475 ], [ 35.658333, 5.475 ], [ 35.658333, 5.5 ], [ 35.666667, 5.5 ], [ 35.666667, 5.525 ], [ 35.683333, 5.525 ], [ 35.683333, 5.533333 ], [ 35.691667, 5.533333 ], [ 35.691667, 5.541667 ], [ 35.7, 5.541667 ], [ 35.7, 5.558333 ], [ 35.691667, 5.558333 ], [ 35.691667, 5.575 ], [ 35.683333, 5.575 ], [ 35.683333, 5.583333 ], [ 35.675, 5.583333 ], [ 35.675, 5.608333 ], [ 35.666667, 5.608333 ], [ 35.666667, 5.633333 ], [ 35.658333, 5.633333 ], [ 35.658333, 5.65 ], [ 35.65, 5.65 ], [ 35.65, 5.691667 ], [ 35.641667, 5.691667 ], [ 35.641667, 5.7 ], [ 35.65, 5.7 ], [ 35.65, 5.716667 ], [ 35.641667, 5.716667 ], [ 35.641667, 5.725 ], [ 35.633333, 5.725 ], [ 35.633333, 5.733333 ], [ 35.625, 5.733333 ], [ 35.625, 5.758333 ], [ 35.633333, 5.758333 ], [ 35.633333, 5.766667 ], [ 35.625, 5.766667 ], [ 35.625, 5.791667 ], [ 35.616667, 5.791667 ], [ 35.616667, 5.816667 ], [ 35.608333, 5.816667 ], [ 35.608333, 5.841667 ], [ 35.6, 5.841667 ], [ 35.6, 5.858333 ], [ 35.591667, 5.858333 ], [ 35.591667, 5.875 ], [ 35.575, 5.875 ], [ 35.575, 5.891667 ], [ 35.558333, 5.891667 ], [ 35.558333, 5.908333 ], [ 35.55, 5.908333 ], [ 35.55, 5.925 ], [ 35.533333, 5.925 ], [ 35.533333, 5.95 ], [ 35.541667, 5.95 ], [ 35.541667, 5.966667 ], [ 35.558333, 5.966667 ], [ 35.558333, 5.975 ], [ 35.575, 5.975 ], [ 35.575, 6.0 ], [ 35.566667, 6.0 ], [ 35.566667, 6.016667 ], [ 35.558333, 6.016667 ], [ 35.558333, 6.025 ], [ 35.55, 6.025 ], [ 35.55, 6.041667 ], [ 35.541667, 6.041667 ], [ 35.541667, 6.05 ], [ 35.55, 6.05 ], [ 35.55, 6.075 ], [ 35.558333, 6.075 ], [ 35.558333, 6.083333 ], [ 35.566667, 6.083333 ], [ 35.566667, 6.1 ], [ 35.575, 6.1 ], [ 35.575, 6.125 ], [ 35.583333, 6.125 ], [ 35.583333, 6.133333 ], [ 35.591667, 6.133333 ], [ 35.591667, 6.141667 ], [ 35.6, 6.141667 ], [ 35.6, 6.158333 ], [ 35.575, 6.158333 ], [ 35.575, 6.166667 ], [ 35.566667, 6.166667 ], [ 35.566667, 6.183333 ], [ 35.55, 6.183333 ], [ 35.55, 6.208333 ], [ 35.558333, 6.208333 ], [ 35.558333, 6.225 ], [ 35.566667, 6.225 ], [ 35.566667, 6.275 ], [ 35.575, 6.275 ], [ 35.575, 6.291667 ], [ 35.591667, 6.291667 ], [ 35.591667, 6.3 ], [ 35.6, 6.3 ], [ 35.6, 6.308333 ], [ 35.608333, 6.308333 ], [ 35.608333, 6.341667 ], [ 35.616667, 6.341667 ], [ 35.616667, 6.366667 ], [ 35.625, 6.366667 ], [ 35.625, 6.375 ], [ 35.666667, 6.375 ], [ 35.666667, 6.383333 ], [ 35.675, 6.383333 ], [ 35.675, 6.391667 ], [ 35.7, 6.391667 ], [ 35.7, 6.408333 ], [ 35.716667, 6.408333 ], [ 35.716667, 6.416667 ], [ 35.733333, 6.416667 ], [ 35.733333, 6.425 ], [ 35.75, 6.425 ], [ 35.75, 6.433333 ], [ 35.758333, 6.433333 ], [ 35.758333, 6.441667 ], [ 35.766667, 6.441667 ], [ 35.766667, 6.433333 ], [ 35.8, 6.433333 ], [ 35.8, 6.441667 ], [ 35.808333, 6.441667 ], [ 35.808333, 6.433333 ], [ 35.825, 6.433333 ], [ 35.825, 6.425 ], [ 35.833333, 6.425 ], [ 35.833333, 6.416667 ], [ 35.85, 6.416667 ], [ 35.85, 6.408333 ], [ 35.875, 6.408333 ], [ 35.875, 6.416667 ], [ 35.883333, 6.416667 ], [ 35.883333, 6.408333 ], [ 35.891667, 6.408333 ], [ 35.891667, 6.433333 ], [ 35.9, 6.433333 ], [ 35.9, 6.441667 ], [ 35.908333, 6.441667 ], [ 35.908333, 6.483333 ], [ 35.9, 6.483333 ], [ 35.9, 6.491667 ], [ 35.908333, 6.491667 ], [ 35.908333, 6.508333 ], [ 35.925, 6.508333 ], [ 35.925, 6.525 ], [ 35.933333, 6.525 ], [ 35.933333, 6.533333 ], [ 35.925, 6.533333 ], [ 35.925, 6.541667 ], [ 35.891667, 6.541667 ], [ 35.891667, 6.558333 ], [ 35.883333, 6.558333 ], [ 35.883333, 6.583333 ], [ 35.891667, 6.583333 ], [ 35.891667, 6.608333 ], [ 35.883333, 6.608333 ], [ 35.883333, 6.625 ], [ 35.9, 6.625 ], [ 35.9, 6.633333 ], [ 35.908333, 6.633333 ], [ 35.908333, 6.641667 ], [ 35.916667, 6.641667 ], [ 35.916667, 6.65 ], [ 35.933333, 6.65 ], [ 35.933333, 6.666667 ], [ 35.925, 6.666667 ], [ 35.925, 6.683333 ], [ 35.933333, 6.683333 ], [ 35.933333, 6.691667 ], [ 35.941667, 6.691667 ], [ 35.941667, 6.708333 ], [ 35.958333, 6.708333 ], [ 35.958333, 6.733333 ], [ 35.95, 6.733333 ], [ 35.95, 6.758333 ], [ 35.941667, 6.758333 ], [ 35.941667, 6.766667 ], [ 35.95, 6.766667 ], [ 35.95, 6.775 ], [ 35.941667, 6.775 ], [ 35.941667, 6.791667 ], [ 35.933333, 6.791667 ], [ 35.933333, 6.8 ], [ 35.925, 6.8 ], [ 35.925, 6.791667 ], [ 35.916667, 6.791667 ], [ 35.916667, 6.808333 ], [ 35.925, 6.808333 ], [ 35.925, 6.825 ], [ 35.908333, 6.825 ], [ 35.908333, 6.833333 ], [ 35.891667, 6.833333 ], [ 35.891667, 6.841667 ], [ 35.883333, 6.841667 ], [ 35.883333, 6.825 ], [ 35.875, 6.825 ], [ 35.875, 6.833333 ], [ 35.866667, 6.833333 ], [ 35.866667, 6.85 ], [ 35.858333, 6.85 ], [ 35.858333, 6.858333 ], [ 35.85, 6.858333 ], [ 35.85, 6.866667 ], [ 35.858333, 6.866667 ], [ 35.858333, 6.883333 ], [ 35.85, 6.883333 ], [ 35.85, 6.9 ], [ 35.841667, 6.9 ], [ 35.841667, 6.925 ], [ 35.833333, 6.925 ], [ 35.833333, 6.95 ], [ 35.825, 6.95 ], [ 35.825, 6.958333 ], [ 35.833333, 6.958333 ], [ 35.833333, 6.966667 ], [ 35.841667, 6.966667 ], [ 35.841667, 6.975 ], [ 35.866667, 6.975 ], [ 35.866667, 6.991667 ], [ 35.85, 6.991667 ], [ 35.85, 7.0 ], [ 35.841667, 7.0 ], [ 35.841667, 7.008333 ], [ 35.833333, 7.008333 ], [ 35.833333, 7.016667 ], [ 35.8, 7.016667 ], [ 35.8, 7.025 ], [ 35.775, 7.025 ], [ 35.775, 7.033333 ], [ 35.758333, 7.033333 ], [ 35.758333, 7.016667 ], [ 35.733333, 7.016667 ], [ 35.733333, 7.008333 ], [ 35.725, 7.008333 ], [ 35.725, 7.0 ], [ 35.7, 7.0 ], [ 35.7, 7.041667 ], [ 35.708333, 7.041667 ], [ 35.708333, 7.075 ], [ 35.716667, 7.075 ], [ 35.716667, 7.091667 ], [ 35.725, 7.091667 ], [ 35.725, 7.1 ], [ 35.741667, 7.1 ], [ 35.741667, 7.116667 ], [ 35.75, 7.116667 ], [ 35.75, 7.125 ], [ 35.775, 7.125 ], [ 35.775, 7.133333 ], [ 35.791667, 7.133333 ], [ 35.791667, 7.141667 ], [ 35.808333, 7.141667 ], [ 35.808333, 7.15 ], [ 35.816667, 7.15 ], [ 35.816667, 7.158333 ], [ 35.833333, 7.158333 ], [ 35.833333, 7.166667 ], [ 35.841667, 7.166667 ], [ 35.841667, 7.158333 ], [ 35.858333, 7.158333 ], [ 35.858333, 7.166667 ], [ 35.866667, 7.166667 ], [ 35.866667, 7.183333 ], [ 35.875, 7.183333 ], [ 35.875, 7.241667 ], [ 35.883333, 7.241667 ], [ 35.883333, 7.258333 ], [ 35.9, 7.258333 ], [ 35.9, 7.275 ], [ 35.908333, 7.275 ], [ 35.908333, 7.283333 ], [ 35.9, 7.283333 ], [ 35.9, 7.291667 ], [ 35.908333, 7.291667 ], [ 35.908333, 7.3 ], [ 35.9, 7.3 ], [ 35.9, 7.308333 ], [ 35.908333, 7.308333 ], [ 35.908333, 7.325 ], [ 35.916667, 7.325 ], [ 35.916667, 7.35 ], [ 35.941667, 7.35 ], [ 35.941667, 7.358333 ], [ 35.95, 7.358333 ], [ 35.95, 7.375 ], [ 35.933333, 7.375 ], [ 35.933333, 7.383333 ], [ 35.916667, 7.383333 ], [ 35.916667, 7.375 ], [ 35.908333, 7.375 ], [ 35.908333, 7.383333 ], [ 35.891667, 7.383333 ], [ 35.891667, 7.375 ], [ 35.858333, 7.375 ], [ 35.858333, 7.358333 ], [ 35.833333, 7.358333 ], [ 35.833333, 7.375 ], [ 35.825, 7.375 ], [ 35.825, 7.391667 ], [ 35.816667, 7.391667 ], [ 35.816667, 7.4 ], [ 35.808333, 7.4 ], [ 35.808333, 7.416667 ], [ 35.791667, 7.416667 ], [ 35.791667, 7.408333 ], [ 35.766667, 7.408333 ], [ 35.766667, 7.4 ], [ 35.758333, 7.4 ], [ 35.758333, 7.391667 ], [ 35.741667, 7.391667 ], [ 35.741667, 7.416667 ], [ 35.716667, 7.416667 ], [ 35.716667, 7.408333 ], [ 35.7, 7.408333 ], [ 35.7, 7.416667 ], [ 35.675, 7.416667 ], [ 35.675, 7.425 ], [ 35.658333, 7.425 ], [ 35.658333, 7.441667 ], [ 35.65, 7.441667 ], [ 35.65, 7.458333 ], [ 35.641667, 7.458333 ], [ 35.641667, 7.466667 ], [ 35.633333, 7.466667 ], [ 35.633333, 7.45 ], [ 35.616667, 7.45 ], [ 35.616667, 7.458333 ], [ 35.608333, 7.458333 ], [ 35.608333, 7.466667 ], [ 35.6, 7.466667 ], [ 35.6, 7.458333 ], [ 35.541667, 7.458333 ], [ 35.541667, 7.466667 ], [ 35.55, 7.466667 ], [ 35.55, 7.475 ], [ 35.566667, 7.475 ], [ 35.566667, 7.483333 ], [ 35.558333, 7.483333 ], [ 35.558333, 7.491667 ], [ 35.55, 7.491667 ], [ 35.55, 7.508333 ], [ 35.566667, 7.508333 ], [ 35.566667, 7.516667 ], [ 35.575, 7.516667 ], [ 35.575, 7.508333 ], [ 35.6, 7.508333 ], [ 35.6, 7.525 ], [ 35.625, 7.525 ], [ 35.625, 7.516667 ], [ 35.633333, 7.516667 ], [ 35.633333, 7.525 ], [ 35.683333, 7.525 ], [ 35.683333, 7.541667 ], [ 35.691667, 7.541667 ], [ 35.691667, 7.558333 ], [ 35.7, 7.558333 ], [ 35.7, 7.566667 ], [ 35.691667, 7.566667 ], [ 35.691667, 7.583333 ], [ 35.708333, 7.583333 ], [ 35.708333, 7.575 ], [ 35.741667, 7.575 ], [ 35.741667, 7.591667 ], [ 35.758333, 7.591667 ], [ 35.758333, 7.6 ], [ 35.841667, 7.6 ], [ 35.841667, 7.608333 ], [ 35.866667, 7.608333 ], [ 35.866667, 7.616667 ], [ 35.875, 7.616667 ], [ 35.875, 7.625 ], [ 35.883333, 7.625 ], [ 35.883333, 7.641667 ], [ 35.908333, 7.641667 ], [ 35.908333, 7.65 ], [ 35.925, 7.65 ], [ 35.925, 7.658333 ], [ 35.933333, 7.658333 ], [ 35.933333, 7.675 ], [ 35.925, 7.675 ], [ 35.925, 7.691667 ], [ 35.958333, 7.691667 ], [ 35.958333, 7.7 ], [ 35.975, 7.7 ], [ 35.975, 7.691667 ], [ 35.983333, 7.691667 ], [ 35.983333, 7.683333 ], [ 36.025, 7.683333 ], [ 36.025, 7.666667 ], [ 36.033333, 7.666667 ], [ 36.033333, 7.683333 ], [ 36.041667, 7.683333 ], [ 36.041667, 7.675 ], [ 36.05, 7.675 ], [ 36.05, 7.683333 ], [ 36.058333, 7.683333 ], [ 36.058333, 7.7 ], [ 36.066667, 7.7 ], [ 36.066667, 7.708333 ], [ 36.083333, 7.708333 ], [ 36.083333, 7.733333 ], [ 36.1, 7.733333 ], [ 36.1, 7.725 ], [ 36.133333, 7.725 ], [ 36.133333, 7.733333 ], [ 36.141667, 7.733333 ], [ 36.141667, 7.75 ], [ 36.158333, 7.75 ], [ 36.158333, 7.766667 ], [ 36.2, 7.766667 ], [ 36.2, 7.758333 ], [ 36.225, 7.758333 ], [ 36.225, 7.775 ], [ 36.233333, 7.775 ], [ 36.233333, 7.783333 ], [ 36.25, 7.783333 ], [ 36.25, 7.791667 ], [ 36.283333, 7.791667 ], [ 36.283333, 7.8 ], [ 36.325, 7.8 ], [ 36.325, 7.791667 ], [ 36.333333, 7.791667 ], [ 36.333333, 7.8 ], [ 36.341667, 7.8 ], [ 36.341667, 7.808333 ], [ 36.35, 7.808333 ], [ 36.35, 7.816667 ], [ 36.358333, 7.816667 ], [ 36.358333, 7.825 ], [ 36.366667, 7.825 ], [ 36.366667, 7.833333 ], [ 36.383333, 7.833333 ], [ 36.383333, 7.825 ], [ 36.391667, 7.825 ], [ 36.391667, 7.833333 ], [ 36.4, 7.833333 ], [ 36.4, 7.841667 ], [ 36.408333, 7.841667 ], [ 36.408333, 7.833333 ], [ 36.425, 7.833333 ], [ 36.425, 7.841667 ], [ 36.458333, 7.841667 ], [ 36.458333, 7.833333 ], [ 36.475, 7.833333 ], [ 36.475, 7.8 ], [ 36.508333, 7.8 ], [ 36.508333, 7.791667 ], [ 36.516667, 7.791667 ], [ 36.516667, 7.783333 ], [ 36.525, 7.783333 ], [ 36.525, 7.791667 ], [ 36.533333, 7.791667 ], [ 36.533333, 7.775 ], [ 36.541667, 7.775 ], [ 36.541667, 7.75 ], [ 36.55, 7.75 ], [ 36.55, 7.741667 ], [ 36.558333, 7.741667 ], [ 36.558333, 7.733333 ], [ 36.566667, 7.733333 ], [ 36.566667, 7.716667 ], [ 36.625, 7.716667 ], [ 36.625, 7.725 ], [ 36.641667, 7.725 ], [ 36.641667, 7.716667 ], [ 36.65, 7.716667 ], [ 36.65, 7.708333 ], [ 36.658333, 7.708333 ], [ 36.658333, 7.716667 ], [ 36.683333, 7.716667 ], [ 36.683333, 7.733333 ], [ 36.725, 7.733333 ], [ 36.725, 7.741667 ], [ 36.75, 7.741667 ], [ 36.75, 7.733333 ], [ 36.775, 7.733333 ], [ 36.775, 7.741667 ], [ 36.791667, 7.741667 ], [ 36.791667, 7.75 ], [ 36.808333, 7.75 ], [ 36.808333, 7.758333 ], [ 36.816667, 7.758333 ], [ 36.816667, 7.766667 ], [ 36.833333, 7.766667 ], [ 36.833333, 7.775 ], [ 36.858333, 7.775 ], [ 36.858333, 7.783333 ], [ 36.875, 7.783333 ], [ 36.875, 7.775 ], [ 36.883333, 7.775 ], [ 36.883333, 7.766667 ], [ 36.891667, 7.766667 ], [ 36.891667, 7.783333 ], [ 36.883333, 7.783333 ], [ 36.883333, 7.791667 ], [ 36.875, 7.791667 ], [ 36.875, 7.8 ], [ 36.891667, 7.8 ], [ 36.891667, 7.841667 ], [ 36.883333, 7.841667 ], [ 36.883333, 7.858333 ], [ 36.875, 7.858333 ], [ 36.875, 7.891667 ], [ 36.866667, 7.891667 ], [ 36.866667, 7.908333 ], [ 36.858333, 7.908333 ], [ 36.858333, 7.916667 ], [ 36.85, 7.916667 ], [ 36.85, 7.958333 ], [ 36.841667, 7.958333 ], [ 36.841667, 7.975 ], [ 36.85, 7.975 ], [ 36.85, 7.983333 ], [ 36.841667, 7.983333 ], [ 36.841667, 8.025 ], [ 36.85, 8.025 ], [ 36.85, 8.041667 ], [ 36.858333, 8.041667 ], [ 36.858333, 8.05 ], [ 36.85, 8.05 ], [ 36.85, 8.058333 ], [ 36.866667, 8.058333 ], [ 36.866667, 8.083333 ], [ 36.875, 8.083333 ], [ 36.875, 8.133333 ], [ 36.891667, 8.133333 ], [ 36.891667, 8.141667 ], [ 36.9, 8.141667 ], [ 36.9, 8.166667 ], [ 36.916667, 8.166667 ], [ 36.916667, 8.183333 ], [ 36.908333, 8.183333 ], [ 36.908333, 8.2 ], [ 36.916667, 8.2 ], [ 36.916667, 8.216667 ], [ 36.933333, 8.216667 ], [ 36.933333, 8.25 ], [ 36.941667, 8.25 ], [ 36.941667, 8.266667 ], [ 36.933333, 8.266667 ], [ 36.933333, 8.283333 ], [ 36.941667, 8.283333 ], [ 36.941667, 8.3 ], [ 36.95, 8.3 ], [ 36.95, 8.308333 ], [ 36.958333, 8.308333 ], [ 36.958333, 8.325 ], [ 36.966667, 8.325 ], [ 36.966667, 8.333333 ], [ 36.958333, 8.333333 ], [ 36.958333, 8.341667 ], [ 36.966667, 8.341667 ], [ 36.966667, 8.366667 ], [ 36.975, 8.366667 ], [ 36.975, 8.408333 ], [ 36.983333, 8.408333 ], [ 36.983333, 8.433333 ], [ 36.991667, 8.433333 ], [ 36.991667, 8.458333 ], [ 37.0, 8.458333 ], [ 37.0, 8.466667 ], [ 37.025, 8.466667 ], [ 37.025, 8.475 ], [ 37.033333, 8.475 ], [ 37.033333, 8.483333 ], [ 37.05, 8.483333 ], [ 37.05, 8.5 ], [ 37.041667, 8.5 ], [ 37.041667, 8.508333 ], [ 37.05, 8.508333 ], [ 37.05, 8.541667 ], [ 37.058333, 8.541667 ], [ 37.058333, 8.558333 ], [ 37.066667, 8.558333 ], [ 37.066667, 8.575 ], [ 37.058333, 8.575 ], [ 37.058333, 8.591667 ], [ 37.066667, 8.591667 ], [ 37.066667, 8.6 ], [ 37.058333, 8.6 ], [ 37.058333, 8.616667 ], [ 37.066667, 8.616667 ], [ 37.066667, 8.65 ], [ 37.058333, 8.65 ], [ 37.058333, 8.675 ], [ 37.05, 8.675 ], [ 37.05, 8.691667 ], [ 37.041667, 8.691667 ], [ 37.041667, 8.708333 ], [ 37.033333, 8.708333 ], [ 37.033333, 8.725 ], [ 37.025, 8.725 ], [ 37.025, 8.733333 ], [ 37.033333, 8.733333 ], [ 37.033333, 8.758333 ], [ 37.041667, 8.758333 ], [ 37.041667, 8.775 ], [ 37.033333, 8.775 ], [ 37.033333, 8.783333 ], [ 37.025, 8.783333 ], [ 37.025, 8.775 ], [ 37.016667, 8.775 ], [ 37.016667, 8.783333 ], [ 37.008333, 8.783333 ], [ 37.008333, 8.8 ], [ 37.0, 8.8 ], [ 37.0, 8.808333 ], [ 36.991667, 8.808333 ], [ 36.991667, 8.816667 ], [ 36.983333, 8.816667 ], [ 36.983333, 8.825 ], [ 36.975, 8.825 ], [ 36.975, 8.833333 ], [ 36.966667, 8.833333 ], [ 36.966667, 8.85 ], [ 36.958333, 8.85 ], [ 36.958333, 8.875 ], [ 36.941667, 8.875 ], [ 36.941667, 8.883333 ], [ 36.933333, 8.883333 ], [ 36.933333, 8.908333 ], [ 36.925, 8.908333 ], [ 36.925, 8.925 ], [ 36.933333, 8.925 ], [ 36.933333, 8.95 ], [ 36.925, 8.95 ], [ 36.925, 8.966667 ], [ 36.941667, 8.966667 ], [ 36.941667, 8.983333 ], [ 36.933333, 8.983333 ], [ 36.933333, 9.008333 ], [ 36.941667, 9.008333 ], [ 36.941667, 9.016667 ], [ 36.933333, 9.016667 ], [ 36.933333, 9.033333 ], [ 36.925, 9.033333 ], [ 36.925, 9.05 ], [ 36.916667, 9.05 ], [ 36.916667, 9.058333 ], [ 36.908333, 9.058333 ], [ 36.908333, 9.075 ], [ 36.9, 9.075 ], [ 36.9, 9.1 ], [ 36.891667, 9.1 ], [ 36.891667, 9.108333 ], [ 36.883333, 9.108333 ], [ 36.883333, 9.116667 ], [ 36.866667, 9.116667 ], [ 36.866667, 9.133333 ], [ 36.883333, 9.133333 ], [ 36.883333, 9.141667 ], [ 36.891667, 9.141667 ], [ 36.891667, 9.15 ], [ 36.9, 9.15 ], [ 36.9, 9.158333 ], [ 36.908333, 9.158333 ], [ 36.908333, 9.166667 ], [ 36.916667, 9.166667 ], [ 36.916667, 9.158333 ], [ 36.925, 9.158333 ], [ 36.925, 9.166667 ], [ 36.933333, 9.166667 ], [ 36.933333, 9.191667 ], [ 36.941667, 9.191667 ], [ 36.941667, 9.2 ], [ 36.95, 9.2 ], [ 36.95, 9.25 ], [ 36.958333, 9.25 ], [ 36.958333, 9.266667 ], [ 36.966667, 9.266667 ], [ 36.966667, 9.275 ], [ 36.95, 9.275 ], [ 36.95, 9.308333 ], [ 36.958333, 9.308333 ], [ 36.958333, 9.316667 ], [ 36.966667, 9.316667 ], [ 36.966667, 9.325 ], [ 36.975, 9.325 ], [ 36.975, 9.316667 ], [ 36.991667, 9.316667 ], [ 36.991667, 9.333333 ], [ 37.0, 9.333333 ], [ 37.0, 9.341667 ], [ 37.016667, 9.341667 ], [ 37.016667, 9.35 ], [ 37.025, 9.35 ], [ 37.025, 9.366667 ], [ 37.058333, 9.366667 ], [ 37.058333, 9.358333 ], [ 37.066667, 9.358333 ], [ 37.066667, 9.35 ], [ 37.075, 9.35 ], [ 37.075, 9.333333 ], [ 37.083333, 9.333333 ], [ 37.083333, 9.325 ], [ 37.1, 9.325 ], [ 37.1, 9.316667 ], [ 37.116667, 9.316667 ], [ 37.116667, 9.291667 ], [ 37.125, 9.291667 ], [ 37.125, 9.283333 ], [ 37.141667, 9.283333 ], [ 37.141667, 9.275 ], [ 37.15, 9.275 ], [ 37.15, 9.266667 ], [ 37.166667, 9.266667 ], [ 37.166667, 9.25 ], [ 37.175, 9.25 ], [ 37.175, 9.241667 ], [ 37.2, 9.241667 ], [ 37.2, 9.225 ], [ 37.208333, 9.225 ], [ 37.208333, 9.216667 ], [ 37.216667, 9.216667 ], [ 37.216667, 9.208333 ], [ 37.225, 9.208333 ], [ 37.225, 9.2 ], [ 37.241667, 9.2 ], [ 37.241667, 9.183333 ], [ 37.233333, 9.183333 ], [ 37.233333, 9.175 ], [ 37.25, 9.175 ], [ 37.25, 9.183333 ], [ 37.258333, 9.183333 ], [ 37.258333, 9.175 ], [ 37.266667, 9.175 ], [ 37.266667, 9.166667 ], [ 37.283333, 9.166667 ], [ 37.283333, 9.133333 ], [ 37.291667, 9.133333 ], [ 37.291667, 9.116667 ], [ 37.308333, 9.116667 ], [ 37.308333, 9.108333 ], [ 37.325, 9.108333 ], [ 37.325, 9.091667 ], [ 37.35, 9.091667 ], [ 37.35, 9.1 ], [ 37.366667, 9.1 ], [ 37.366667, 9.108333 ], [ 37.375, 9.108333 ], [ 37.375, 9.116667 ], [ 37.383333, 9.116667 ], [ 37.383333, 9.108333 ], [ 37.4, 9.108333 ], [ 37.4, 9.1 ], [ 37.391667, 9.1 ], [ 37.391667, 9.091667 ], [ 37.383333, 9.091667 ], [ 37.383333, 9.083333 ], [ 37.391667, 9.083333 ], [ 37.391667, 9.075 ], [ 37.4, 9.075 ], [ 37.4, 9.066667 ], [ 37.408333, 9.066667 ], [ 37.408333, 9.058333 ], [ 37.425, 9.058333 ], [ 37.425, 9.05 ], [ 37.441667, 9.05 ], [ 37.441667, 9.041667 ], [ 37.45, 9.041667 ], [ 37.45, 9.008333 ], [ 37.458333, 9.008333 ], [ 37.458333, 9.0 ], [ 37.466667, 9.0 ], [ 37.466667, 8.991667 ], [ 37.458333, 8.991667 ], [ 37.458333, 8.983333 ], [ 37.466667, 8.983333 ], [ 37.466667, 8.975 ], [ 37.475, 8.975 ], [ 37.475, 8.966667 ], [ 37.491667, 8.966667 ], [ 37.491667, 8.95 ], [ 37.508333, 8.95 ], [ 37.508333, 8.941667 ], [ 37.516667, 8.941667 ], [ 37.516667, 8.925 ], [ 37.575, 8.925 ], [ 37.575, 8.933333 ], [ 37.6, 8.933333 ], [ 37.6, 8.925 ], [ 37.608333, 8.925 ], [ 37.608333, 8.9 ], [ 37.6, 8.9 ], [ 37.6, 8.891667 ], [ 37.583333, 8.891667 ], [ 37.583333, 8.883333 ], [ 37.575, 8.883333 ], [ 37.575, 8.875 ], [ 37.566667, 8.875 ], [ 37.566667, 8.858333 ], [ 37.558333, 8.858333 ], [ 37.558333, 8.841667 ], [ 37.55, 8.841667 ], [ 37.55, 8.833333 ], [ 37.541667, 8.833333 ], [ 37.541667, 8.825 ], [ 37.55, 8.825 ], [ 37.55, 8.816667 ], [ 37.541667, 8.816667 ], [ 37.541667, 8.8 ], [ 37.525, 8.8 ], [ 37.525, 8.791667 ], [ 37.516667, 8.791667 ], [ 37.516667, 8.775 ], [ 37.5, 8.775 ], [ 37.5, 8.783333 ], [ 37.483333, 8.783333 ], [ 37.483333, 8.766667 ], [ 37.491667, 8.766667 ], [ 37.491667, 8.75 ], [ 37.5, 8.75 ], [ 37.5, 8.733333 ], [ 37.516667, 8.733333 ], [ 37.516667, 8.725 ], [ 37.533333, 8.725 ], [ 37.533333, 8.741667 ], [ 37.55, 8.741667 ], [ 37.55, 8.733333 ], [ 37.575, 8.733333 ], [ 37.575, 8.741667 ], [ 37.583333, 8.741667 ], [ 37.583333, 8.733333 ], [ 37.591667, 8.733333 ], [ 37.591667, 8.725 ], [ 37.6, 8.725 ], [ 37.6, 8.716667 ], [ 37.608333, 8.716667 ], [ 37.608333, 8.708333 ], [ 37.633333, 8.708333 ], [ 37.633333, 8.7 ], [ 37.641667, 8.7 ], [ 37.641667, 8.708333 ], [ 37.65, 8.708333 ], [ 37.65, 8.7 ], [ 37.658333, 8.7 ], [ 37.658333, 8.708333 ], [ 37.683333, 8.708333 ], [ 37.683333, 8.716667 ], [ 37.691667, 8.716667 ], [ 37.691667, 8.725 ], [ 37.708333, 8.725 ], [ 37.708333, 8.733333 ], [ 37.75, 8.733333 ], [ 37.75, 8.725 ], [ 37.766667, 8.725 ], [ 37.766667, 8.733333 ], [ 37.775, 8.733333 ], [ 37.775, 8.741667 ], [ 37.791667, 8.741667 ], [ 37.791667, 8.75 ], [ 37.8, 8.75 ], [ 37.8, 8.766667 ], [ 37.825, 8.766667 ], [ 37.825, 8.775 ], [ 37.833333, 8.775 ], [ 37.833333, 8.783333 ], [ 37.841667, 8.783333 ], [ 37.841667, 8.816667 ], [ 37.858333, 8.816667 ], [ 37.858333, 8.808333 ], [ 37.866667, 8.808333 ], [ 37.866667, 8.8 ], [ 37.875, 8.8 ], [ 37.875, 8.808333 ], [ 37.891667, 8.808333 ], [ 37.891667, 8.816667 ], [ 37.9, 8.816667 ], [ 37.9, 8.808333 ], [ 37.916667, 8.808333 ], [ 37.916667, 8.791667 ], [ 37.925, 8.791667 ], [ 37.925, 8.783333 ], [ 37.95, 8.783333 ], [ 37.95, 8.775 ], [ 37.958333, 8.775 ], [ 37.958333, 8.766667 ], [ 37.966667, 8.766667 ], [ 37.966667, 8.75 ], [ 37.975, 8.75 ], [ 37.975, 8.733333 ], [ 38.0, 8.733333 ], [ 38.0, 8.725 ], [ 37.991667, 8.725 ], [ 37.991667, 8.716667 ], [ 38.008333, 8.716667 ], [ 38.008333, 8.708333 ], [ 38.016667, 8.708333 ], [ 38.016667, 8.7 ], [ 38.025, 8.7 ], [ 38.025, 8.675 ], [ 38.033333, 8.675 ], [ 38.033333, 8.666667 ], [ 38.041667, 8.666667 ], [ 38.041667, 8.65 ], [ 38.05, 8.65 ], [ 38.05, 8.641667 ], [ 38.083333, 8.641667 ], [ 38.083333, 8.633333 ], [ 38.091667, 8.633333 ], [ 38.091667, 8.625 ], [ 38.116667, 8.625 ], [ 38.116667, 8.616667 ], [ 38.133333, 8.616667 ], [ 38.133333, 8.608333 ], [ 38.125, 8.608333 ], [ 38.125, 8.575 ], [ 38.116667, 8.575 ], [ 38.116667, 8.566667 ], [ 38.125, 8.566667 ], [ 38.125, 8.558333 ], [ 38.133333, 8.558333 ], [ 38.133333, 8.55 ], [ 38.15, 8.55 ], [ 38.15, 8.541667 ], [ 38.175, 8.541667 ], [ 38.175, 8.525 ], [ 38.191667, 8.525 ], [ 38.191667, 8.516667 ], [ 38.2, 8.516667 ], [ 38.2, 8.508333 ], [ 38.216667, 8.508333 ], [ 38.216667, 8.5 ], [ 38.225, 8.5 ], [ 38.225, 8.483333 ], [ 38.233333, 8.483333 ], [ 38.233333, 8.475 ], [ 38.25, 8.475 ], [ 38.25, 8.466667 ], [ 38.258333, 8.466667 ], [ 38.258333, 8.458333 ], [ 38.275, 8.458333 ], [ 38.275, 8.45 ], [ 38.308333, 8.45 ], [ 38.308333, 8.441667 ], [ 38.316667, 8.441667 ], [ 38.316667, 8.433333 ], [ 38.333333, 8.433333 ], [ 38.333333, 8.425 ], [ 38.341667, 8.425 ], [ 38.341667, 8.416667 ], [ 38.358333, 8.416667 ], [ 38.358333, 8.408333 ], [ 38.375, 8.408333 ], [ 38.375, 8.4 ], [ 38.383333, 8.4 ], [ 38.383333, 8.383333 ], [ 38.391667, 8.383333 ], [ 38.391667, 8.391667 ], [ 38.4, 8.391667 ], [ 38.4, 8.383333 ], [ 38.408333, 8.383333 ], [ 38.408333, 8.35 ], [ 38.4, 8.35 ], [ 38.4, 8.341667 ], [ 38.391667, 8.341667 ], [ 38.391667, 8.291667 ], [ 38.383333, 8.291667 ], [ 38.383333, 8.283333 ], [ 38.366667, 8.283333 ], [ 38.366667, 8.275 ], [ 38.358333, 8.275 ], [ 38.358333, 8.266667 ], [ 38.341667, 8.266667 ], [ 38.341667, 8.258333 ], [ 38.333333, 8.258333 ], [ 38.333333, 8.25 ], [ 38.325, 8.25 ], [ 38.325, 8.233333 ], [ 38.308333, 8.233333 ], [ 38.308333, 8.225 ], [ 38.3, 8.225 ], [ 38.3, 8.216667 ], [ 38.291667, 8.216667 ], [ 38.291667, 8.208333 ], [ 38.283333, 8.208333 ], [ 38.283333, 8.191667 ], [ 38.275, 8.191667 ], [ 38.275, 8.166667 ], [ 38.266667, 8.166667 ], [ 38.266667, 8.141667 ], [ 38.258333, 8.141667 ], [ 38.258333, 8.133333 ], [ 38.25, 8.133333 ], [ 38.25, 8.125 ], [ 38.208333, 8.125 ], [ 38.208333, 8.116667 ], [ 38.2, 8.116667 ], [ 38.2, 8.108333 ], [ 38.191667, 8.108333 ], [ 38.191667, 8.091667 ], [ 38.183333, 8.091667 ], [ 38.183333, 8.083333 ], [ 38.175, 8.083333 ], [ 38.175, 8.066667 ], [ 38.166667, 8.066667 ], [ 38.166667, 8.058333 ], [ 38.158333, 8.058333 ], [ 38.158333, 8.05 ], [ 38.141667, 8.05 ], [ 38.141667, 8.041667 ], [ 38.133333, 8.041667 ], [ 38.133333, 8.033333 ], [ 38.125, 8.033333 ], [ 38.125, 8.025 ], [ 38.116667, 8.025 ], [ 38.116667, 8.008333 ], [ 38.108333, 8.008333 ], [ 38.108333, 8.0 ], [ 38.1, 8.0 ], [ 38.1, 7.991667 ], [ 38.091667, 7.991667 ], [ 38.091667, 7.983333 ], [ 38.083333, 7.983333 ], [ 38.083333, 7.975 ], [ 38.075, 7.975 ], [ 38.075, 7.958333 ], [ 38.066667, 7.958333 ], [ 38.066667, 7.941667 ], [ 38.075, 7.941667 ], [ 38.075, 7.916667 ], [ 38.066667, 7.916667 ], [ 38.066667, 7.908333 ], [ 38.058333, 7.908333 ], [ 38.058333, 7.9 ], [ 38.05, 7.9 ], [ 38.05, 7.883333 ], [ 38.033333, 7.883333 ], [ 38.033333, 7.875 ], [ 38.016667, 7.875 ], [ 38.016667, 7.858333 ], [ 38.008333, 7.858333 ], [ 38.008333, 7.85 ], [ 38.0, 7.85 ], [ 38.0, 7.841667 ], [ 37.975, 7.841667 ], [ 37.975, 7.833333 ], [ 37.966667, 7.833333 ], [ 37.966667, 7.775 ], [ 37.941667, 7.775 ], [ 37.941667, 7.766667 ], [ 37.933333, 7.766667 ], [ 37.933333, 7.758333 ], [ 37.908333, 7.758333 ], [ 37.908333, 7.75 ], [ 37.891667, 7.75 ], [ 37.891667, 7.741667 ], [ 37.883333, 7.741667 ], [ 37.883333, 7.733333 ], [ 37.875, 7.733333 ], [ 37.875, 7.725 ], [ 37.858333, 7.725 ], [ 37.858333, 7.708333 ], [ 37.833333, 7.708333 ], [ 37.833333, 7.716667 ], [ 37.825, 7.716667 ], [ 37.825, 7.7 ], [ 37.816667, 7.7 ], [ 37.816667, 7.683333 ], [ 37.825, 7.683333 ], [ 37.825, 7.675 ], [ 37.816667, 7.675 ], [ 37.816667, 7.658333 ], [ 37.808333, 7.658333 ], [ 37.808333, 7.65 ], [ 37.8, 7.65 ], [ 37.8, 7.633333 ], [ 37.808333, 7.633333 ], [ 37.808333, 7.616667 ], [ 37.816667, 7.616667 ], [ 37.816667, 7.608333 ], [ 37.841667, 7.608333 ], [ 37.841667, 7.6 ], [ 37.85, 7.6 ], [ 37.85, 7.583333 ], [ 37.858333, 7.583333 ], [ 37.858333, 7.575 ], [ 37.866667, 7.575 ], [ 37.866667, 7.541667 ], [ 37.875, 7.541667 ], [ 37.875, 7.508333 ], [ 37.866667, 7.508333 ], [ 37.866667, 7.5 ], [ 37.858333, 7.5 ], [ 37.858333, 7.491667 ], [ 37.85, 7.491667 ], [ 37.85, 7.483333 ], [ 37.841667, 7.483333 ], [ 37.841667, 7.475 ], [ 37.833333, 7.475 ], [ 37.833333, 7.466667 ], [ 37.841667, 7.466667 ], [ 37.841667, 7.45 ], [ 37.833333, 7.45 ], [ 37.833333, 7.441667 ], [ 37.816667, 7.441667 ], [ 37.816667, 7.433333 ], [ 37.808333, 7.433333 ], [ 37.808333, 7.425 ], [ 37.8, 7.425 ], [ 37.8, 7.408333 ], [ 37.791667, 7.408333 ], [ 37.791667, 7.391667 ], [ 37.783333, 7.391667 ], [ 37.783333, 7.383333 ], [ 37.791667, 7.383333 ], [ 37.791667, 7.375 ], [ 37.783333, 7.375 ], [ 37.783333, 7.341667 ], [ 37.775, 7.341667 ], [ 37.775, 7.333333 ], [ 37.783333, 7.333333 ], [ 37.783333, 7.325 ], [ 37.775, 7.325 ], [ 37.775, 7.316667 ], [ 37.791667, 7.316667 ], [ 37.791667, 7.291667 ], [ 37.825, 7.291667 ], [ 37.825, 7.275 ], [ 37.833333, 7.275 ], [ 37.833333, 7.266667 ], [ 37.841667, 7.266667 ], [ 37.841667, 7.275 ], [ 37.85, 7.275 ], [ 37.85, 7.266667 ], [ 37.858333, 7.266667 ], [ 37.858333, 7.275 ], [ 37.866667, 7.275 ], [ 37.866667, 7.291667 ], [ 37.891667, 7.291667 ], [ 37.891667, 7.283333 ], [ 37.9, 7.283333 ], [ 37.9, 7.258333 ], [ 37.908333, 7.258333 ], [ 37.908333, 7.25 ], [ 37.916667, 7.25 ], [ 37.916667, 7.258333 ], [ 37.925, 7.258333 ], [ 37.925, 7.25 ], [ 37.933333, 7.25 ], [ 37.933333, 7.258333 ], [ 37.941667, 7.258333 ], [ 37.941667, 7.25 ], [ 37.95, 7.25 ], [ 37.95, 7.225 ], [ 37.941667, 7.225 ], [ 37.941667, 7.216667 ], [ 37.95, 7.216667 ], [ 37.95, 7.2 ], [ 37.933333, 7.2 ], [ 37.933333, 7.191667 ], [ 37.925, 7.191667 ], [ 37.925, 7.166667 ], [ 37.916667, 7.166667 ], [ 37.916667, 7.158333 ], [ 37.908333, 7.158333 ], [ 37.908333, 7.133333 ], [ 37.9, 7.133333 ], [ 37.9, 7.116667 ], [ 37.891667, 7.116667 ], [ 37.891667, 7.091667 ], [ 37.883333, 7.091667 ], [ 37.883333, 7.083333 ], [ 37.875, 7.083333 ], [ 37.875, 7.075 ], [ 37.866667, 7.075 ], [ 37.866667, 7.066667 ], [ 37.875, 7.066667 ], [ 37.875, 7.033333 ], [ 37.866667, 7.033333 ], [ 37.866667, 7.025 ], [ 37.875, 7.025 ], [ 37.875, 7.016667 ], [ 37.866667, 7.016667 ], [ 37.866667, 7.008333 ], [ 37.858333, 7.008333 ], [ 37.858333, 6.991667 ], [ 37.85, 6.991667 ], [ 37.85, 6.983333 ], [ 37.841667, 6.983333 ], [ 37.841667, 6.975 ], [ 37.833333, 6.975 ], [ 37.833333, 6.95 ], [ 37.825, 6.95 ], [ 37.825, 6.941667 ], [ 37.808333, 6.941667 ], [ 37.808333, 6.925 ], [ 37.8, 6.925 ], [ 37.8, 6.916667 ], [ 37.791667, 6.916667 ], [ 37.791667, 6.908333 ], [ 37.783333, 6.908333 ], [ 37.783333, 6.9 ], [ 37.775, 6.9 ], [ 37.775, 6.883333 ], [ 37.766667, 6.883333 ], [ 37.766667, 6.866667 ], [ 37.758333, 6.866667 ], [ 37.758333, 6.825 ], [ 37.75, 6.825 ], [ 37.75, 6.783333 ], [ 37.758333, 6.783333 ], [ 37.758333, 6.75 ], [ 37.75, 6.75 ], [ 37.75, 6.725 ], [ 37.741667, 6.725 ], [ 37.741667, 6.716667 ], [ 37.733333, 6.716667 ], [ 37.733333, 6.708333 ], [ 37.725, 6.708333 ], [ 37.725, 6.7 ], [ 37.716667, 6.7 ], [ 37.716667, 6.691667 ], [ 37.708333, 6.691667 ], [ 37.708333, 6.675 ], [ 37.716667, 6.675 ], [ 37.716667, 6.666667 ], [ 37.725, 6.666667 ], [ 37.725, 6.658333 ], [ 37.716667, 6.658333 ], [ 37.716667, 6.65 ], [ 37.708333, 6.65 ], [ 37.708333, 6.641667 ], [ 37.7, 6.641667 ], [ 37.7, 6.616667 ], [ 37.691667, 6.616667 ], [ 37.691667, 6.591667 ], [ 37.683333, 6.591667 ], [ 37.683333, 6.583333 ], [ 37.666667, 6.583333 ], [ 37.666667, 6.566667 ], [ 37.658333, 6.566667 ], [ 37.658333, 6.558333 ], [ 37.65, 6.558333 ], [ 37.65, 6.55 ], [ 37.641667, 6.55 ], [ 37.641667, 6.541667 ], [ 37.633333, 6.541667 ], [ 37.633333, 6.508333 ], [ 37.625, 6.508333 ], [ 37.625, 6.491667 ], [ 37.616667, 6.491667 ], [ 37.616667, 6.475 ], [ 37.608333, 6.475 ], [ 37.608333, 6.458333 ], [ 37.616667, 6.458333 ], [ 37.616667, 6.45 ], [ 37.625, 6.45 ], [ 37.625, 6.441667 ], [ 37.616667, 6.441667 ], [ 37.616667, 6.425 ], [ 37.625, 6.425 ], [ 37.625, 6.408333 ], [ 37.633333, 6.408333 ], [ 37.633333, 6.4 ], [ 37.641667, 6.4 ], [ 37.641667, 6.383333 ], [ 37.625, 6.383333 ], [ 37.625, 6.391667 ], [ 37.616667, 6.391667 ], [ 37.616667, 6.383333 ], [ 37.608333, 6.383333 ], [ 37.608333, 6.375 ], [ 37.6, 6.375 ], [ 37.6, 6.35 ], [ 37.583333, 6.35 ], [ 37.583333, 6.341667 ], [ 37.575, 6.341667 ], [ 37.575, 6.316667 ], [ 37.583333, 6.316667 ], [ 37.583333, 6.308333 ], [ 37.566667, 6.308333 ], [ 37.566667, 6.3 ], [ 37.533333, 6.3 ], [ 37.533333, 6.291667 ], [ 37.525, 6.291667 ], [ 37.525, 6.3 ], [ 37.508333, 6.3 ], [ 37.508333, 6.291667 ], [ 37.491667, 6.291667 ], [ 37.491667, 6.283333 ], [ 37.483333, 6.283333 ], [ 37.483333, 6.275 ], [ 37.475, 6.275 ], [ 37.475, 6.266667 ], [ 37.466667, 6.266667 ], [ 37.466667, 6.275 ], [ 37.458333, 6.275 ], [ 37.458333, 6.266667 ], [ 37.45, 6.266667 ], [ 37.45, 6.258333 ], [ 37.441667, 6.258333 ], [ 37.441667, 6.25 ], [ 37.425, 6.25 ], [ 37.425, 6.233333 ], [ 37.4, 6.233333 ], [ 37.4, 6.208333 ], [ 37.391667, 6.208333 ], [ 37.391667, 6.2 ], [ 37.375, 6.2 ], [ 37.375, 6.208333 ], [ 37.358333, 6.208333 ], [ 37.358333, 6.2 ], [ 37.35, 6.2 ], [ 37.35, 6.191667 ], [ 37.333333, 6.191667 ], [ 37.333333, 6.183333 ], [ 37.325, 6.183333 ], [ 37.325, 6.175 ], [ 37.316667, 6.175 ], [ 37.316667, 6.158333 ], [ 37.308333, 6.158333 ], [ 37.308333, 6.15 ], [ 37.3, 6.15 ], [ 37.3, 6.141667 ], [ 37.291667, 6.141667 ], [ 37.291667, 6.133333 ], [ 37.283333, 6.133333 ], [ 37.283333, 6.125 ], [ 37.275, 6.125 ], [ 37.275, 6.108333 ], [ 37.258333, 6.108333 ], [ 37.258333, 6.116667 ], [ 37.25, 6.116667 ], [ 37.25, 6.108333 ], [ 37.241667, 6.108333 ], [ 37.241667, 6.125 ], [ 37.225, 6.125 ], [ 37.225, 6.133333 ], [ 37.216667, 6.133333 ], [ 37.216667, 6.141667 ], [ 37.183333, 6.141667 ], [ 37.183333, 6.15 ], [ 37.158333, 6.15 ], [ 37.158333, 6.158333 ], [ 37.133333, 6.158333 ], [ 37.133333, 6.166667 ], [ 37.125, 6.166667 ], [ 37.125, 6.191667 ], [ 37.133333, 6.191667 ], [ 37.133333, 6.2 ], [ 37.125, 6.2 ], [ 37.125, 6.208333 ], [ 37.133333, 6.208333 ], [ 37.133333, 6.216667 ], [ 37.141667, 6.216667 ], [ 37.141667, 6.241667 ], [ 37.15, 6.241667 ], [ 37.15, 6.266667 ], [ 37.141667, 6.266667 ], [ 37.141667, 6.308333 ], [ 37.125, 6.308333 ], [ 37.125, 6.3 ], [ 37.108333, 6.3 ], [ 37.108333, 6.291667 ], [ 37.1, 6.291667 ], [ 37.1, 6.266667 ], [ 37.091667, 6.266667 ], [ 37.091667, 6.25 ], [ 37.083333, 6.25 ], [ 37.083333, 6.241667 ], [ 37.075, 6.241667 ], [ 37.075, 6.216667 ], [ 37.066667, 6.216667 ], [ 37.066667, 6.2 ], [ 37.058333, 6.2 ], [ 37.058333, 6.191667 ], [ 37.05, 6.191667 ], [ 37.05, 6.2 ], [ 37.033333, 6.2 ], [ 37.033333, 6.208333 ], [ 37.025, 6.208333 ], [ 37.025, 6.216667 ], [ 37.016667, 6.216667 ], [ 37.016667, 6.225 ], [ 37.008333, 6.225 ], [ 37.008333, 6.241667 ], [ 37.0, 6.241667 ], [ 37.0, 6.25 ], [ 36.991667, 6.25 ], [ 36.991667, 6.258333 ], [ 36.983333, 6.258333 ], [ 36.983333, 6.266667 ], [ 36.991667, 6.266667 ], [ 36.991667, 6.275 ], [ 36.975, 6.275 ], [ 36.975, 6.266667 ], [ 36.966667, 6.266667 ], [ 36.966667, 6.258333 ], [ 36.958333, 6.258333 ], [ 36.958333, 6.25 ], [ 36.95, 6.25 ], [ 36.95, 6.241667 ], [ 36.941667, 6.241667 ], [ 36.941667, 6.233333 ], [ 36.933333, 6.233333 ], [ 36.933333, 6.225 ], [ 36.916667, 6.225 ], [ 36.916667, 6.216667 ], [ 36.908333, 6.216667 ], [ 36.908333, 6.208333 ], [ 36.9, 6.208333 ], [ 36.9, 6.191667 ], [ 36.891667, 6.191667 ], [ 36.891667, 6.175 ], [ 36.883333, 6.175 ], [ 36.883333, 6.166667 ], [ 36.866667, 6.166667 ], [ 36.866667, 6.158333 ], [ 36.858333, 6.158333 ], [ 36.858333, 6.166667 ], [ 36.833333, 6.166667 ], [ 36.833333, 6.175 ], [ 36.816667, 6.175 ], [ 36.816667, 6.183333 ], [ 36.791667, 6.183333 ], [ 36.791667, 6.191667 ], [ 36.75, 6.191667 ], [ 36.75, 6.166667 ], [ 36.741667, 6.166667 ], [ 36.741667, 6.1 ], [ 36.725, 6.1 ], [ 36.725, 6.091667 ], [ 36.708333, 6.091667 ], [ 36.708333, 6.083333 ], [ 36.7, 6.083333 ], [ 36.7, 6.075 ], [ 36.691667, 6.075 ], [ 36.691667, 6.058333 ], [ 36.683333, 6.058333 ], [ 36.683333, 6.041667 ], [ 36.675, 6.041667 ], [ 36.675, 6.025 ], [ 36.666667, 6.025 ], [ 36.666667, 6.016667 ], [ 36.658333, 6.016667 ], [ 36.658333, 6.008333 ], [ 36.666667, 6.008333 ], [ 36.666667, 5.966667 ], [ 36.658333, 5.966667 ], [ 36.658333, 5.958333 ], [ 36.666667, 5.958333 ], [ 36.666667, 5.95 ], [ 36.658333, 5.95 ], [ 36.658333, 5.941667 ], [ 36.666667, 5.941667 ], [ 36.666667, 5.933333 ], [ 36.675, 5.933333 ], [ 36.675, 5.925 ], [ 36.666667, 5.925 ], [ 36.666667, 5.916667 ], [ 36.658333, 5.916667 ], [ 36.658333, 5.908333 ], [ 36.641667, 5.908333 ], [ 36.641667, 5.883333 ], [ 36.633333, 5.883333 ], [ 36.633333, 5.841667 ], [ 36.625, 5.841667 ], [ 36.625, 5.833333 ], [ 36.633333, 5.833333 ], [ 36.633333, 5.825 ], [ 36.641667, 5.825 ], [ 36.641667, 5.8 ], [ 36.666667, 5.8 ], [ 36.666667, 5.825 ], [ 36.683333, 5.825 ], [ 36.683333, 5.808333 ], [ 36.7, 5.808333 ], [ 36.7, 5.816667 ], [ 36.708333, 5.816667 ], [ 36.708333, 5.808333 ], [ 36.716667, 5.808333 ], [ 36.716667, 5.791667 ], [ 36.733333, 5.791667 ], [ 36.733333, 5.783333 ], [ 36.741667, 5.783333 ], [ 36.741667, 5.758333 ], [ 36.75, 5.758333 ], [ 36.75, 5.75 ], [ 36.733333, 5.75 ], [ 36.733333, 5.733333 ], [ 36.708333, 5.733333 ], [ 36.708333, 5.725 ], [ 36.7, 5.725 ], [ 36.7, 5.7 ], [ 36.691667, 5.7 ], [ 36.691667, 5.691667 ], [ 36.683333, 5.691667 ], [ 36.683333, 5.683333 ], [ 36.691667, 5.683333 ], [ 36.691667, 5.675 ], [ 36.675, 5.675 ], [ 36.675, 5.65 ], [ 36.683333, 5.65 ], [ 36.683333, 5.616667 ], [ 36.691667, 5.616667 ], [ 36.691667, 5.608333 ], [ 36.708333, 5.608333 ], [ 36.708333, 5.6 ], [ 36.716667, 5.6 ], [ 36.716667, 5.591667 ], [ 36.708333, 5.591667 ], [ 36.708333, 5.583333 ], [ 36.7, 5.583333 ], [ 36.7, 5.566667 ], [ 36.725, 5.566667 ], [ 36.725, 5.525 ], [ 36.733333, 5.525 ], [ 36.733333, 5.516667 ], [ 36.708333, 5.516667 ], [ 36.708333, 5.508333 ], [ 36.7, 5.508333 ], [ 36.7, 5.5 ], [ 36.691667, 5.5 ], [ 36.691667, 5.466667 ], [ 36.666667, 5.466667 ], [ 36.666667, 5.45 ], [ 36.658333, 5.45 ], [ 36.658333, 5.433333 ], [ 36.65, 5.433333 ], [ 36.65, 5.425 ], [ 36.658333, 5.425 ], [ 36.658333, 5.416667 ], [ 36.666667, 5.416667 ], [ 36.666667, 5.408333 ], [ 36.675, 5.408333 ], [ 36.675, 5.4 ], [ 36.683333, 5.4 ], [ 36.683333, 5.391667 ], [ 36.675, 5.391667 ], [ 36.675, 5.366667 ], [ 36.658333, 5.366667 ], [ 36.658333, 5.35 ], [ 36.65, 5.35 ], [ 36.65, 5.366667 ], [ 36.641667, 5.366667 ], [ 36.641667, 5.375 ], [ 36.633333, 5.375 ], [ 36.633333, 5.383333 ], [ 36.625, 5.383333 ], [ 36.625, 5.4 ], [ 36.583333, 5.4 ], [ 36.583333, 5.391667 ], [ 36.575, 5.391667 ], [ 36.575, 5.383333 ], [ 36.566667, 5.383333 ], [ 36.566667, 5.358333 ], [ 36.558333, 5.358333 ], [ 36.558333, 5.35 ], [ 36.55, 5.35 ], [ 36.55, 5.341667 ], [ 36.541667, 5.341667 ], [ 36.541667, 5.325 ], [ 36.516667, 5.325 ], [ 36.516667, 5.308333 ], [ 36.525, 5.308333 ], [ 36.525, 5.291667 ], [ 36.533333, 5.291667 ], [ 36.533333, 5.283333 ], [ 36.525, 5.283333 ], [ 36.525, 5.275 ], [ 36.516667, 5.275 ], [ 36.516667, 5.266667 ], [ 36.491667, 5.266667 ], [ 36.491667, 5.241667 ], [ 36.508333, 5.241667 ], [ 36.508333, 5.233333 ], [ 36.5, 5.233333 ], [ 36.5, 5.191667 ], [ 36.491667, 5.191667 ], [ 36.491667, 5.183333 ], [ 36.483333, 5.183333 ], [ 36.483333, 5.175 ], [ 36.466667, 5.175 ], [ 36.466667, 5.183333 ], [ 36.441667, 5.183333 ], [ 36.441667, 5.175 ], [ 36.433333, 5.175 ], [ 36.433333, 5.158333 ], [ 36.441667, 5.158333 ], [ 36.441667, 5.15 ], [ 36.425, 5.15 ], [ 36.425, 5.141667 ], [ 36.416667, 5.141667 ], [ 36.416667, 5.133333 ], [ 36.408333, 5.133333 ], [ 36.408333, 5.108333 ], [ 36.4, 5.108333 ], [ 36.4, 5.1 ], [ 36.391667, 5.1 ], [ 36.391667, 5.108333 ], [ 36.341667, 5.108333 ], [ 36.341667, 5.1 ], [ 36.308333, 5.1 ], [ 36.308333, 5.108333 ], [ 36.3, 5.108333 ], [ 36.3, 5.1 ], [ 36.266667, 5.1 ], [ 36.266667, 5.108333 ], [ 36.258333, 5.108333 ], [ 36.258333, 5.116667 ], [ 36.216667, 5.116667 ], [ 36.216667, 5.125 ], [ 36.175, 5.125 ], [ 36.175, 5.133333 ], [ 36.158333, 5.133333 ], [ 36.158333, 5.141667 ], [ 36.15, 5.141667 ], [ 36.15, 5.133333 ], [ 36.141667, 5.133333 ], [ 36.141667, 5.141667 ], [ 36.133333, 5.141667 ], [ 36.133333, 5.15 ], [ 36.125, 5.15 ], [ 36.125, 5.141667 ], [ 36.116667, 5.141667 ], [ 36.116667, 5.125 ], [ 36.108333, 5.125 ], [ 36.108333, 5.108333 ], [ 36.1, 5.108333 ], [ 36.1, 5.1 ], [ 36.083333, 5.1 ], [ 36.083333, 5.083333 ], [ 36.075, 5.083333 ], [ 36.075, 5.075 ], [ 36.066667, 5.075 ], [ 36.066667, 5.066667 ], [ 36.075, 5.066667 ], [ 36.075, 5.041667 ], [ 36.083333, 5.041667 ], [ 36.083333, 5.033333 ], [ 36.075, 5.033333 ], [ 36.075, 5.016667 ], [ 36.058333, 5.016667 ], [ 36.058333, 5.008333 ], [ 36.066667, 5.008333 ], [ 36.066667, 4.991667 ], [ 36.058333, 4.991667 ], [ 36.058333, 4.983333 ], [ 36.008333, 4.983333 ], [ 36.008333, 4.975 ], [ 35.991667, 4.975 ], [ 35.991667, 4.983333 ], [ 35.975, 4.983333 ] ] ], [ [ [ 36.091667, 4.983333 ], [ 36.091667, 4.966667 ], [ 36.075, 4.966667 ], [ 36.075, 4.975 ], [ 36.058333, 4.975 ], [ 36.058333, 4.983333 ], [ 36.075, 4.983333 ], [ 36.075, 4.991667 ], [ 36.083333, 4.991667 ], [ 36.083333, 4.983333 ], [ 36.091667, 4.983333 ] ] ], [ [ [ 36.675, 5.916667 ], [ 36.675, 5.908333 ], [ 36.666667, 5.908333 ], [ 36.666667, 5.916667 ], [ 36.675, 5.916667 ] ] ] ] } },
{ "type": "Feature", "properties": { "value": 1.0 }, "geometry": { "type": "Polygon", "coordinates": [ [ [ 35.475, 5.358333 ], [ 35.458333, 5.358333 ], [ 35.458333, 5.35 ], [ 35.441667, 5.35 ], [ 35.441667, 5.341667 ], [ 35.433333, 5.341667 ], [ 35.433333, 5.333333 ], [ 35.416667, 5.333333 ], [ 35.416667, 5.341667 ], [ 35.4, 5.341667 ], [ 35.4, 5.316667 ], [ 35.383333, 5.316667 ], [ 35.383333, 5.308333 ], [ 35.358333, 5.308333 ], [ 35.358333, 5.325 ], [ 35.35, 5.325 ], [ 35.35, 5.316667 ], [ 35.341667, 5.316667 ], [ 35.341667, 5.325 ], [ 35.333333, 5.325 ], [ 35.333333, 5.341667 ], [ 35.325, 5.341667 ], [ 35.325, 5.333333 ], [ 35.316667, 5.333333 ], [ 35.316667, 5.35 ], [ 35.3, 5.35 ], [ 35.3, 5.366667 ], [ 35.291667, 5.366667 ], [ 35.291667, 5.433333 ], [ 35.3, 5.433333 ], [ 35.3, 5.441667 ], [ 35.308333, 5.441667 ], [ 35.308333, 5.491667 ], [ 35.316667, 5.491667 ], [ 35.316667, 5.5 ], [ 35.3, 5.5 ], [ 35.3, 5.508333 ], [ 35.291667, 5.508333 ], [ 35.291667, 5.516667 ], [ 35.3, 5.516667 ], [ 35.3, 5.558333 ], [ 35.308333, 5.558333 ], [ 35.308333, 5.583333 ], [ 35.316667, 5.583333 ], [ 35.316667, 5.6 ], [ 35.325, 5.6 ], [ 35.325, 5.641667 ], [ 35.316667, 5.641667 ], [ 35.316667, 5.65 ], [ 35.325, 5.65 ], [ 35.325, 5.733333 ], [ 35.316667, 5.733333 ], [ 35.316667, 5.741667 ], [ 35.308333, 5.741667 ], [ 35.308333, 5.766667 ], [ 35.3, 5.766667 ], [ 35.3, 5.783333 ], [ 35.308333, 5.783333 ], [ 35.308333, 5.791667 ], [ 35.3, 5.791667 ], [ 35.3, 5.808333 ], [ 35.308333, 5.808333 ], [ 35.308333, 5.816667 ], [ 35.291667, 5.816667 ], [ 35.291667, 5.833333 ], [ 35.283333, 5.833333 ], [ 35.283333, 5.85 ], [ 35.275, 5.85 ], [ 35.275, 5.866667 ], [ 35.291667, 5.866667 ], [ 35.291667, 5.875 ], [ 35.3, 5.875 ], [ 35.3, 5.883333 ], [ 35.291667, 5.883333 ], [ 35.291667, 5.908333 ], [ 35.283333, 5.908333 ], [ 35.283333, 5.925 ], [ 35.275, 5.925 ], [ 35.275, 5.933333 ], [ 35.258333, 5.933333 ], [ 35.258333, 5.941667 ], [ 35.25, 5.941667 ], [ 35.25, 5.95 ], [ 35.241667, 5.95 ], [ 35.241667, 5.958333 ], [ 35.233333, 5.958333 ], [ 35.233333, 5.966667 ], [ 35.241667, 5.966667 ], [ 35.241667, 5.975 ], [ 35.25, 5.975 ], [ 35.25, 5.983333 ], [ 35.258333, 5.983333 ], [ 35.258333, 5.991667 ], [ 35.266667, 5.991667 ], [ 35.266667, 6.008333 ], [ 35.275, 6.008333 ], [ 35.275, 6.05 ], [ 35.283333, 6.05 ], [ 35.283333, 6.058333 ], [ 35.291667, 6.058333 ], [ 35.291667, 6.066667 ], [ 35.3, 6.066667 ], [ 35.3, 6.075 ], [ 35.308333, 6.075 ], [ 35.308333, 6.066667 ], [ 35.316667, 6.066667 ], [ 35.316667, 6.075 ], [ 35.333333, 6.075 ], [ 35.333333, 6.091667 ], [ 35.341667, 6.091667 ], [ 35.341667, 6.1 ], [ 35.35, 6.1 ], [ 35.35, 6.108333 ], [ 35.366667, 6.108333 ], [ 35.366667, 6.1 ], [ 35.375, 6.1 ], [ 35.375, 6.091667 ], [ 35.383333, 6.091667 ], [ 35.383333, 6.1 ], [ 35.4, 6.1 ], [ 35.4, 6.116667 ], [ 35.408333, 6.116667 ], [ 35.408333, 6.125 ], [ 35.433333, 6.125 ], [ 35.433333, 6.133333 ], [ 35.45, 6.133333 ], [ 35.45, 6.15 ], [ 35.466667, 6.15 ], [ 35.466667, 6.158333 ], [ 35.458333, 6.158333 ], [ 35.458333, 6.175 ], [ 35.475, 6.175 ], [ 35.475, 6.183333 ], [ 35.483333, 6.183333 ], [ 35.483333, 6.191667 ], [ 35.491667, 6.191667 ], [ 35.491667, 6.2 ], [ 35.55, 6.2 ], [ 35.55, 6.183333 ], [ 35.566667, 6.183333 ], [ 35.566667, 6.166667 ], [ 35.575, 6.166667 ], [ 35.575, 6.158333 ], [ 35.6, 6.158333 ], [ 35.6, 6.141667 ], [ 35.591667, 6.141667 ], [ 35.591667, 6.133333 ], [ 35.583333, 6.133333 ], [ 35.583333, 6.125 ], [ 35.575, 6.125 ], [ 35.575, 6.1 ], [ 35.566667, 6.1 ], [ 35.566667, 6.083333 ], [ 35.558333, 6.083333 ], [ 35.558333, 6.075 ], [ 35.55, 6.075 ], [ 35.55, 6.05 ], [ 35.541667, 6.05 ], [ 35.541667, 6.041667 ], [ 35.55, 6.041667 ], [ 35.55, 6.025 ], [ 35.558333, 6.025 ], [ 35.558333, 6.016667 ], [ 35.566667, 6.016667 ], [ 35.566667, 6.0 ], [ 35.575, 6.0 ], [ 35.575, 5.975 ], [ 35.558333, 5.975 ], [ 35.558333, 5.966667 ], [ 35.541667, 5.966667 ], [ 35.541667, 5.95 ], [ 35.533333, 5.95 ], [ 35.533333, 5.925 ], [ 35.55, 5.925 ], [ 35.55, 5.908333 ], [ 35.558333, 5.908333 ], [ 35.558333, 5.891667 ], [ 35.575, 5.891667 ], [ 35.575, 5.875 ], [ 35.591667, 5.875 ], [ 35.591667, 5.858333 ], [ 35.6, 5.858333 ], [ 35.6, 5.841667 ], [ 35.608333, 5.841667 ], [ 35.608333, 5.816667 ], [ 35.616667, 5.816667 ], [ 35.616667, 5.791667 ], [ 35.625, 5.791667 ], [ 35.625, 5.766667 ], [ 35.633333, 5.766667 ], [ 35.633333, 5.758333 ], [ 35.625, 5.758333 ], [ 35.625, 5.733333 ], [ 35.633333, 5.733333 ], [ 35.633333, 5.725 ], [ 35.641667, 5.725 ], [ 35.641667, 5.716667 ], [ 35.65, 5.716667 ], [ 35.65, 5.7 ], [ 35.641667, 5.7 ], [ 35.641667, 5.691667 ], [ 35.65, 5.691667 ], [ 35.65, 5.65 ], [ 35.658333, 5.65 ], [ 35.658333, 5.633333 ], [ 35.666667, 5.633333 ], [ 35.666667, 5.608333 ], [ 35.675, 5.608333 ], [ 35.675, 5.583333 ], [ 35.683333, 5.583333 ], [ 35.683333, 5.575 ], [ 35.691667, 5.575 ], [ 35.691667, 5.558333 ], [ 35.7, 5.558333 ], [ 35.7, 5.541667 ], [ 35.691667, 5.541667 ], [ 35.691667, 5.533333 ], [ 35.683333, 5.533333 ], [ 35.683333, 5.525 ], [ 35.666667, 5.525 ], [ 35.666667, 5.5 ], [ 35.658333, 5.5 ], [ 35.658333, 5.475 ], [ 35.641667, 5.475 ], [ 35.641667, 5.483333 ], [ 35.633333, 5.483333 ], [ 35.633333, 5.475 ], [ 35.625, 5.475 ], [ 35.625, 5.458333 ], [ 35.616667, 5.458333 ], [ 35.616667, 5.433333 ], [ 35.625, 5.433333 ], [ 35.625, 5.391667 ], [ 35.65, 5.391667 ], [ 35.65, 5.4 ], [ 35.658333, 5.4 ], [ 35.658333, 5.391667 ], [ 35.691667, 5.391667 ], [ 35.691667, 5.4 ], [ 35.75, 5.4 ], [ 35.75, 5.408333 ], [ 35.775, 5.408333 ], [ 35.775, 5.4 ], [ 35.783333, 5.4 ], [ 35.783333, 5.391667 ], [ 35.791667, 5.391667 ], [ 35.791667, 5.383333 ], [ 35.816667, 5.383333 ], [ 35.816667, 5.375 ], [ 35.85, 5.375 ], [ 35.85, 5.383333 ], [ 35.866667, 5.383333 ], [ 35.866667, 5.375 ], [ 35.875, 5.375 ], [ 35.875, 5.383333 ], [ 35.9, 5.383333 ], [ 35.9, 5.375 ], [ 35.916667, 5.375 ], [ 35.916667, 5.366667 ], [ 35.925, 5.366667 ], [ 35.925, 5.333333 ], [ 35.916667, 5.333333 ], [ 35.916667, 5.325 ], [ 35.925, 5.325 ], [ 35.925, 5.316667 ], [ 35.933333, 5.316667 ], [ 35.933333, 5.308333 ], [ 35.941667, 5.308333 ], [ 35.941667, 5.3 ], [ 35.95, 5.3 ], [ 35.95, 5.291667 ], [ 35.958333, 5.291667 ], [ 35.958333, 5.283333 ], [ 35.991667, 5.283333 ], [ 35.991667, 5.266667 ], [ 36.0, 5.266667 ], [ 36.0, 5.25 ], [ 36.008333, 5.25 ], [ 36.008333, 5.208333 ], [ 36.016667, 5.208333 ], [ 36.016667, 5.191667 ], [ 36.008333, 5.191667 ], [ 36.008333, 5.183333 ], [ 36.016667, 5.183333 ], [ 36.016667, 5.175 ], [ 36.008333, 5.175 ], [ 36.008333, 5.141667 ], [ 36.0, 5.141667 ], [ 36.0, 5.116667 ], [ 35.991667, 5.116667 ], [ 35.991667, 5.125 ], [ 35.975, 5.125 ], [ 35.975, 5.116667 ], [ 35.966667, 5.116667 ], [ 35.966667, 5.125 ], [ 35.941667, 5.125 ], [ 35.941667, 5.133333 ], [ 35.933333, 5.133333 ], [ 35.933333, 5.125 ], [ 35.916667, 5.125 ], [ 35.916667, 5.116667 ], [ 35.891667, 5.116667 ], [ 35.891667, 5.1 ], [ 35.883333, 5.1 ], [ 35.883333, 5.075 ], [ 35.875, 5.075 ], [ 35.875, 5.066667 ], [ 35.866667, 5.066667 ], [ 35.866667, 5.058333 ], [ 35.875, 5.058333 ], [ 35.875, 5.05 ], [ 35.883333, 5.05 ], [ 35.883333, 5.025 ], [ 35.891667, 5.025 ], [ 35.891667, 5.016667 ], [ 35.883333, 5.016667 ], [ 35.883333, 5.0 ], [ 35.875, 5.0 ], [ 35.875, 4.991667 ], [ 35.866667, 4.991667 ], [ 35.866667, 4.966667 ], [ 35.858333, 4.966667 ], [ 35.858333, 4.958333 ], [ 35.85, 4.958333 ], [ 35.85, 4.95 ], [ 35.841667, 4.95 ], [ 35.841667, 4.925 ], [ 35.833333, 4.925 ], [ 35.833333, 4.933333 ], [ 35.825, 4.933333 ], [ 35.825, 4.941667 ], [ 35.816667, 4.941667 ], [ 35.816667, 4.966667 ], [ 35.8, 4.966667 ], [ 35.8, 4.975 ], [ 35.791667, 4.975 ], [ 35.791667, 5.033333 ], [ 35.8, 5.033333 ], [ 35.8, 5.083333 ], [ 35.808333, 5.083333 ], [ 35.808333, 5.1 ], [ 35.816667, 5.1 ], [ 35.816667, 5.116667 ], [ 35.825, 5.116667 ], [ 35.825, 5.125 ], [ 35.833333, 5.125 ], [ 35.833333, 5.133333 ], [ 35.841667, 5.133333 ], [ 35.841667, 5.15 ], [ 35.85, 5.15 ], [ 35.85, 5.158333 ], [ 35.858333, 5.158333 ], [ 35.858333, 5.166667 ], [ 35.85, 5.166667 ], [ 35.85, 5.183333 ], [ 35.841667, 5.183333 ], [ 35.841667, 5.191667 ], [ 35.833333, 5.191667 ], [ 35.833333, 5.2 ], [ 35.825, 5.2 ], [ 35.825, 5.191667 ], [ 35.783333, 5.191667 ], [ 35.783333, 5.183333 ], [ 35.775, 5.183333 ], [ 35.775, 5.191667 ], [ 35.766667, 5.191667 ], [ 35.766667, 5.183333 ], [ 35.725, 5.183333 ], [ 35.725, 5.175 ], [ 35.716667, 5.175 ], [ 35.716667, 5.183333 ], [ 35.708333, 5.183333 ], [ 35.708333, 5.175 ], [ 35.666667, 5.175 ], [ 35.666667, 5.191667 ], [ 35.65, 5.191667 ], [ 35.65, 5.2 ], [ 35.641667, 5.2 ], [ 35.641667, 5.208333 ], [ 35.625, 5.208333 ], [ 35.625, 5.225 ], [ 35.616667, 5.225 ], [ 35.616667, 5.233333 ], [ 35.608333, 5.233333 ], [ 35.608333, 5.25 ], [ 35.6, 5.25 ], [ 35.6, 5.266667 ], [ 35.591667, 5.266667 ], [ 35.591667, 5.275 ], [ 35.583333, 5.275 ], [ 35.583333, 5.283333 ], [ 35.575, 5.283333 ], [ 35.575, 5.291667 ], [ 35.566667, 5.291667 ], [ 35.566667, 5.3 ], [ 35.558333, 5.3 ], [ 35.558333, 5.316667 ], [ 35.55, 5.316667 ], [ 35.55, 5.325 ], [ 35.541667, 5.325 ], [ 35.541667, 5.316667 ], [ 35.533333, 5.316667 ], [ 35.533333, 5.333333 ], [ 35.541667, 5.333333 ], [ 35.541667, 5.35 ], [ 35.533333, 5.35 ], [ 35.533333, 5.358333 ], [ 35.516667, 5.358333 ], [ 35.516667, 5.341667 ], [ 35.508333, 5.341667 ], [ 35.508333, 5.333333 ], [ 35.483333, 5.333333 ], [ 35.483333, 5.35 ], [ 35.475, 5.35 ], [ 35.475, 5.358333 ] ], [ [ 35.508333, 5.35 ], [ 35.5, 5.35 ], [ 35.5, 5.341667 ], [ 35.508333, 5.341667 ], [ 35.508333, 5.35 ] ] ] } },
{ "type": "Feature", "properties": { "value": 4.0 }, "geometry": { "type": "MultiPolygon", "coordinates": [ [ [ [ 35.541667, 5.35 ], [ 35.541667, 5.333333 ], [ 35.533333, 5.333333 ], [ 35.533333, 5.316667 ], [ 35.541667, 5.316667 ], [ 35.541667, 5.325 ], [ 35.55, 5.325 ], [ 35.55, 5.316667 ], [ 35.558333, 5.316667 ], [ 35.558333, 5.3 ], [ 35.566667, 5.3 ], [ 35.566667, 5.291667 ], [ 35.575, 5.291667 ], [ 35.575, 5.283333 ], [ 35.583333, 5.283333 ], [ 35.583333, 5.275 ], [ 35.591667, 5.275 ], [ 35.591667, 5.266667 ], [ 35.6, 5.266667 ], [ 35.6, 5.25 ], [ 35.608333, 5.25 ], [ 35.608333, 5.233333 ], [ 35.616667, 5.233333 ], [ 35.616667, 5.225 ], [ 35.625, 5.225 ], [ 35.625, 5.208333 ], [ 35.641667, 5.208333 ], [ 35.641667, 5.2 ], [ 35.65, 5.2 ], [ 35.65, 5.191667 ], [ 35.666667, 5.191667 ], [ 35.666667, 5.175 ], [ 35.708333, 5.175 ], [ 35.708333, 5.183333 ], [ 35.716667, 5.183333 ], [ 35.716667, 5.175 ], [ 35.725, 5.175 ], [ 35.725, 5.183333 ], [ 35.766667, 5.183333 ], [ 35.766667, 5.191667 ], [ 35.775, 5.191667 ], [ 35.775, 5.183333 ], [ 35.783333, 5.183333 ], [ 35.783333, 5.191667 ], [ 35.825, 5.191667 ], [ 35.825, 5.2 ], [ 35.833333, 5.2 ], [ 35.833333, 5.191667 ], [ 35.841667, 5.191667 ], [ 35.841667, 5.183333 ], [ 35.85, 5.183333 ], [ 35.85, 5.166667 ], [ 35.858333, 5.166667 ], [ 35.858333, 5.158333 ], [ 35.85, 5.158333 ], [ 35.85, 5.15 ], [ 35.841667, 5.15 ], [ 35.841667, 5.133333 ], [ 35.833333, 5.133333 ], [ 35.833333, 5.125 ], [ 35.825, 5.125 ], [ 35.825, 5.116667 ], [ 35.816667, 5.116667 ], [ 35.816667, 5.1 ], [ 35.808333, 5.1 ], [ 35.808333, 5.083333 ], [ 35.8, 5.083333 ], [ 35.8, 5.058333 ], [ 35.791667, 5.058333 ], [ 35.791667, 5.05 ], [ 35.783333, 5.05 ], [ 35.783333, 5.058333 ], [ 35.775, 5.058333 ], [ 35.775, 5.05 ], [ 35.75, 5.05 ], [ 35.75, 5.041667 ], [ 35.733333, 5.041667 ], [ 35.733333, 5.058333 ], [ 35.725, 5.058333 ], [ 35.725, 5.066667 ], [ 35.716667, 5.066667 ], [ 35.716667, 5.075 ], [ 35.7, 5.075 ], [ 35.7, 5.083333 ], [ 35.691667, 5.083333 ], [ 35.691667, 5.091667 ], [ 35.666667, 5.091667 ], [ 35.666667, 5.108333 ], [ 35.658333, 5.108333 ], [ 35.658333, 5.1 ], [ 35.641667, 5.1 ], [ 35.641667, 5.091667 ], [ 35.633333, 5.091667 ], [ 35.633333, 5.066667 ], [ 35.625, 5.066667 ], [ 35.625, 5.05 ], [ 35.633333, 5.05 ], [ 35.633333, 5.025 ], [ 35.616667, 5.025 ], [ 35.616667, 4.983333 ], [ 35.6, 4.983333 ], [ 35.6, 4.966667 ], [ 35.591667, 4.966667 ], [ 35.591667, 4.958333 ], [ 35.575, 4.958333 ], [ 35.575, 4.95 ], [ 35.566667, 4.95 ], [ 35.566667, 4.925 ], [ 35.558333, 4.925 ], [ 35.558333, 4.916667 ], [ 35.55, 4.916667 ], [ 35.55, 4.908333 ], [ 35.533333, 4.908333 ], [ 35.533333, 4.9 ], [ 35.525, 4.9 ], [ 35.525, 4.891667 ], [ 35.516667, 4.891667 ], [ 35.516667, 4.883333 ], [ 35.508333, 4.883333 ], [ 35.508333, 4.891667 ], [ 35.483333, 4.891667 ], [ 35.483333, 4.883333 ], [ 35.466667, 4.883333 ], [ 35.466667, 4.875 ], [ 35.45, 4.875 ], [ 35.45, 4.858333 ], [ 35.441667, 4.858333 ], [ 35.441667, 4.85 ], [ 35.433333, 4.85 ], [ 35.433333, 4.833333 ], [ 35.416667, 4.833333 ], [ 35.416667, 4.841667 ], [ 35.4, 4.841667 ], [ 35.4, 4.85 ], [ 35.375, 4.85 ], [ 35.375, 4.841667 ], [ 35.316667, 4.841667 ], [ 35.316667, 4.833333 ], [ 35.308333, 4.833333 ], [ 35.308333, 4.825 ], [ 35.3, 4.825 ], [ 35.3, 4.816667 ], [ 35.291667, 4.816667 ], [ 35.291667, 4.808333 ], [ 35.283333, 4.808333 ], [ 35.283333, 4.8 ], [ 35.275, 4.8 ], [ 35.275, 4.791667 ], [ 35.283333, 4.791667 ], [ 35.283333, 4.783333 ], [ 35.266667, 4.783333 ], [ 35.266667, 4.758333 ], [ 35.258333, 4.758333 ], [ 35.258333, 4.75 ], [ 35.208333, 4.75 ], [ 35.208333, 4.783333 ], [ 35.2, 4.783333 ], [ 35.2, 4.791667 ], [ 35.183333, 4.791667 ], [ 35.183333, 4.8 ], [ 35.175, 4.8 ], [ 35.175, 4.808333 ], [ 35.166667, 4.808333 ], [ 35.166667, 4.816667 ], [ 35.158333, 4.816667 ], [ 35.158333, 4.833333 ], [ 35.166667, 4.833333 ], [ 35.166667, 4.841667 ], [ 35.175, 4.841667 ], [ 35.175, 4.858333 ], [ 35.183333, 4.858333 ], [ 35.183333, 4.883333 ], [ 35.175, 4.883333 ], [ 35.175, 4.891667 ], [ 35.141667, 4.891667 ], [ 35.141667, 4.9 ], [ 35.15, 4.9 ], [ 35.15, 4.908333 ], [ 35.083333, 4.908333 ], [ 35.083333, 4.925 ], [ 35.108333, 4.925 ], [ 35.108333, 4.916667 ], [ 35.116667, 4.916667 ], [ 35.116667, 4.925 ], [ 35.125, 4.925 ], [ 35.125, 4.933333 ], [ 35.133333, 4.933333 ], [ 35.133333, 4.95 ], [ 35.141667, 4.95 ], [ 35.141667, 4.966667 ], [ 35.15, 4.966667 ], [ 35.15, 4.975 ], [ 35.141667, 4.975 ], [ 35.141667, 4.983333 ], [ 35.15, 4.983333 ], [ 35.15, 4.991667 ], [ 35.158333, 4.991667 ], [ 35.158333, 5.0 ], [ 35.15, 5.0 ], [ 35.15, 5.016667 ], [ 35.141667, 5.016667 ], [ 35.141667, 5.033333 ], [ 35.133333, 5.033333 ], [ 35.133333, 5.05 ], [ 35.125, 5.05 ], [ 35.125, 5.058333 ], [ 35.116667, 5.058333 ], [ 35.116667, 5.066667 ], [ 35.108333, 5.066667 ], [ 35.108333, 5.083333 ], [ 35.1, 5.083333 ], [ 35.1, 5.091667 ], [ 35.091667, 5.091667 ], [ 35.091667, 5.108333 ], [ 35.083333, 5.108333 ], [ 35.083333, 5.125 ], [ 35.075, 5.125 ], [ 35.075, 5.133333 ], [ 35.066667, 5.133333 ], [ 35.066667, 5.166667 ], [ 35.075, 5.166667 ], [ 35.075, 5.175 ], [ 35.066667, 5.175 ], [ 35.066667, 5.208333 ], [ 35.075, 5.208333 ], [ 35.075, 5.216667 ], [ 35.083333, 5.216667 ], [ 35.083333, 5.233333 ], [ 35.091667, 5.233333 ], [ 35.091667, 5.25 ], [ 35.1, 5.25 ], [ 35.1, 5.258333 ], [ 35.108333, 5.258333 ], [ 35.108333, 5.266667 ], [ 35.116667, 5.266667 ], [ 35.116667, 5.283333 ], [ 35.125, 5.283333 ], [ 35.125, 5.308333 ], [ 35.133333, 5.308333 ], [ 35.133333, 5.316667 ], [ 35.141667, 5.316667 ], [ 35.141667, 5.341667 ], [ 35.15, 5.341667 ], [ 35.15, 5.391667 ], [ 35.158333, 5.391667 ], [ 35.158333, 5.4 ], [ 35.166667, 5.4 ], [ 35.166667, 5.408333 ], [ 35.191667, 5.408333 ], [ 35.191667, 5.416667 ], [ 35.216667, 5.416667 ], [ 35.216667, 5.408333 ], [ 35.241667, 5.408333 ], [ 35.241667, 5.416667 ], [ 35.283333, 5.416667 ], [ 35.283333, 5.425 ], [ 35.291667, 5.425 ], [ 35.291667, 5.366667 ], [ 35.3, 5.366667 ], [ 35.3, 5.35 ], [ 35.316667, 5.35 ], [ 35.316667, 5.333333 ], [ 35.325, 5.333333 ], [ 35.325, 5.341667 ], [ 35.333333, 5.341667 ], [ 35.333333, 5.325 ], [ 35.341667, 5.325 ], [ 35.341667, 5.316667 ], [ 35.35, 5.316667 ], [ 35.35, 5.325 ], [ 35.358333, 5.325 ], [ 35.358333, 5.308333 ], [ 35.383333, 5.308333 ], [ 35.383333, 5.316667 ], [ 35.4, 5.316667 ], [ 35.4, 5.341667 ], [ 35.416667, 5.341667 ], [ 35.416667, 5.333333 ], [ 35.433333, 5.333333 ], [ 35.433333, 5.341667 ], [ 35.441667, 5.341667 ], [ 35.441667, 5.35 ], [ 35.458333, 5.35 ], [ 35.458333, 5.358333 ], [ 35.475, 5.358333 ], [ 35.475, 5.35 ], [ 35.483333, 5.35 ], [ 35.483333, 5.333333 ], [ 35.508333, 5.333333 ], [ 35.508333, 5.341667 ], [ 35.516667, 5.341667 ], [ 35.516667, 5.358333 ], [ 35.533333, 5.358333 ], [ 35.533333, 5.35 ], [ 35.541667, 5.35 ] ] ], [ [ [ 35.5, 5.341667 ], [ 35.5, 5.35 ], [ 35.508333, 5.35 ], [ 35.508333, 5.341667 ], [ 35.5, 5.341667 ] ] ] ] } }
]
}
