{
"type": "FeatureCollection",
"name": "gauges",
"crs": { "type": "name", "properties": { "name": "urn:ogc:def:crs:OGC:1.3:CRS84" } },
"features": [
{ "type": "Feature", "properties": { "fid": 1 }, "geometry": { "type": "Point", "coordinates": [ 35.766667, 5.033333 ] } },
{ "type": "Feature", "properties": { "fid": 2 }, "geometry": { "type": "Point", "coordinates": [ 35.866667, 5.033333 ] } },
{ "type": "Feature", "properties": { "fid": 3 }, "geometry": { "type": "Point", "coordinates": [ 36.066667, 5.033333 ] } },
{ "type": "Feature", "properties": { "fid": 4 }, "geometry": { "type": "Point", "coordinates": [ 35.866667, 4.933333 ] } }
]
}
