{
"type": "FeatureCollection",
"name": "rivers",
"crs": { "type": "name", "properties": { "name": "urn:ogc:def:crs:OGC:1.3:CRS84" } },
"features": [
{ "type": "Feature", "properties": { "idx": 513, "idx_ds": 447, "pit": false, "strord": 1 }, "geometry": { "type": "LineString", "coordinates": [ [ 36.966667, 7.833333 ], [ 36.866667, 7.933333 ], [ 36.866667, 8.033333 ], [ 36.966667, 8.033333 ] ] } },
{ "type": "Feature", "properties": { "idx": 51, "idx_ds": 52, "pit": false, "strord": 1 }, "geometry": { "type": "LineString", "coordinates": [ [ 36.966667, 9.233333 ], [ 37.066667, 9.233333 ] ] } },
{ "type": "Feature", "properties": { "idx": 19, "idx_ds": 52, "pit": false, "strord": 1 }, "geometry": { "type": "LineString", "coordinates": [ [ 37.066667, 9.333333 ], [ 37.066667, 9.233333 ] ] } },
{ "type": "Feature", "properties": { "idx": 183, "idx_ds": 118, "pit": false, "strord": 1 }, "geometry": { "type": "LineString", "coordinates": [ [ 36.966667, 8.833333 ], [ 36.966667, 8.933333 ], [ 37.066667, 9.033333 ] ] } },
{ "type": "Feature", "properties": { "idx": 53, "idx_ds": 118, "pit": false, "strord": 1 }, "geometry": { "type": "LineString", "coordinates": [ [ 37.166667, 9.233333 ], [ 37.166667, 9.133333 ], [ 37.066667, 9.033333 ] ] } },
{ "type": "Feature", "properties": { "idx": 52, "idx_ds": 118, "pit": false, "strord": 2 }, "geometry": { "type": "LineString", "coordinates": [ [ 37.066667, 9.233333 ], [ 37.066667, 9.133333 ], [ 37.066667, 9.033333 ] ] } },
{ "type": "Feature", "properties": { "idx": 480, "idx_ds": 447, "pit": false, "strord": 1 }, "geometry": { "type": "LineString", "coordinates": [ [ 36.966667, 7.933333 ], [ 36.966667, 8.033333 ] ] } },
{ "type": "Feature", "properties": { "idx": 416, "idx_ds": 381, "pit": false, "strord": 1 }, "geometry": { "type": "LineString", "coordinates": [ [ 37.166667, 8.133333 ], [ 37.166667, 8.233333 ], [ 37.066667, 8.233333 ], [ 36.966667, 8.233333 ] ] } },
{ "type": "Feature", "properties": { "idx": 120, "idx_ds": 119, "pit": false, "strord": 1 }, "geometry": { "type": "LineString", "coordinates": [ [ 37.266667, 9.033333 ], [ 37.166667, 9.033333 ] ] } },
{ "type": "Feature", "properties": { "idx": 87, "idx_ds": 119, "pit": false, "strord": 1 }, "geometry": { "type": "LineString", "coordinates": [ [ 37.266667, 9.133333 ], [ 37.166667, 9.033333 ] ] } },
{ "type": "Feature", "properties": { "idx": 117, "idx_ds": 118, "pit": false, "strord": 1 }, "geometry": { "type": "LineString", "coordinates": [ [ 36.966667, 9.033333 ], [ 37.066667, 9.033333 ] ] } },
{ "type": "Feature", "properties": { "idx": 609, "idx_ds": 577, "pit": false, "strord": 1 }, "geometry": { "type": "LineString", "coordinates": [ [ 36.666667, 7.533333 ], [ 36.766667, 7.533333 ], [ 36.766667, 7.633333 ] ] } },
{ "type": "Feature", "properties": { "idx": 575, "idx_ds": 577, "pit": false, "strord": 1 }, "geometry": { "type": "LineString", "coordinates": [ [ 36.566667, 7.633333 ], [ 36.666667, 7.633333 ], [ 36.766667, 7.633333 ] ] } },
{ "type": "Feature", "properties": { "idx": 448, "idx_ds": 414, "pit": false, "strord": 1 }, "geometry": { "type": "LineString", "coordinates": [ [ 37.066667, 8.033333 ], [ 36.966667, 8.133333 ] ] } },
{ "type": "Feature", "properties": { "idx": 447, "idx_ds": 414, "pit": false, "strord": 2 }, "geometry": { "type": "LineString", "coordinates": [ [ 36.966667, 8.033333 ], [ 36.966667, 8.133333 ] ] } },
{ "type": "Feature", "properties": { "idx": 121, "idx_ds": 152, "pit": false, "strord": 1 }, "geometry": { "type": "LineString", "coordinates": [ [ 37.366667, 9.033333 ], [ 37.266667, 8.933333 ], [ 37.166667, 8.933333 ] ] } },
{ "type": "Feature", "properties": { "idx": 119, "idx_ds": 151, "pit": false, "strord": 2 }, "geometry": { "type": "LineString", "coordinates": [ [ 37.166667, 9.033333 ], [ 37.066667, 8.933333 ] ] } },
{ "type": "Feature", "properties": { "idx": 118, "idx_ds": 151, "pit": false, "strord": 3 }, "geometry": { "type": "LineString", "coordinates": [ [ 37.066667, 9.033333 ], [ 37.066667, 8.933333 ] ] } },
{ "type": "Feature", "properties": { "idx": 156, "idx_ds": 186, "pit": false, "strord": 1 }, "geometry": { "type": "LineString", "coordinates": [ [ 37.566667, 8.933333 ], [ 37.466667, 8.833333 ], [ 37.466667, 8.933333 ], [ 37.366667, 8.933333 ], [ 37.266667, 8.833333 ] ] } },
{ "type": "Feature", "properties": { "idx": 545, "idx_ds": 578, "pit": false, "strord": 1 }, "geometry": { "type": "LineString", "coordinates": [ [ 36.866667, 7.733333 ], [ 36.766667, 7.733333 ], [ 36.866667, 7.633333 ] ] } },
{ "type": "Feature", "properties": { "idx": 415, "idx_ds": 381, "pit": false, "strord": 1 }, "geometry": { "type": "LineString", "coordinates": [ [ 37.066667, 8.133333 ], [ 36.966667, 8.233333 ] ] } },
{ "type": "Feature", "properties": { "idx": 414, "idx_ds": 381, "pit": false, "strord": 2 }, "geometry": { "type": "LineString", "coordinates": [ [ 36.966667, 8.133333 ], [ 36.966667, 8.233333 ] ] } },
{ "type": "Feature", "properties": { "idx": 151, "idx_ds": 152, "pit": false, "strord": 3 }, "geometry": { "type": "LineString", "coordinates": [ [ 37.066667, 8.933333 ], [ 37.166667, 8.933333 ] ] } },
{ "type": "Feature", "properties": { "idx": 614, "idx_ds": 547, "pit": false, "strord": 1 }, "geometry": { "type": "LineString", "coordinates": [ [ 37.166667, 7.533333 ], [ 37.166667, 7.633333 ], [ 37.066667, 7.633333 ], [ 37.066667, 7.733333 ] ] } },
{ "type": "Feature", "properties": { "idx": 646, "idx_ds": 579, "pit": false, "strord": 1 }, "geometry": { "type": "LineString", "coordinates": [ [ 37.066667, 7.433333 ], [ 37.066667, 7.533333 ], [ 36.966667, 7.633333 ] ] } },
{ "type": "Feature", "properties": { "idx": 645, "idx_ds": 579, "pit": false, "strord": 1 }, "geometry": { "type": "LineString", "coordinates": [ [ 36.966667, 7.433333 ], [ 36.966667, 7.533333 ], [ 36.966667, 7.633333 ] ] } },
{ "type": "Feature", "properties": { "idx": 577, "idx_ds": 578, "pit": false, "strord": 2 }, "geometry": { "type": "LineString", "coordinates": [ [ 36.766667, 7.633333 ], [ 36.866667, 7.633333 ] ] } },
{ "type": "Feature", "properties": { "idx": 381, "idx_ds": 349, "pit": false, "strord": 2 }, "geometry": { "type": "LineString", "coordinates": [ [ 36.966667, 8.233333 ], [ 37.066667, 8.333333 ] ] } },
{ "type": "Feature", "properties": { "idx": 350, "idx_ds": 349, "pit": false, "strord": 1 }, "geometry": { "type": "LineString", "coordinates": [ [ 37.166667, 8.333333 ], [ 37.066667, 8.333333 ] ] } },
{ "type": "Feature", "properties": { "idx": 152, "idx_ds": 186, "pit": false, "strord": 3 }, "geometry": { "type": "LineString", "coordinates": [ [ 37.166667, 8.933333 ], [ 37.166667, 8.833333 ], [ 37.266667, 8.833333 ] ] } },
{ "type": "Feature", "properties": { "idx": 578, "idx_ds": 579, "pit": false, "strord": 2 }, "geometry": { "type": "LineString", "coordinates": [ [ 36.866667, 7.633333 ], [ 36.966667, 7.633333 ] ] } },
{ "type": "Feature", "properties": { "idx": 481, "idx_ds": 547, "pit": false, "strord": 1 }, "geometry": { "type": "LineString", "coordinates": [ [ 37.066667, 7.933333 ], [ 37.066667, 7.833333 ], [ 37.066667, 7.733333 ] ] } },
{ "type": "Feature", "properties": { "idx": 349, "idx_ds": 284, "pit": false, "strord": 2 }, "geometry": { "type": "LineString", "coordinates": [ [ 37.066667, 8.333333 ], [ 37.066667, 8.433333 ], [ 37.166667, 8.433333 ], [ 37.166667, 8.533333 ] ] } },
{ "type": "Feature", "properties": { "idx": 219, "idx_ds": 186, "pit": false, "strord": 1 }, "geometry": { "type": "LineString", "coordinates": [ [ 37.266667, 8.733333 ], [ 37.266667, 8.833333 ] ] } },
{ "type": "Feature", "properties": { "idx": 187, "idx_ds": 186, "pit": false, "strord": 1 }, "geometry": { "type": "LineString", "coordinates": [ [ 37.366667, 8.833333 ], [ 37.266667, 8.833333 ] ] } },
{ "type": "Feature", "properties": { "idx": 599, "idx_ds": 601, "pit": false, "strord": 1 }, "geometry": { "type": "LineString", "coordinates": [ [ 35.666667, 7.533333 ], [ 35.766667, 7.533333 ], [ 35.866667, 7.533333 ] ] } },
{ "type": "Feature", "properties": { "idx": 615, "idx_ds": 516, "pit": false, "strord": 1 }, "geometry": { "type": "LineString", "coordinates": [ [ 37.266667, 7.533333 ], [ 37.266667, 7.633333 ], [ 37.266667, 7.733333 ], [ 37.266667, 7.833333 ] ] } },
{ "type": "Feature", "properties": { "idx": 579, "idx_ds": 547, "pit": false, "strord": 3 }, "geometry": { "type": "LineString", "coordinates": [ [ 36.966667, 7.633333 ], [ 37.066667, 7.733333 ] ] } },
{ "type": "Feature", "properties": { "idx": 546, "idx_ds": 547, "pit": false, "strord": 1 }, "geometry": { "type": "LineString", "coordinates": [ [ 36.966667, 7.733333 ], [ 37.066667, 7.733333 ] ] } },
{ "type": "Feature", "properties": { "idx": 417, "idx_ds": 516, "pit": false, "strord": 1 }, "geometry": { "type": "LineString", "coordinates": [ [ 37.266667, 8.133333 ], [ 37.266667, 8.033333 ], [ 37.266667, 7.933333 ], [ 37.266667, 7.833333 ] ] } },
{ "type": "Feature", "properties": { "idx": 225, "idx_ds": 323, "pit": false, "strord": 1 }, "geometry": { "type": "LineString", "coordinates": [ [ 37.866667, 8.733333 ], [ 37.966667, 8.633333 ], [ 37.966667, 8.533333 ], [ 37.866667, 8.433333 ], [ 37.766667, 8.433333 ] ] } },
{ "type": "Feature", "properties": { "idx": 217, "idx_ds": 218, "pit": false, "strord": 1 }, "geometry": { "type": "LineString", "coordinates": [ [ 37.066667, 8.733333 ], [ 37.166667, 8.733333 ] ] } },
{ "type": "Feature", "properties": { "idx": 186, "idx_ds": 218, "pit": false, "strord": 3 }, "geometry": { "type": "LineString", "coordinates": [ [ 37.266667, 8.833333 ], [ 37.166667, 8.733333 ] ] } },
{ "type": "Feature", "properties": { "idx": 633, "idx_ds": 601, "pit": false, "strord": 1 }, "geometry": { "type": "LineString", "coordinates": [ [ 35.766667, 7.433333 ], [ 35.866667, 7.533333 ] ] } },
{ "type": "Feature", "properties": { "idx": 547, "idx_ds": 548, "pit": false, "strord": 3 }, "geometry": { "type": "LineString", "coordinates": [ [ 37.066667, 7.733333 ], [ 37.166667, 7.733333 ] ] } },
{ "type": "Feature", "properties": { "idx": 515, "idx_ds": 548, "pit": false, "strord": 1 }, "geometry": { "type": "LineString", "coordinates": [ [ 37.166667, 7.833333 ], [ 37.166667, 7.733333 ] ] } },
{ "type": "Feature", "properties": { "idx": 293, "idx_ds": 355, "pit": false, "strord": 1 }, "geometry": { "type": "LineString", "coordinates": [ [ 38.066667, 8.533333 ], [ 37.966667, 8.433333 ], [ 37.866667, 8.333333 ], [ 37.766667, 8.333333 ], [ 37.666667, 8.333333 ] ] } },
{ "type": "Feature", "properties": { "idx": 283, "idx_ds": 284, "pit": false, "strord": 1 }, "geometry": { "type": "LineString", "coordinates": [ [ 37.066667, 8.533333 ], [ 37.166667, 8.533333 ] ] } },
{ "type": "Feature", "properties": { "idx": 218, "idx_ds": 252, "pit": false, "strord": 3 }, "geometry": { "type": "LineString", "coordinates": [ [ 37.166667, 8.733333 ], [ 37.166667, 8.633333 ], [ 37.266667, 8.633333 ] ] } },
{ "type": "Feature", "properties": { "idx": 541, "idx_ds": 572, "pit": false, "strord": 1 }, "geometry": { "type": "LineString", "coordinates": [ [ 36.466667, 7.733333 ], [ 36.366667, 7.733333 ], [ 36.266667, 7.633333 ] ] } },
{ "type": "Feature", "properties": { "idx": 538, "idx_ds": 572, "pit": false, "strord": 1 }, "geometry": { "type": "LineString", "coordinates": [ [ 36.166667, 7.733333 ], [ 36.266667, 7.733333 ], [ 36.266667, 7.633333 ] ] } },
{ "type": "Feature", "properties": { "idx": 634, "idx_ds": 602, "pit": false, "strord": 1 }, "geometry": { "type": "LineString", "coordinates": [ [ 35.866667, 7.433333 ], [ 35.966667, 7.533333 ] ] } },
{ "type": "Feature", "properties": { "idx": 601, "idx_ds": 602, "pit": false, "strord": 2 }, "geometry": { "type": "LineString", "coordinates": [ [ 35.866667, 7.533333 ], [ 35.966667, 7.533333 ] ] } },
{ "type": "Feature", "properties": { "idx": 569, "idx_ds": 602, "pit": false, "strord": 1 }, "geometry": { "type": "LineString", "coordinates": [ [ 35.966667, 7.633333 ], [ 35.966667, 7.533333 ] ] } },
{ "type": "Feature", "properties": { "idx": 550, "idx_ds": 516, "pit": false, "strord": 1 }, "geometry": { "type": "LineString", "coordinates": [ [ 37.366667, 7.733333 ], [ 37.266667, 7.833333 ] ] } },
{ "type": "Feature", "properties": { "idx": 548, "idx_ds": 516, "pit": false, "strord": 3 }, "geometry": { "type": "LineString", "coordinates": [ [ 37.166667, 7.733333 ], [ 37.266667, 7.833333 ] ] } },
{ "type": "Feature", "properties": { "idx": 258, "idx_ds": 323, "pit": false, "strord": 1 }, "geometry": { "type": "LineString", "coordinates": [ [ 37.866667, 8.633333 ], [ 37.766667, 8.533333 ], [ 37.766667, 8.433333 ] ] } },
{ "type": "Feature", "properties": { "idx": 284, "idx_ds": 252, "pit": false, "strord": 2 }, "geometry": { "type": "LineString", "coordinates": [ [ 37.166667, 8.533333 ], [ 37.266667, 8.633333 ] ] } },
{ "type": "Feature", "properties": { "idx": 573, "idx_ds": 572, "pit": false, "strord": 1 }, "geometry": { "type": "LineString", "coordinates": [ [ 36.366667, 7.633333 ], [ 36.266667, 7.633333 ] ] } },
{ "type": "Feature", "properties": { "idx": 602, "idx_ds": 603, "pit": false, "strord": 2 }, "geometry": { "type": "LineString", "coordinates": [ [ 35.966667, 7.533333 ], [ 36.066667, 7.533333 ] ] } },
{ "type": "Feature", "properties": { "idx": 570, "idx_ds": 603, "pit": false, "strord": 1 }, "geometry": { "type": "LineString", "coordinates": [ [ 36.066667, 7.633333 ], [ 36.066667, 7.533333 ] ] } },
{ "type": "Feature", "properties": { "idx": 362, "idx_ds": 359, "pit": false, "strord": 1 }, "geometry": { "type": "LineString", "coordinates": [ [ 38.366667, 8.333333 ], [ 38.266667, 8.333333 ], [ 38.166667, 8.333333 ], [ 38.066667, 8.333333 ] ] } },
{ "type": "Feature", "properties": { "idx": 516, "idx_ds": 484, "pit": false, "strord": 3 }, "geometry": { "type": "LineString", "coordinates": [ [ 37.266667, 7.833333 ], [ 37.366667, 7.833333 ], [ 37.366667, 7.933333 ] ] } },
{ "type": "Feature", "properties": { "idx": 291, "idx_ds": 323, "pit": false, "strord": 1 }, "geometry": { "type": "LineString", "coordinates": [ [ 37.866667, 8.533333 ], [ 37.766667, 8.433333 ] ] } },
{ "type": "Feature", "properties": { "idx": 257, "idx_ds": 289, "pit": false, "strord": 1 }, "geometry": { "type": "LineString", "coordinates": [ [ 37.766667, 8.633333 ], [ 37.666667, 8.533333 ] ] } },
{ "type": "Feature", "properties": { "idx": 256, "idx_ds": 289, "pit": false, "strord": 1 }, "geometry": { "type": "LineString", "coordinates": [ [ 37.666667, 8.633333 ], [ 37.666667, 8.533333 ] ] } },
{ "type": "Feature", "properties": { "idx": 221, "idx_ds": 353, "pit": false, "strord": 1 }, "geometry": { "type": "LineString", "coordinates": [ [ 37.466667, 8.733333 ], [ 37.466667, 8.633333 ], [ 37.466667, 8.533333 ], [ 37.466667, 8.433333 ], [ 37.466667, 8.333333 ] ] } },
{ "type": "Feature", "properties": { "idx": 252, "idx_ds": 286, "pit": false, "strord": 3 }, "geometry": { "type": "LineString", "coordinates": [ [ 37.266667, 8.633333 ], [ 37.266667, 8.533333 ], [ 37.366667, 8.533333 ] ] } },
{ "type": "Feature", "properties": { "idx": 636, "idx_ds": 638, "pit": false, "strord": 1 }, "geometry": { "type": "LineString", "coordinates": [ [ 36.066667, 7.433333 ], [ 36.166667, 7.433333 ], [ 36.266667, 7.433333 ] ] } },
{ "type": "Feature", "properties": { "idx": 574, "idx_ds": 638, "pit": false, "strord": 1 }, "geometry": { "type": "LineString", "coordinates": [ [ 36.466667, 7.633333 ], [ 36.366667, 7.533333 ], [ 36.266667, 7.433333 ] ] } },
{ "type": "Feature", "properties": { "idx": 572, "idx_ds": 605, "pit": false, "strord": 2 }, "geometry": { "type": "LineString", "coordinates": [ [ 36.266667, 7.633333 ], [ 36.266667, 7.533333 ] ] } },
{ "type": "Feature", "properties": { "idx": 571, "idx_ds": 605, "pit": false, "strord": 1 }, "geometry": { "type": "LineString", "coordinates": [ [ 36.166667, 7.633333 ], [ 36.266667, 7.533333 ] ] } },
{ "type": "Feature", "properties": { "idx": 603, "idx_ds": 638, "pit": false, "strord": 2 }, "geometry": { "type": "LineString", "coordinates": [ [ 36.066667, 7.533333 ], [ 36.166667, 7.533333 ], [ 36.266667, 7.433333 ] ] } },
{ "type": "Feature", "properties": { "idx": 328, "idx_ds": 359, "pit": false, "strord": 1 }, "geometry": { "type": "LineString", "coordinates": [ [ 38.266667, 8.433333 ], [ 38.166667, 8.433333 ], [ 38.066667, 8.333333 ] ] } },
{ "type": "Feature", "properties": { "idx": 294, "idx_ds": 359, "pit": false, "strord": 1 }, "geometry": { "type": "LineString", "coordinates": [ [ 38.166667, 8.533333 ], [ 38.066667, 8.433333 ], [ 38.066667, 8.333333 ] ] } },
{ "type": "Feature", "properties": { "idx": 485, "idx_ds": 484, "pit": false, "strord": 1 }, "geometry": { "type": "LineString", "coordinates": [ [ 37.466667, 7.933333 ], [ 37.366667, 7.933333 ] ] } },
{ "type": "Feature", "properties": { "idx": 323, "idx_ds": 355, "pit": false, "strord": 2 }, "geometry": { "type": "LineString", "coordinates": [ [ 37.766667, 8.433333 ], [ 37.666667, 8.333333 ] ] } },
{ "type": "Feature", "properties": { "idx": 289, "idx_ds": 354, "pit": false, "strord": 2 }, "geometry": { "type": "LineString", "coordinates": [ [ 37.666667, 8.533333 ], [ 37.666667, 8.433333 ], [ 37.566667, 8.333333 ] ] } },
{ "type": "Feature", "properties": { "idx": 255, "idx_ds": 353, "pit": false, "strord": 1 }, "geometry": { "type": "LineString", "coordinates": [ [ 37.566667, 8.633333 ], [ 37.566667, 8.533333 ], [ 37.566667, 8.433333 ], [ 37.466667, 8.333333 ] ] } },
{ "type": "Feature", "properties": { "idx": 253, "idx_ds": 286, "pit": false, "strord": 1 }, "geometry": { "type": "LineString", "coordinates": [ [ 37.366667, 8.633333 ], [ 37.366667, 8.533333 ] ] } },
{ "type": "Feature", "properties": { "idx": 605, "idx_ds": 638, "pit": false, "strord": 2 }, "geometry": { "type": "LineString", "coordinates": [ [ 36.266667, 7.533333 ], [ 36.266667, 7.433333 ] ] } },
{ "type": "Feature", "properties": { "idx": 426, "idx_ds": 392, "pit": false, "strord": 1 }, "geometry": { "type": "LineString", "coordinates": [ [ 38.166667, 8.133333 ], [ 38.066667, 8.233333 ] ] } },
{ "type": "Feature", "properties": { "idx": 393, "idx_ds": 392, "pit": false, "strord": 1 }, "geometry": { "type": "LineString", "coordinates": [ [ 38.166667, 8.233333 ], [ 38.066667, 8.233333 ] ] } },
{ "type": "Feature", "properties": { "idx": 484, "idx_ds": 386, "pit": false, "strord": 3 }, "geometry": { "type": "LineString", "coordinates": [ [ 37.366667, 7.933333 ], [ 37.366667, 8.033333 ], [ 37.366667, 8.133333 ], [ 37.466667, 8.233333 ] ] } },
{ "type": "Feature", "properties": { "idx": 384, "idx_ds": 353, "pit": false, "strord": 1 }, "geometry": { "type": "LineString", "coordinates": [ [ 37.266667, 8.233333 ], [ 37.366667, 8.233333 ], [ 37.466667, 8.333333 ] ] } },
{ "type": "Feature", "properties": { "idx": 355, "idx_ds": 354, "pit": false, "strord": 2 }, "geometry": { "type": "LineString", "coordinates": [ [ 37.666667, 8.333333 ], [ 37.566667, 8.333333 ] ] } },
{ "type": "Feature", "properties": { "idx": 351, "idx_ds": 353, "pit": false, "strord": 1 }, "geometry": { "type": "LineString", "coordinates": [ [ 37.266667, 8.333333 ], [ 37.366667, 8.333333 ], [ 37.466667, 8.333333 ] ] } },
{ "type": "Feature", "properties": { "idx": 286, "idx_ds": 353, "pit": false, "strord": 3 }, "geometry": { "type": "LineString", "coordinates": [ [ 37.366667, 8.533333 ], [ 37.366667, 8.433333 ], [ 37.466667, 8.333333 ] ] } },
{ "type": "Feature", "properties": { "idx": 638, "idx_ds": 639, "pit": false, "strord": 3 }, "geometry": { "type": "LineString", "coordinates": [ [ 36.266667, 7.433333 ], [ 36.366667, 7.433333 ] ] } },
{ "type": "Feature", "properties": { "idx": 607, "idx_ds": 639, "pit": false, "strord": 1 }, "geometry": { "type": "LineString", "coordinates": [ [ 36.466667, 7.533333 ], [ 36.366667, 7.433333 ] ] } },
{ "type": "Feature", "properties": { "idx": 490, "idx_ds": 422, "pit": false, "strord": 1 }, "geometry": { "type": "LineString", "coordinates": [ [ 37.966667, 7.933333 ], [ 37.966667, 8.033333 ], [ 37.866667, 8.033333 ], [ 37.766667, 8.133333 ] ] } },
{ "type": "Feature", "properties": { "idx": 425, "idx_ds": 422, "pit": false, "strord": 1 }, "geometry": { "type": "LineString", "coordinates": [ [ 38.066667, 8.133333 ], [ 37.966667, 8.133333 ], [ 37.866667, 8.133333 ], [ 37.766667, 8.133333 ] ] } },
{ "type": "Feature", "properties": { "idx": 392, "idx_ds": 390, "pit": false, "strord": 2 }, "geometry": { "type": "LineString", "coordinates": [ [ 38.066667, 8.233333 ], [ 37.966667, 8.233333 ], [ 37.866667, 8.233333 ] ] } },
{ "type": "Feature", "properties": { "idx": 359, "idx_ds": 390, "pit": false, "strord": 2 }, "geometry": { "type": "LineString", "coordinates": [ [ 38.066667, 8.333333 ], [ 37.966667, 8.333333 ], [ 37.866667, 8.233333 ] ] } },
{ "type": "Feature", "properties": { "idx": 354, "idx_ds": 353, "pit": false, "strord": 3 }, "geometry": { "type": "LineString", "coordinates": [ [ 37.566667, 8.333333 ], [ 37.466667, 8.333333 ] ] } },
{ "type": "Feature", "properties": { "idx": 639, "idx_ds": 675, "pit": false, "strord": 3 }, "geometry": { "type": "LineString", "coordinates": [ [ 36.366667, 7.433333 ], [ 36.466667, 7.433333 ], [ 36.566667, 7.433333 ], [ 36.666667, 7.433333 ], [ 36.666667, 7.333333 ] ] } },
{ "type": "Feature", "properties": { "idx": 353, "idx_ds": 386, "pit": false, "strord": 4 }, "geometry": { "type": "LineString", "coordinates": [ [ 37.466667, 8.333333 ], [ 37.466667, 8.233333 ] ] } },
{ "type": "Feature", "properties": { "idx": 706, "idx_ds": 675, "pit": false, "strord": 1 }, "geometry": { "type": "LineString", "coordinates": [ [ 36.466667, 7.233333 ], [ 36.466667, 7.333333 ], [ 36.566667, 7.333333 ], [ 36.666667, 7.333333 ] ] } },
{ "type": "Feature", "properties": { "idx": 390, "idx_ds": 388, "pit": false, "strord": 3 }, "geometry": { "type": "LineString", "coordinates": [ [ 37.866667, 8.233333 ], [ 37.766667, 8.233333 ], [ 37.666667, 8.233333 ] ] } },
{ "type": "Feature", "properties": { "idx": 419, "idx_ds": 387, "pit": false, "strord": 1 }, "geometry": { "type": "LineString", "coordinates": [ [ 37.466667, 8.133333 ], [ 37.566667, 8.233333 ] ] } },
{ "type": "Feature", "properties": { "idx": 386, "idx_ds": 387, "pit": false, "strord": 4 }, "geometry": { "type": "LineString", "coordinates": [ [ 37.466667, 8.233333 ], [ 37.566667, 8.233333 ] ] } },
{ "type": "Feature", "properties": { "idx": 707, "idx_ds": 675, "pit": false, "strord": 1 }, "geometry": { "type": "LineString", "coordinates": [ [ 36.566667, 7.233333 ], [ 36.666667, 7.233333 ], [ 36.666667, 7.333333 ] ] } },
{ "type": "Feature", "properties": { "idx": 422, "idx_ds": 420, "pit": false, "strord": 2 }, "geometry": { "type": "LineString", "coordinates": [ [ 37.766667, 8.133333 ], [ 37.666667, 8.133333 ], [ 37.566667, 8.133333 ] ] } },
{ "type": "Feature", "properties": { "idx": 387, "idx_ds": 388, "pit": false, "strord": 4 }, "geometry": { "type": "LineString", "coordinates": [ [ 37.566667, 8.233333 ], [ 37.666667, 8.233333 ] ] } },
{ "type": "Feature", "properties": { "idx": 522, "idx_ds": 487, "pit": false, "strord": 1 }, "geometry": { "type": "LineString", "coordinates": [ [ 37.866667, 7.833333 ], [ 37.766667, 7.833333 ], [ 37.666667, 7.933333 ] ] } },
{ "type": "Feature", "properties": { "idx": 489, "idx_ds": 486, "pit": false, "strord": 1 }, "geometry": { "type": "LineString", "coordinates": [ [ 37.866667, 7.933333 ], [ 37.766667, 8.033333 ], [ 37.666667, 8.033333 ], [ 37.566667, 7.933333 ] ] } },
{ "type": "Feature", "properties": { "idx": 452, "idx_ds": 420, "pit": false, "strord": 1 }, "geometry": { "type": "LineString", "coordinates": [ [ 37.466667, 8.033333 ], [ 37.566667, 8.133333 ] ] } },
{ "type": "Feature", "properties": { "idx": 388, "idx_ds": 420, "pit": false, "strord": 4 }, "geometry": { "type": "LineString", "coordinates": [ [ 37.666667, 8.233333 ], [ 37.566667, 8.133333 ] ] } },
{ "type": "Feature", "properties": { "idx": 741, "idx_ds": 709, "pit": false, "strord": 1 }, "geometry": { "type": "LineString", "coordinates": [ [ 36.666667, 7.133333 ], [ 36.766667, 7.133333 ], [ 36.766667, 7.233333 ] ] } },
{ "type": "Feature", "properties": { "idx": 675, "idx_ds": 709, "pit": false, "strord": 3 }, "geometry": { "type": "LineString", "coordinates": [ [ 36.666667, 7.333333 ], [ 36.766667, 7.333333 ], [ 36.766667, 7.233333 ] ] } },
{ "type": "Feature", "properties": { "idx": 488, "idx_ds": 487, "pit": false, "strord": 1 }, "geometry": { "type": "LineString", "coordinates": [ [ 37.766667, 7.933333 ], [ 37.666667, 7.933333 ] ] } },
{ "type": "Feature", "properties": { "idx": 420, "idx_ds": 486, "pit": false, "strord": 4 }, "geometry": { "type": "LineString", "coordinates": [ [ 37.566667, 8.133333 ], [ 37.566667, 8.033333 ], [ 37.566667, 7.933333 ] ] } },
{ "type": "Feature", "properties": { "idx": 653, "idx_ds": 585, "pit": false, "strord": 1 }, "geometry": { "type": "LineString", "coordinates": [ [ 37.766667, 7.433333 ], [ 37.766667, 7.533333 ], [ 37.666667, 7.533333 ], [ 37.666667, 7.633333 ], [ 37.566667, 7.633333 ] ] } },
{ "type": "Feature", "properties": { "idx": 554, "idx_ds": 519, "pit": false, "strord": 1 }, "geometry": { "type": "LineString", "coordinates": [ [ 37.766667, 7.733333 ], [ 37.666667, 7.833333 ], [ 37.566667, 7.833333 ] ] } },
{ "type": "Feature", "properties": { "idx": 487, "idx_ds": 486, "pit": false, "strord": 2 }, "geometry": { "type": "LineString", "coordinates": [ [ 37.666667, 7.933333 ], [ 37.566667, 7.933333 ] ] } },
{ "type": "Feature", "properties": { "idx": 743, "idx_ds": 711, "pit": false, "strord": 1 }, "geometry": { "type": "LineString", "coordinates": [ [ 36.866667, 7.133333 ], [ 36.966667, 7.133333 ], [ 36.966667, 7.233333 ] ] } },
{ "type": "Feature", "properties": { "idx": 709, "idx_ds": 711, "pit": false, "strord": 3 }, "geometry": { "type": "LineString", "coordinates": [ [ 36.766667, 7.233333 ], [ 36.866667, 7.233333 ], [ 36.966667, 7.233333 ] ] } },
{ "type": "Feature", "properties": { "idx": 644, "idx_ds": 711, "pit": false, "strord": 1 }, "geometry": { "type": "LineString", "coordinates": [ [ 36.866667, 7.433333 ], [ 36.966667, 7.333333 ], [ 36.966667, 7.233333 ] ] } },
{ "type": "Feature", "properties": { "idx": 486, "idx_ds": 519, "pit": false, "strord": 4 }, "geometry": { "type": "LineString", "coordinates": [ [ 37.566667, 7.933333 ], [ 37.566667, 7.833333 ] ] } },
{ "type": "Feature", "properties": { "idx": 677, "idx_ds": 711, "pit": false, "strord": 1 }, "geometry": { "type": "LineString", "coordinates": [ [ 36.866667, 7.333333 ], [ 36.966667, 7.233333 ] ] } },
{ "type": "Feature", "properties": { "idx": 553, "idx_ds": 552, "pit": false, "strord": 1 }, "geometry": { "type": "LineString", "coordinates": [ [ 37.666667, 7.733333 ], [ 37.566667, 7.733333 ] ] } },
{ "type": "Feature", "properties": { "idx": 519, "idx_ds": 552, "pit": false, "strord": 4 }, "geometry": { "type": "LineString", "coordinates": [ [ 37.566667, 7.833333 ], [ 37.566667, 7.733333 ] ] } },
{ "type": "Feature", "properties": { "idx": 780, "idx_ds": 713, "pit": false, "strord": 1 }, "geometry": { "type": "LineString", "coordinates": [ [ 37.266667, 7.033333 ], [ 37.266667, 7.133333 ], [ 37.166667, 7.233333 ] ] } },
{ "type": "Feature", "properties": { "idx": 711, "idx_ds": 713, "pit": false, "strord": 3 }, "geometry": { "type": "LineString", "coordinates": [ [ 36.966667, 7.233333 ], [ 37.066667, 7.233333 ], [ 37.166667, 7.233333 ] ] } },
{ "type": "Feature", "properties": { "idx": 552, "idx_ds": 585, "pit": false, "strord": 4 }, "geometry": { "type": "LineString", "coordinates": [ [ 37.566667, 7.733333 ], [ 37.566667, 7.633333 ] ] } },
{ "type": "Feature", "properties": { "idx": 746, "idx_ds": 713, "pit": false, "strord": 1 }, "geometry": { "type": "LineString", "coordinates": [ [ 37.166667, 7.133333 ], [ 37.166667, 7.233333 ] ] } },
{ "type": "Feature", "properties": { "idx": 745, "idx_ds": 713, "pit": false, "strord": 1 }, "geometry": { "type": "LineString", "coordinates": [ [ 37.066667, 7.133333 ], [ 37.166667, 7.233333 ] ] } },
{ "type": "Feature", "properties": { "idx": 652, "idx_ds": 650, "pit": false, "strord": 1 }, "geometry": { "type": "LineString", "coordinates": [ [ 37.666667, 7.433333 ], [ 37.566667, 7.533333 ], [ 37.466667, 7.433333 ] ] } },
{ "type": "Feature", "properties": { "idx": 585, "idx_ds": 584, "pit": false, "strord": 4 }, "geometry": { "type": "LineString", "coordinates": [ [ 37.566667, 7.633333 ], [ 37.466667, 7.633333 ] ] } },
{ "type": "Feature", "properties": { "idx": 583, "idx_ds": 584, "pit": false, "strord": 1 }, "geometry": { "type": "LineString", "coordinates": [ [ 37.366667, 7.633333 ], [ 37.466667, 7.633333 ] ] } },
{ "type": "Feature", "properties": { "idx": 551, "idx_ds": 584, "pit": false, "strord": 1 }, "geometry": { "type": "LineString", "coordinates": [ [ 37.466667, 7.733333 ], [ 37.466667, 7.633333 ] ] } },
{ "type": "Feature", "properties": { "idx": 713, "idx_ds": 680, "pit": false, "strord": 3 }, "geometry": { "type": "LineString", "coordinates": [ [ 37.166667, 7.233333 ], [ 37.166667, 7.333333 ] ] } },
{ "type": "Feature", "properties": { "idx": 647, "idx_ds": 680, "pit": false, "strord": 1 }, "geometry": { "type": "LineString", "coordinates": [ [ 37.166667, 7.433333 ], [ 37.166667, 7.333333 ] ] } },
{ "type": "Feature", "properties": { "idx": 651, "idx_ds": 650, "pit": false, "strord": 1 }, "geometry": { "type": "LineString", "coordinates": [ [ 37.566667, 7.433333 ], [ 37.466667, 7.433333 ] ] } },
{ "type": "Feature", "properties": { "idx": 616, "idx_ds": 617, "pit": false, "strord": 1 }, "geometry": { "type": "LineString", "coordinates": [ [ 37.366667, 7.533333 ], [ 37.466667, 7.533333 ] ] } },
{ "type": "Feature", "properties": { "idx": 584, "idx_ds": 617, "pit": false, "strord": 4 }, "geometry": { "type": "LineString", "coordinates": [ [ 37.466667, 7.633333 ], [ 37.466667, 7.533333 ] ] } },
{ "type": "Feature", "properties": { "idx": 680, "idx_ds": 682, "pit": false, "strord": 3 }, "geometry": { "type": "LineString", "coordinates": [ [ 37.166667, 7.333333 ], [ 37.266667, 7.333333 ], [ 37.366667, 7.333333 ] ] } },
{ "type": "Feature", "properties": { "idx": 650, "idx_ds": 649, "pit": false, "strord": 2 }, "geometry": { "type": "LineString", "coordinates": [ [ 37.466667, 7.433333 ], [ 37.366667, 7.433333 ] ] } },
{ "type": "Feature", "properties": { "idx": 648, "idx_ds": 649, "pit": false, "strord": 1 }, "geometry": { "type": "LineString", "coordinates": [ [ 37.266667, 7.433333 ], [ 37.366667, 7.433333 ] ] } },
{ "type": "Feature", "properties": { "idx": 617, "idx_ds": 649, "pit": false, "strord": 4 }, "geometry": { "type": "LineString", "coordinates": [ [ 37.466667, 7.533333 ], [ 37.366667, 7.433333 ] ] } },
{ "type": "Feature", "properties": { "idx": 683, "idx_ds": 682, "pit": false, "strord": 1 }, "geometry": { "type": "LineString", "coordinates": [ [ 37.466667, 7.333333 ], [ 37.366667, 7.333333 ] ] } },
{ "type": "Feature", "properties": { "idx": 649, "idx_ds": 682, "pit": false, "strord": 4 }, "geometry": { "type": "LineString", "coordinates": [ [ 37.366667, 7.433333 ], [ 37.366667, 7.333333 ] ] } },
{ "type": "Feature", "properties": { "idx": 753, "idx_ds": 752, "pit": false, "strord": 1 }, "geometry": { "type": "LineString", "coordinates": [ [ 37.866667, 7.133333 ], [ 37.766667, 7.133333 ] ] } },
{ "type": "Feature", "properties": { "idx": 720, "idx_ds": 752, "pit": false, "strord": 1 }, "geometry": { "type": "LineString", "coordinates": [ [ 37.866667, 7.233333 ], [ 37.766667, 7.133333 ] ] } },
{ "type": "Feature", "properties": { "idx": 682, "idx_ds": 717, "pit": false, "strord": 4 }, "geometry": { "type": "LineString", "coordinates": [ [ 37.366667, 7.333333 ], [ 37.366667, 7.233333 ], [ 37.466667, 7.233333 ], [ 37.566667, 7.233333 ] ] } },
{ "type": "Feature", "properties": { "idx": 785, "idx_ds": 751, "pit": false, "strord": 1 }, "geometry": { "type": "LineString", "coordinates": [ [ 37.766667, 7.033333 ], [ 37.666667, 7.133333 ] ] } },
{ "type": "Feature", "properties": { "idx": 784, "idx_ds": 751, "pit": false, "strord": 1 }, "geometry": { "type": "LineString", "coordinates": [ [ 37.666667, 7.033333 ], [ 37.666667, 7.133333 ] ] } },
{ "type": "Feature", "properties": { "idx": 752, "idx_ds": 718, "pit": false, "strord": 2 }, "geometry": { "type": "LineString", "coordinates": [ [ 37.766667, 7.133333 ], [ 37.666667, 7.233333 ] ] } },
{ "type": "Feature", "properties": { "idx": 719, "idx_ds": 718, "pit": false, "strord": 1 }, "geometry": { "type": "LineString", "coordinates": [ [ 37.766667, 7.233333 ], [ 37.666667, 7.233333 ] ] } },
{ "type": "Feature", "properties": { "idx": 686, "idx_ds": 718, "pit": false, "strord": 1 }, "geometry": { "type": "LineString", "coordinates": [ [ 37.766667, 7.333333 ], [ 37.666667, 7.233333 ] ] } },
{ "type": "Feature", "properties": { "idx": 685, "idx_ds": 718, "pit": false, "strord": 1 }, "geometry": { "type": "LineString", "coordinates": [ [ 37.666667, 7.333333 ], [ 37.666667, 7.233333 ] ] } },
{ "type": "Feature", "properties": { "idx": 751, "idx_ds": 749, "pit": false, "strord": 2 }, "geometry": { "type": "LineString", "coordinates": [ [ 37.666667, 7.133333 ], [ 37.566667, 7.133333 ], [ 37.466667, 7.133333 ] ] } },
{ "type": "Feature", "properties": { "idx": 718, "idx_ds": 717, "pit": false, "strord": 2 }, "geometry": { "type": "LineString", "coordinates": [ [ 37.666667, 7.233333 ], [ 37.566667, 7.233333 ] ] } },
{ "type": "Feature", "properties": { "idx": 717, "idx_ds": 749, "pit": false, "strord": 4 }, "geometry": { "type": "LineString", "coordinates": [ [ 37.566667, 7.233333 ], [ 37.466667, 7.133333 ] ] } },
{ "type": "Feature", "properties": { "idx": 1014, "idx_ds": 948, "pit": false, "strord": 1 }, "geometry": { "type": "LineString", "coordinates": [ [ 37.566667, 6.333333 ], [ 37.566667, 6.433333 ], [ 37.566667, 6.533333 ] ] } },
{ "type": "Feature", "properties": { "idx": 1013, "idx_ds": 948, "pit": false, "strord": 1 }, "geometry": { "type": "LineString", "coordinates": [ [ 37.466667, 6.333333 ], [ 37.466667, 6.433333 ], [ 37.566667, 6.533333 ] ] } },
{ "type": "Feature", "properties": { "idx": 781, "idx_ds": 782, "pit": false, "strord": 1 }, "geometry": { "type": "LineString", "coordinates": [ [ 37.366667, 7.033333 ], [ 37.466667, 7.033333 ] ] } },
{ "type": "Feature", "properties": { "idx": 749, "idx_ds": 782, "pit": false, "strord": 4 }, "geometry": { "type": "LineString", "coordinates": [ [ 37.466667, 7.133333 ], [ 37.466667, 7.033333 ] ] } },
{ "type": "Feature", "properties": { "idx": 947, "idx_ds": 948, "pit": false, "strord": 1 }, "geometry": { "type": "LineString", "coordinates": [ [ 37.466667, 6.533333 ], [ 37.566667, 6.533333 ] ] } },
{ "type": "Feature", "properties": { "idx": 816, "idx_ds": 815, "pit": false, "strord": 1 }, "geometry": { "type": "LineString", "coordinates": [ [ 37.566667, 6.933333 ], [ 37.466667, 6.933333 ] ] } },
{ "type": "Feature", "properties": { "idx": 814, "idx_ds": 815, "pit": false, "strord": 1 }, "geometry": { "type": "LineString", "coordinates": [ [ 37.366667, 6.933333 ], [ 37.466667, 6.933333 ] ] } },
{ "type": "Feature", "properties": { "idx": 783, "idx_ds": 815, "pit": false, "strord": 1 }, "geometry": { "type": "LineString", "coordinates": [ [ 37.566667, 7.033333 ], [ 37.466667, 6.933333 ] ] } },
{ "type": "Feature", "properties": { "idx": 782, "idx_ds": 815, "pit": false, "strord": 4 }, "geometry": { "type": "LineString", "coordinates": [ [ 37.466667, 7.033333 ], [ 37.466667, 6.933333 ] ] } },
{ "type": "Feature", "properties": { "idx": 1071, "idx_ds": 1005, "pit": false, "strord": 1 }, "geometry": { "type": "LineString", "coordinates": [ [ 36.666667, 6.133333 ], [ 36.666667, 6.233333 ], [ 36.666667, 6.333333 ] ] } },
{ "type": "Feature", "properties": { "idx": 1077, "idx_ds": 1010, "pit": false, "strord": 1 }, "geometry": { "type": "LineString", "coordinates": [ [ 37.266667, 6.133333 ], [ 37.166667, 6.233333 ], [ 37.166667, 6.333333 ] ] } },
{ "type": "Feature", "properties": { "idx": 979, "idx_ds": 978, "pit": false, "strord": 1 }, "geometry": { "type": "LineString", "coordinates": [ [ 37.366667, 6.433333 ], [ 37.366667, 6.333333 ], [ 37.266667, 6.433333 ] ] } },
{ "type": "Feature", "properties": { "idx": 948, "idx_ds": 915, "pit": false, "strord": 2 }, "geometry": { "type": "LineString", "coordinates": [ [ 37.566667, 6.533333 ], [ 37.566667, 6.633333 ] ] } },
{ "type": "Feature", "properties": { "idx": 916, "idx_ds": 915, "pit": false, "strord": 1 }, "geometry": { "type": "LineString", "coordinates": [ [ 37.666667, 6.633333 ], [ 37.566667, 6.633333 ] ] } },
{ "type": "Feature", "properties": { "idx": 883, "idx_ds": 915, "pit": false, "strord": 1 }, "geometry": { "type": "LineString", "coordinates": [ [ 37.666667, 6.733333 ], [ 37.566667, 6.633333 ] ] } },
{ "type": "Feature", "properties": { "idx": 850, "idx_ds": 882, "pit": false, "strord": 1 }, "geometry": { "type": "LineString", "coordinates": [ [ 37.666667, 6.833333 ], [ 37.566667, 6.733333 ] ] } },
{ "type": "Feature", "properties": { "idx": 849, "idx_ds": 882, "pit": false, "strord": 1 }, "geometry": { "type": "LineString", "coordinates": [ [ 37.566667, 6.833333 ], [ 37.566667, 6.733333 ] ] } },
{ "type": "Feature", "properties": { "idx": 848, "idx_ds": 847, "pit": false, "strord": 1 }, "geometry": { "type": "LineString", "coordinates": [ [ 37.466667, 6.833333 ], [ 37.366667, 6.833333 ] ] } },
{ "type": "Feature", "properties": { "idx": 815, "idx_ds": 847, "pit": false, "strord": 4 }, "geometry": { "type": "LineString", "coordinates": [ [ 37.466667, 6.933333 ], [ 37.366667, 6.833333 ] ] } },
{ "type": "Feature", "properties": { "idx": 1006, "idx_ds": 1005, "pit": false, "strord": 1 }, "geometry": { "type": "LineString", "coordinates": [ [ 36.766667, 6.333333 ], [ 36.666667, 6.333333 ] ] } },
{ "type": "Feature", "properties": { "idx": 1044, "idx_ds": 1010, "pit": false, "strord": 1 }, "geometry": { "type": "LineString", "coordinates": [ [ 37.266667, 6.233333 ], [ 37.166667, 6.333333 ] ] } },
{ "type": "Feature", "properties": { "idx": 1011, "idx_ds": 978, "pit": false, "strord": 1 }, "geometry": { "type": "LineString", "coordinates": [ [ 37.266667, 6.333333 ], [ 37.266667, 6.433333 ] ] } },
{ "type": "Feature", "properties": { "idx": 946, "idx_ds": 977, "pit": false, "strord": 1 }, "geometry": { "type": "LineString", "coordinates": [ [ 37.366667, 6.533333 ], [ 37.266667, 6.533333 ], [ 37.166667, 6.433333 ] ] } },
{ "type": "Feature", "properties": { "idx": 1040, "idx_ds": 944, "pit": false, "strord": 1 }, "geometry": { "type": "LineString", "coordinates": [ [ 36.866667, 6.233333 ], [ 36.966667, 6.333333 ], [ 37.066667, 6.433333 ], [ 37.166667, 6.533333 ] ] } },
{ "type": "Feature", "properties": { "idx": 915, "idx_ds": 914, "pit": false, "strord": 2 }, "geometry": { "type": "LineString", "coordinates": [ [ 37.566667, 6.633333 ], [ 37.466667, 6.633333 ] ] } },
{ "type": "Feature", "properties": { "idx": 882, "idx_ds": 914, "pit": false, "strord": 2 }, "geometry": { "type": "LineString", "coordinates": [ [ 37.566667, 6.733333 ], [ 37.466667, 6.633333 ] ] } },
{ "type": "Feature", "properties": { "idx": 881, "idx_ds": 914, "pit": false, "strord": 1 }, "geometry": { "type": "LineString", "coordinates": [ [ 37.466667, 6.733333 ], [ 37.466667, 6.633333 ] ] } },
{ "type": "Feature", "properties": { "idx": 847, "idx_ds": 846, "pit": false, "strord": 4 }, "geometry": { "type": "LineString", "coordinates": [ [ 37.366667, 6.833333 ], [ 37.266667, 6.833333 ] ] } },
{ "type": "Feature", "properties": { "idx": 813, "idx_ds": 846, "pit": false, "strord": 1 }, "geometry": { "type": "LineString", "coordinates": [ [ 37.266667, 6.933333 ], [ 37.266667, 6.833333 ] ] } },
{ "type": "Feature", "properties": { "idx": 1005, "idx_ds": 941, "pit": false, "strord": 2 }, "geometry": { "type": "LineString", "coordinates": [ [ 36.666667, 6.333333 ], [ 36.766667, 6.433333 ], [ 36.866667, 6.433333 ], [ 36.866667, 6.533333 ] ] } },
{ "type": "Feature", "properties": { "idx": 1010, "idx_ds": 977, "pit": false, "strord": 2 }, "geometry": { "type": "LineString", "coordinates": [ [ 37.166667, 6.333333 ], [ 37.166667, 6.433333 ] ] } },
{ "type": "Feature", "properties": { "idx": 1009, "idx_ds": 977, "pit": false, "strord": 1 }, "geometry": { "type": "LineString", "coordinates": [ [ 37.066667, 6.333333 ], [ 37.166667, 6.433333 ] ] } },
{ "type": "Feature", "properties": { "idx": 978, "idx_ds": 977, "pit": false, "strord": 2 }, "geometry": { "type": "LineString", "coordinates": [ [ 37.266667, 6.433333 ], [ 37.166667, 6.433333 ] ] } },
{ "type": "Feature", "properties": { "idx": 914, "idx_ds": 880, "pit": false, "strord": 3 }, "geometry": { "type": "LineString", "coordinates": [ [ 37.466667, 6.633333 ], [ 37.366667, 6.733333 ] ] } },
{ "type": "Feature", "properties": { "idx": 913, "idx_ds": 880, "pit": false, "strord": 1 }, "geometry": { "type": "LineString", "coordinates": [ [ 37.366667, 6.633333 ], [ 37.366667, 6.733333 ] ] } },
{ "type": "Feature", "properties": { "idx": 846, "idx_ds": 912, "pit": false, "strord": 4 }, "geometry": { "type": "LineString", "coordinates": [ [ 37.266667, 6.833333 ], [ 37.266667, 6.733333 ], [ 37.266667, 6.633333 ] ] } },
{ "type": "Feature", "properties": { "idx": 977, "idx_ds": 944, "pit": false, "strord": 3 }, "geometry": { "type": "LineString", "coordinates": [ [ 37.166667, 6.433333 ], [ 37.166667, 6.533333 ] ] } },
{ "type": "Feature", "properties": { "idx": 880, "idx_ds": 912, "pit": false, "strord": 3 }, "geometry": { "type": "LineString", "coordinates": [ [ 37.366667, 6.733333 ], [ 37.266667, 6.633333 ] ] } },
{ "type": "Feature", "properties": { "idx": 810, "idx_ds": 811, "pit": false, "strord": 1 }, "geometry": { "type": "LineString", "coordinates": [ [ 36.966667, 6.933333 ], [ 37.066667, 6.933333 ] ] } },
{ "type": "Feature", "properties": { "idx": 778, "idx_ds": 811, "pit": false, "strord": 1 }, "geometry": { "type": "LineString", "coordinates": [ [ 37.066667, 7.033333 ], [ 37.066667, 6.933333 ] ] } },
{ "type": "Feature", "properties": { "idx": 975, "idx_ds": 941, "pit": false, "strord": 1 }, "geometry": { "type": "LineString", "coordinates": [ [ 36.966667, 6.433333 ], [ 36.866667, 6.533333 ] ] } },
{ "type": "Feature", "properties": { "idx": 940, "idx_ds": 941, "pit": false, "strord": 1 }, "geometry": { "type": "LineString", "coordinates": [ [ 36.766667, 6.533333 ], [ 36.866667, 6.533333 ] ] } },
{ "type": "Feature", "properties": { "idx": 944, "idx_ds": 911, "pit": false, "strord": 3 }, "geometry": { "type": "LineString", "coordinates": [ [ 37.166667, 6.533333 ], [ 37.166667, 6.633333 ] ] } },
{ "type": "Feature", "properties": { "idx": 912, "idx_ds": 911, "pit": false, "strord": 4 }, "geometry": { "type": "LineString", "coordinates": [ [ 37.266667, 6.633333 ], [ 37.166667, 6.633333 ] ] } },
{ "type": "Feature", "properties": { "idx": 811, "idx_ds": 876, "pit": false, "strord": 2 }, "geometry": { "type": "LineString", "coordinates": [ [ 37.066667, 6.933333 ], [ 37.166667, 6.933333 ], [ 37.066667, 6.833333 ], [ 36.966667, 6.833333 ], [ 36.966667, 6.733333 ] ] } },
{ "type": "Feature", "properties": { "idx": 941, "idx_ds": 909, "pit": false, "strord": 2 }, "geometry": { "type": "LineString", "coordinates": [ [ 36.866667, 6.533333 ], [ 36.966667, 6.533333 ], [ 36.966667, 6.633333 ] ] } },
{ "type": "Feature", "properties": { "idx": 911, "idx_ds": 910, "pit": false, "strord": 4 }, "geometry": { "type": "LineString", "coordinates": [ [ 37.166667, 6.633333 ], [ 37.066667, 6.633333 ] ] } },
{ "type": "Feature", "properties": { "idx": 878, "idx_ds": 910, "pit": false, "strord": 1 }, "geometry": { "type": "LineString", "coordinates": [ [ 37.166667, 6.733333 ], [ 37.066667, 6.633333 ] ] } },
{ "type": "Feature", "properties": { "idx": 943, "idx_ds": 909, "pit": false, "strord": 1 }, "geometry": { "type": "LineString", "coordinates": [ [ 37.066667, 6.533333 ], [ 36.966667, 6.633333 ] ] } },
{ "type": "Feature", "properties": { "idx": 910, "idx_ds": 909, "pit": false, "strord": 4 }, "geometry": { "type": "LineString", "coordinates": [ [ 37.066667, 6.633333 ], [ 36.966667, 6.633333 ] ] } },
{ "type": "Feature", "properties": { "idx": 909, "idx_ds": 876, "pit": false, "strord": 4 }, "geometry": { "type": "LineString", "coordinates": [ [ 36.966667, 6.633333 ], [ 36.966667, 6.733333 ] ] } },
{ "type": "Feature", "properties": { "idx": 877, "idx_ds": 876, "pit": false, "strord": 1 }, "geometry": { "type": "LineString", "coordinates": [ [ 37.066667, 6.733333 ], [ 36.966667, 6.733333 ] ] } },
{ "type": "Feature", "properties": { "idx": 876, "idx_ds": 874, "pit": false, "strord": 4 }, "geometry": { "type": "LineString", "coordinates": [ [ 36.966667, 6.733333 ], [ 36.866667, 6.733333 ], [ 36.866667, 6.633333 ], [ 36.766667, 6.733333 ] ] } },
{ "type": "Feature", "properties": { "idx": 809, "idx_ds": 776, "pit": false, "strord": 1 }, "geometry": { "type": "LineString", "coordinates": [ [ 36.866667, 6.933333 ], [ 36.866667, 7.033333 ] ] } },
{ "type": "Feature", "properties": { "idx": 777, "idx_ds": 776, "pit": false, "strord": 1 }, "geometry": { "type": "LineString", "coordinates": [ [ 36.966667, 7.033333 ], [ 36.866667, 7.033333 ] ] } },
{ "type": "Feature", "properties": { "idx": 739, "idx_ds": 770, "pit": false, "strord": 1 }, "geometry": { "type": "LineString", "coordinates": [ [ 36.466667, 7.133333 ], [ 36.366667, 7.133333 ], [ 36.366667, 7.033333 ], [ 36.266667, 7.033333 ] ] } },
{ "type": "Feature", "properties": { "idx": 703, "idx_ds": 704, "pit": false, "strord": 1 }, "geometry": { "type": "LineString", "coordinates": [ [ 36.166667, 7.233333 ], [ 36.266667, 7.233333 ] ] } },
{ "type": "Feature", "properties": { "idx": 671, "idx_ds": 704, "pit": false, "strord": 1 }, "geometry": { "type": "LineString", "coordinates": [ [ 36.266667, 7.333333 ], [ 36.266667, 7.233333 ] ] } },
{ "type": "Feature", "properties": { "idx": 670, "idx_ds": 704, "pit": false, "strord": 1 }, "geometry": { "type": "LineString", "coordinates": [ [ 36.166667, 7.333333 ], [ 36.266667, 7.233333 ] ] } },
{ "type": "Feature", "properties": { "idx": 776, "idx_ds": 808, "pit": false, "strord": 2 }, "geometry": { "type": "LineString", "coordinates": [ [ 36.866667, 7.033333 ], [ 36.766667, 6.933333 ] ] } },
{ "type": "Feature", "properties": { "idx": 775, "idx_ds": 808, "pit": false, "strord": 1 }, "geometry": { "type": "LineString", "coordinates": [ [ 36.766667, 7.033333 ], [ 36.766667, 6.933333 ] ] } },
{ "type": "Feature", "properties": { "idx": 774, "idx_ds": 808, "pit": false, "strord": 1 }, "geometry": { "type": "LineString", "coordinates": [ [ 36.666667, 7.033333 ], [ 36.766667, 6.933333 ] ] } },
{ "type": "Feature", "properties": { "idx": 705, "idx_ds": 737, "pit": false, "strord": 1 }, "geometry": { "type": "LineString", "coordinates": [ [ 36.366667, 7.233333 ], [ 36.266667, 7.133333 ] ] } },
{ "type": "Feature", "properties": { "idx": 704, "idx_ds": 737, "pit": false, "strord": 2 }, "geometry": { "type": "LineString", "coordinates": [ [ 36.266667, 7.233333 ], [ 36.266667, 7.133333 ] ] } },
{ "type": "Feature", "properties": { "idx": 765, "idx_ds": 733, "pit": false, "strord": 1 }, "geometry": { "type": "LineString", "coordinates": [ [ 35.766667, 7.033333 ], [ 35.766667, 7.133333 ], [ 35.866667, 7.133333 ] ] } },
{ "type": "Feature", "properties": { "idx": 635, "idx_ds": 734, "pit": false, "strord": 1 }, "geometry": { "type": "LineString", "coordinates": [ [ 35.966667, 7.433333 ], [ 36.066667, 7.333333 ], [ 35.966667, 7.233333 ], [ 35.966667, 7.133333 ] ] } },
{ "type": "Feature", "properties": { "idx": 842, "idx_ds": 874, "pit": false, "strord": 1 }, "geometry": { "type": "LineString", "coordinates": [ [ 36.866667, 6.833333 ], [ 36.766667, 6.733333 ] ] } },
{ "type": "Feature", "properties": { "idx": 841, "idx_ds": 840, "pit": false, "strord": 1 }, "geometry": { "type": "LineString", "coordinates": [ [ 36.766667, 6.833333 ], [ 36.666667, 6.833333 ] ] } },
{ "type": "Feature", "properties": { "idx": 808, "idx_ds": 840, "pit": false, "strord": 2 }, "geometry": { "type": "LineString", "coordinates": [ [ 36.766667, 6.933333 ], [ 36.666667, 6.833333 ] ] } },
{ "type": "Feature", "properties": { "idx": 740, "idx_ds": 838, "pit": false, "strord": 1 }, "geometry": { "type": "LineString", "coordinates": [ [ 36.566667, 7.133333 ], [ 36.566667, 7.033333 ], [ 36.566667, 6.933333 ], [ 36.466667, 6.833333 ] ] } },
{ "type": "Feature", "properties": { "idx": 737, "idx_ds": 770, "pit": false, "strord": 2 }, "geometry": { "type": "LineString", "coordinates": [ [ 36.266667, 7.133333 ], [ 36.266667, 7.033333 ] ] } },
{ "type": "Feature", "properties": { "idx": 766, "idx_ds": 733, "pit": false, "strord": 1 }, "geometry": { "type": "LineString", "coordinates": [ [ 35.866667, 7.033333 ], [ 35.866667, 7.133333 ] ] } },
{ "type": "Feature", "properties": { "idx": 874, "idx_ds": 873, "pit": false, "strord": 4 }, "geometry": { "type": "LineString", "coordinates": [ [ 36.766667, 6.733333 ], [ 36.666667, 6.733333 ] ] } },
{ "type": "Feature", "properties": { "idx": 872, "idx_ds": 873, "pit": false, "strord": 1 }, "geometry": { "type": "LineString", "coordinates": [ [ 36.566667, 6.733333 ], [ 36.666667, 6.733333 ] ] } },
{ "type": "Feature", "properties": { "idx": 840, "idx_ds": 873, "pit": false, "strord": 2 }, "geometry": { "type": "LineString", "coordinates": [ [ 36.666667, 6.833333 ], [ 36.666667, 6.733333 ] ] } },
{ "type": "Feature", "properties": { "idx": 772, "idx_ds": 838, "pit": false, "strord": 1 }, "geometry": { "type": "LineString", "coordinates": [ [ 36.466667, 7.033333 ], [ 36.466667, 6.933333 ], [ 36.466667, 6.833333 ] ] } },
{ "type": "Feature", "properties": { "idx": 770, "idx_ds": 870, "pit": false, "strord": 2 }, "geometry": { "type": "LineString", "coordinates": [ [ 36.266667, 7.033333 ], [ 36.266667, 6.933333 ], [ 36.266667, 6.833333 ], [ 36.366667, 6.733333 ] ] } },
{ "type": "Feature", "properties": { "idx": 736, "idx_ds": 767, "pit": false, "strord": 1 }, "geometry": { "type": "LineString", "coordinates": [ [ 36.166667, 7.133333 ], [ 36.066667, 7.033333 ], [ 35.966667, 7.033333 ] ] } },
{ "type": "Feature", "properties": { "idx": 733, "idx_ds": 734, "pit": false, "strord": 2 }, "geometry": { "type": "LineString", "coordinates": [ [ 35.866667, 7.133333 ], [ 35.966667, 7.133333 ] ] } },
{ "type": "Feature", "properties": { "idx": 939, "idx_ds": 906, "pit": false, "strord": 1 }, "geometry": { "type": "LineString", "coordinates": [ [ 36.666667, 6.533333 ], [ 36.666667, 6.633333 ] ] } },
{ "type": "Feature", "properties": { "idx": 873, "idx_ds": 906, "pit": false, "strord": 4 }, "geometry": { "type": "LineString", "coordinates": [ [ 36.666667, 6.733333 ], [ 36.666667, 6.633333 ] ] } },
{ "type": "Feature", "properties": { "idx": 839, "idx_ds": 838, "pit": false, "strord": 1 }, "geometry": { "type": "LineString", "coordinates": [ [ 36.566667, 6.833333 ], [ 36.466667, 6.833333 ] ] } },
{ "type": "Feature", "properties": { "idx": 799, "idx_ds": 801, "pit": false, "strord": 1 }, "geometry": { "type": "LineString", "coordinates": [ [ 35.866667, 6.933333 ], [ 35.966667, 6.933333 ], [ 36.066667, 6.933333 ] ] } },
{ "type": "Feature", "properties": { "idx": 735, "idx_ds": 767, "pit": false, "strord": 1 }, "geometry": { "type": "LineString", "coordinates": [ [ 36.066667, 7.133333 ], [ 35.966667, 7.033333 ] ] } },
{ "type": "Feature", "properties": { "idx": 734, "idx_ds": 767, "pit": false, "strord": 2 }, "geometry": { "type": "LineString", "coordinates": [ [ 35.966667, 7.133333 ], [ 35.966667, 7.033333 ] ] } },
{ "type": "Feature", "properties": { "idx": 906, "idx_ds": 937, "pit": false, "strord": 4 }, "geometry": { "type": "LineString", "coordinates": [ [ 36.666667, 6.633333 ], [ 36.566667, 6.633333 ], [ 36.566667, 6.533333 ], [ 36.466667, 6.533333 ] ] } },
{ "type": "Feature", "properties": { "idx": 871, "idx_ds": 870, "pit": false, "strord": 1 }, "geometry": { "type": "LineString", "coordinates": [ [ 36.466667, 6.733333 ], [ 36.366667, 6.733333 ] ] } },
{ "type": "Feature", "properties": { "idx": 869, "idx_ds": 870, "pit": false, "strord": 1 }, "geometry": { "type": "LineString", "coordinates": [ [ 36.266667, 6.733333 ], [ 36.366667, 6.733333 ] ] } },
{ "type": "Feature", "properties": { "idx": 838, "idx_ds": 870, "pit": false, "strord": 2 }, "geometry": { "type": "LineString", "coordinates": [ [ 36.466667, 6.833333 ], [ 36.366667, 6.733333 ] ] } },
{ "type": "Feature", "properties": { "idx": 837, "idx_ds": 870, "pit": false, "strord": 1 }, "geometry": { "type": "LineString", "coordinates": [ [ 36.366667, 6.833333 ], [ 36.366667, 6.733333 ] ] } },
{ "type": "Feature", "properties": { "idx": 767, "idx_ds": 801, "pit": false, "strord": 3 }, "geometry": { "type": "LineString", "coordinates": [ [ 35.966667, 7.033333 ], [ 36.066667, 6.933333 ] ] } },
{ "type": "Feature", "properties": { "idx": 870, "idx_ds": 969, "pit": false, "strord": 3 }, "geometry": { "type": "LineString", "coordinates": [ [ 36.366667, 6.733333 ], [ 36.366667, 6.633333 ], [ 36.366667, 6.533333 ], [ 36.366667, 6.433333 ] ] } },
{ "type": "Feature", "properties": { "idx": 899, "idx_ds": 900, "pit": false, "strord": 1 }, "geometry": { "type": "LineString", "coordinates": [ [ 35.966667, 6.633333 ], [ 35.966667, 6.533333 ], [ 36.066667, 6.533333 ], [ 36.066667, 6.633333 ] ] } },
{ "type": "Feature", "properties": { "idx": 833, "idx_ds": 834, "pit": false, "strord": 1 }, "geometry": { "type": "LineString", "coordinates": [ [ 35.966667, 6.833333 ], [ 36.066667, 6.833333 ] ] } },
{ "type": "Feature", "properties": { "idx": 801, "idx_ds": 834, "pit": false, "strord": 3 }, "geometry": { "type": "LineString", "coordinates": [ [ 36.066667, 6.933333 ], [ 36.066667, 6.833333 ] ] } },
{ "type": "Feature", "properties": { "idx": 971, "idx_ds": 937, "pit": false, "strord": 1 }, "geometry": { "type": "LineString", "coordinates": [ [ 36.566667, 6.433333 ], [ 36.466667, 6.533333 ] ] } },
{ "type": "Feature", "properties": { "idx": 868, "idx_ds": 900, "pit": false, "strord": 1 }, "geometry": { "type": "LineString", "coordinates": [ [ 36.166667, 6.733333 ], [ 36.166667, 6.633333 ], [ 36.066667, 6.633333 ] ] } },
{ "type": "Feature", "properties": { "idx": 866, "idx_ds": 867, "pit": false, "strord": 1 }, "geometry": { "type": "LineString", "coordinates": [ [ 35.966667, 6.733333 ], [ 36.066667, 6.733333 ] ] } },
{ "type": "Feature", "properties": { "idx": 835, "idx_ds": 867, "pit": false, "strord": 1 }, "geometry": { "type": "LineString", "coordinates": [ [ 36.166667, 6.833333 ], [ 36.066667, 6.733333 ] ] } },
{ "type": "Feature", "properties": { "idx": 834, "idx_ds": 867, "pit": false, "strord": 3 }, "geometry": { "type": "LineString", "coordinates": [ [ 36.066667, 6.833333 ], [ 36.066667, 6.733333 ] ] } },
{ "type": "Feature", "properties": { "idx": 1002, "idx_ds": 969, "pit": false, "strord": 1 }, "geometry": { "type": "LineString", "coordinates": [ [ 36.366667, 6.333333 ], [ 36.366667, 6.433333 ] ] } },
{ "type": "Feature", "properties": { "idx": 970, "idx_ds": 969, "pit": false, "strord": 1 }, "geometry": { "type": "LineString", "coordinates": [ [ 36.466667, 6.433333 ], [ 36.366667, 6.433333 ] ] } },
{ "type": "Feature", "properties": { "idx": 937, "idx_ds": 969, "pit": false, "strord": 4 }, "geometry": { "type": "LineString", "coordinates": [ [ 36.466667, 6.533333 ], [ 36.366667, 6.433333 ] ] } },
{ "type": "Feature", "properties": { "idx": 867, "idx_ds": 900, "pit": false, "strord": 3 }, "geometry": { "type": "LineString", "coordinates": [ [ 36.066667, 6.733333 ], [ 36.066667, 6.633333 ] ] } },
{ "type": "Feature", "properties": { "idx": 969, "idx_ds": 968, "pit": false, "strord": 4 }, "geometry": { "type": "LineString", "coordinates": [ [ 36.366667, 6.433333 ], [ 36.266667, 6.433333 ] ] } },
{ "type": "Feature", "properties": { "idx": 935, "idx_ds": 968, "pit": false, "strord": 1 }, "geometry": { "type": "LineString", "coordinates": [ [ 36.266667, 6.533333 ], [ 36.266667, 6.433333 ] ] } },
{ "type": "Feature", "properties": { "idx": 902, "idx_ds": 934, "pit": false, "strord": 1 }, "geometry": { "type": "LineString", "coordinates": [ [ 36.266667, 6.633333 ], [ 36.166667, 6.533333 ] ] } },
{ "type": "Feature", "properties": { "idx": 900, "idx_ds": 934, "pit": false, "strord": 3 }, "geometry": { "type": "LineString", "coordinates": [ [ 36.066667, 6.633333 ], [ 36.166667, 6.533333 ] ] } },
{ "type": "Feature", "properties": { "idx": 968, "idx_ds": 1031, "pit": false, "strord": 4 }, "geometry": { "type": "LineString", "coordinates": [ [ 36.266667, 6.433333 ], [ 36.166667, 6.433333 ], [ 36.066667, 6.333333 ], [ 35.966667, 6.233333 ] ] } },
{ "type": "Feature", "properties": { "idx": 965, "idx_ds": 966, "pit": false, "strord": 1 }, "geometry": { "type": "LineString", "coordinates": [ [ 35.966667, 6.433333 ], [ 36.066667, 6.433333 ] ] } },
{ "type": "Feature", "properties": { "idx": 934, "idx_ds": 966, "pit": false, "strord": 3 }, "geometry": { "type": "LineString", "coordinates": [ [ 36.166667, 6.533333 ], [ 36.066667, 6.433333 ] ] } },
{ "type": "Feature", "properties": { "idx": 1027, "idx_ds": 996, "pit": false, "strord": 1 }, "geometry": { "type": "LineString", "coordinates": [ [ 35.566667, 6.233333 ], [ 35.666667, 6.333333 ], [ 35.766667, 6.333333 ] ] } },
{ "type": "Feature", "properties": { "idx": 1000, "idx_ds": 1065, "pit": false, "strord": 1 }, "geometry": { "type": "LineString", "coordinates": [ [ 36.166667, 6.333333 ], [ 36.166667, 6.233333 ], [ 36.066667, 6.133333 ] ] } },
{ "type": "Feature", "properties": { "idx": 966, "idx_ds": 1031, "pit": false, "strord": 3 }, "geometry": { "type": "LineString", "coordinates": [ [ 36.066667, 6.433333 ], [ 35.966667, 6.333333 ], [ 35.966667, 6.233333 ] ] } },
{ "type": "Feature", "properties": { "idx": 1028, "idx_ds": 996, "pit": false, "strord": 1 }, "geometry": { "type": "LineString", "coordinates": [ [ 35.666667, 6.233333 ], [ 35.766667, 6.333333 ] ] } },
{ "type": "Feature", "properties": { "idx": 963, "idx_ds": 996, "pit": false, "strord": 1 }, "geometry": { "type": "LineString", "coordinates": [ [ 35.766667, 6.433333 ], [ 35.766667, 6.333333 ] ] } },
{ "type": "Feature", "properties": { "idx": 1093, "idx_ds": 1094, "pit": false, "strord": 1 }, "geometry": { "type": "LineString", "coordinates": [ [ 35.566667, 6.033333 ], [ 35.666667, 6.033333 ] ] } },
{ "type": "Feature", "properties": { "idx": 1061, "idx_ds": 1094, "pit": false, "strord": 1 }, "geometry": { "type": "LineString", "coordinates": [ [ 35.666667, 6.133333 ], [ 35.666667, 6.033333 ] ] } },
{ "type": "Feature", "properties": { "idx": 1067, "idx_ds": 1097, "pit": false, "strord": 1 }, "geometry": { "type": "LineString", "coordinates": [ [ 36.266667, 6.133333 ], [ 36.166667, 6.033333 ], [ 36.066667, 6.033333 ], [ 35.966667, 6.033333 ] ] } },
{ "type": "Feature", "properties": { "idx": 1066, "idx_ds": 1065, "pit": false, "strord": 1 }, "geometry": { "type": "LineString", "coordinates": [ [ 36.166667, 6.133333 ], [ 36.066667, 6.133333 ] ] } },
{ "type": "Feature", "properties": { "idx": 1032, "idx_ds": 1065, "pit": false, "strord": 1 }, "geometry": { "type": "LineString", "coordinates": [ [ 36.066667, 6.233333 ], [ 36.066667, 6.133333 ] ] } },
{ "type": "Feature", "properties": { "idx": 1062, "idx_ds": 1063, "pit": false, "strord": 1 }, "geometry": { "type": "LineString", "coordinates": [ [ 35.766667, 6.133333 ], [ 35.866667, 6.133333 ] ] } },
{ "type": "Feature", "properties": { "idx": 1029, "idx_ds": 1063, "pit": false, "strord": 1 }, "geometry": { "type": "LineString", "coordinates": [ [ 35.766667, 6.233333 ], [ 35.866667, 6.133333 ] ] } },
{ "type": "Feature", "properties": { "idx": 997, "idx_ds": 1030, "pit": false, "strord": 1 }, "geometry": { "type": "LineString", "coordinates": [ [ 35.866667, 6.333333 ], [ 35.866667, 6.233333 ] ] } },
{ "type": "Feature", "properties": { "idx": 996, "idx_ds": 1030, "pit": false, "strord": 2 }, "geometry": { "type": "LineString", "coordinates": [ [ 35.766667, 6.333333 ], [ 35.866667, 6.233333 ] ] } },
{ "type": "Feature", "properties": { "idx": 1193, "idx_ds": 1160, "pit": false, "strord": 1 }, "geometry": { "type": "LineString", "coordinates": [ [ 35.666667, 5.733333 ], [ 35.666667, 5.833333 ] ] } },
{ "type": "Feature", "properties": { "idx": 1126, "idx_ds": 1160, "pit": false, "strord": 1 }, "geometry": { "type": "LineString", "coordinates": [ [ 35.566667, 5.933333 ], [ 35.666667, 5.833333 ] ] } },
{ "type": "Feature", "properties": { "idx": 1094, "idx_ds": 1161, "pit": false, "strord": 2 }, "geometry": { "type": "LineString", "coordinates": [ [ 35.666667, 6.033333 ], [ 35.666667, 5.933333 ], [ 35.766667, 5.833333 ] ] } },
{ "type": "Feature", "properties": { "idx": 1096, "idx_ds": 1064, "pit": false, "strord": 1 }, "geometry": { "type": "LineString", "coordinates": [ [ 35.866667, 6.033333 ], [ 35.966667, 6.133333 ] ] } },
{ "type": "Feature", "properties": { "idx": 1065, "idx_ds": 1064, "pit": false, "strord": 2 }, "geometry": { "type": "LineString", "coordinates": [ [ 36.066667, 6.133333 ], [ 35.966667, 6.133333 ] ] } },
{ "type": "Feature", "properties": { "idx": 1063, "idx_ds": 1064, "pit": false, "strord": 2 }, "geometry": { "type": "LineString", "coordinates": [ [ 35.866667, 6.133333 ], [ 35.966667, 6.133333 ] ] } },
{ "type": "Feature", "properties": { "idx": 1031, "idx_ds": 1064, "pit": false, "strord": 4 }, "geometry": { "type": "LineString", "coordinates": [ [ 35.966667, 6.233333 ], [ 35.966667, 6.133333 ] ] } },
{ "type": "Feature", "properties": { "idx": 1030, "idx_ds": 1064, "pit": false, "strord": 2 }, "geometry": { "type": "LineString", "coordinates": [ [ 35.866667, 6.233333 ], [ 35.966667, 6.133333 ] ] } },
{ "type": "Feature", "properties": { "idx": 1160, "idx_ds": 1161, "pit": false, "strord": 2 }, "geometry": { "type": "LineString", "coordinates": [ [ 35.666667, 5.833333 ], [ 35.766667, 5.833333 ] ] } },
{ "type": "Feature", "properties": { "idx": 1132, "idx_ds": 1130, "pit": false, "strord": 1 }, "geometry": { "type": "LineString", "coordinates": [ [ 36.166667, 5.933333 ], [ 36.066667, 5.933333 ], [ 35.966667, 5.933333 ] ] } },
{ "type": "Feature", "properties": { "idx": 1064, "idx_ds": 1097, "pit": false, "strord": 4 }, "geometry": { "type": "LineString", "coordinates": [ [ 35.966667, 6.133333 ], [ 35.966667, 6.033333 ] ] } },
{ "type": "Feature", "properties": { "idx": 972, "idx_ds": 1036, "pit": false, "strord": 1 }, "geometry": { "type": "LineString", "coordinates": [ [ 36.666667, 6.433333 ], [ 36.566667, 6.333333 ], [ 36.466667, 6.333333 ], [ 36.466667, 6.233333 ] ] } },
{ "type": "Feature", "properties": { "idx": 1161, "idx_ds": 1163, "pit": false, "strord": 3 }, "geometry": { "type": "LineString", "coordinates": [ [ 35.766667, 5.833333 ], [ 35.866667, 5.833333 ], [ 35.966667, 5.833333 ] ] } },
{ "type": "Feature", "properties": { "idx": 1097, "idx_ds": 1130, "pit": false, "strord": 4 }, "geometry": { "type": "LineString", "coordinates": [ [ 35.966667, 6.033333 ], [ 35.966667, 5.933333 ] ] } },
{ "type": "Feature", "properties": { "idx": 1128, "idx_ds": 1163, "pit": false, "strord": 1 }, "geometry": { "type": "LineString", "coordinates": [ [ 35.766667, 5.933333 ], [ 35.866667, 5.933333 ], [ 35.966667, 5.833333 ] ] } },
{ "type": "Feature", "properties": { "idx": 1103, "idx_ds": 1036, "pit": false, "strord": 1 }, "geometry": { "type": "LineString", "coordinates": [ [ 36.566667, 6.033333 ], [ 36.566667, 6.133333 ], [ 36.466667, 6.233333 ] ] } },
{ "type": "Feature", "properties": { "idx": 1164, "idx_ds": 1163, "pit": false, "strord": 1 }, "geometry": { "type": "LineString", "coordinates": [ [ 36.066667, 5.833333 ], [ 35.966667, 5.833333 ] ] } },
{ "type": "Feature", "properties": { "idx": 1130, "idx_ds": 1163, "pit": false, "strord": 4 }, "geometry": { "type": "LineString", "coordinates": [ [ 35.966667, 5.933333 ], [ 35.966667, 5.833333 ] ] } },
{ "type": "Feature", "properties": { "idx": 1037, "idx_ds": 1036, "pit": false, "strord": 1 }, "geometry": { "type": "LineString", "coordinates": [ [ 36.566667, 6.233333 ], [ 36.466667, 6.233333 ] ] } },
{ "type": "Feature", "properties": { "idx": 1035, "idx_ds": 1036, "pit": false, "strord": 1 }, "geometry": { "type": "LineString", "coordinates": [ [ 36.366667, 6.233333 ], [ 36.466667, 6.233333 ] ] } },
{ "type": "Feature", "properties": { "idx": 1226, "idx_ds": 1228, "pit": false, "strord": 1 }, "geometry": { "type": "LineString", "coordinates": [ [ 35.666667, 5.633333 ], [ 35.766667, 5.733333 ], [ 35.866667, 5.633333 ] ] } },
{ "type": "Feature", "properties": { "idx": 1163, "idx_ds": 1295, "pit": false, "strord": 4 }, "geometry": { "type": "LineString", "coordinates": [ [ 35.966667, 5.833333 ], [ 35.966667, 5.733333 ], [ 35.966667, 5.633333 ], [ 35.966667, 5.533333 ], [ 35.866667, 5.533333 ], [ 35.966667, 5.433333 ] ] } },
{ "type": "Feature", "properties": { "idx": 1036, "idx_ds": 1101, "pit": false, "strord": 2 }, "geometry": { "type": "LineString", "coordinates": [ [ 36.466667, 6.233333 ], [ 36.366667, 6.133333 ], [ 36.366667, 6.033333 ] ] } },
{ "type": "Feature", "properties": { "idx": 1227, "idx_ds": 1228, "pit": false, "strord": 1 }, "geometry": { "type": "LineString", "coordinates": [ [ 35.766667, 5.633333 ], [ 35.866667, 5.633333 ] ] } },
{ "type": "Feature", "properties": { "idx": 1195, "idx_ds": 1228, "pit": false, "strord": 1 }, "geometry": { "type": "LineString", "coordinates": [ [ 35.866667, 5.733333 ], [ 35.866667, 5.633333 ] ] } },
{ "type": "Feature", "properties": { "idx": 1060, "idx_ds": 1192, "pit": false, "strord": 1 }, "geometry": { "type": "LineString", "coordinates": [ [ 35.566667, 6.133333 ], [ 35.466667, 6.133333 ], [ 35.466667, 6.033333 ], [ 35.466667, 5.933333 ], [ 35.466667, 5.833333 ], [ 35.566667, 5.733333 ] ] } },
{ "type": "Feature", "properties": { "idx": 1136, "idx_ds": 1168, "pit": false, "strord": 1 }, "geometry": { "type": "LineString", "coordinates": [ [ 36.566667, 5.933333 ], [ 36.466667, 5.833333 ] ] } },
{ "type": "Feature", "properties": { "idx": 1135, "idx_ds": 1168, "pit": false, "strord": 1 }, "geometry": { "type": "LineString", "coordinates": [ [ 36.466667, 5.933333 ], [ 36.466667, 5.833333 ] ] } },
{ "type": "Feature", "properties": { "idx": 1197, "idx_ds": 1133, "pit": false, "strord": 1 }, "geometry": { "type": "LineString", "coordinates": [ [ 36.066667, 5.733333 ], [ 36.166667, 5.733333 ], [ 36.166667, 5.833333 ], [ 36.266667, 5.933333 ] ] } },
{ "type": "Feature", "properties": { "idx": 1069, "idx_ds": 1101, "pit": false, "strord": 1 }, "geometry": { "type": "LineString", "coordinates": [ [ 36.466667, 6.133333 ], [ 36.366667, 6.033333 ] ] } },
{ "type": "Feature", "properties": { "idx": 1293, "idx_ds": 1260, "pit": false, "strord": 1 }, "geometry": { "type": "LineString", "coordinates": [ [ 35.766667, 5.433333 ], [ 35.766667, 5.533333 ] ] } },
{ "type": "Feature", "properties": { "idx": 1228, "idx_ds": 1260, "pit": false, "strord": 2 }, "geometry": { "type": "LineString", "coordinates": [ [ 35.866667, 5.633333 ], [ 35.766667, 5.533333 ] ] } },
{ "type": "Feature", "properties": { "idx": 1169, "idx_ds": 1232, "pit": false, "strord": 1 }, "geometry": { "type": "LineString", "coordinates": [ [ 36.566667, 5.833333 ], [ 36.566667, 5.733333 ], [ 36.466667, 5.733333 ], [ 36.466667, 5.633333 ], [ 36.366667, 5.733333 ], [ 36.266667, 5.633333 ] ] } },
{ "type": "Feature", "properties": { "idx": 1168, "idx_ds": 1134, "pit": false, "strord": 2 }, "geometry": { "type": "LineString", "coordinates": [ [ 36.466667, 5.833333 ], [ 36.366667, 5.833333 ], [ 36.366667, 5.933333 ] ] } },
{ "type": "Feature", "properties": { "idx": 1101, "idx_ds": 1133, "pit": false, "strord": 2 }, "geometry": { "type": "LineString", "coordinates": [ [ 36.366667, 6.033333 ], [ 36.266667, 6.033333 ], [ 36.266667, 5.933333 ] ] } },
{ "type": "Feature", "properties": { "idx": 1260, "idx_ds": 1295, "pit": false, "strord": 2 }, "geometry": { "type": "LineString", "coordinates": [ [ 35.766667, 5.533333 ], [ 35.866667, 5.433333 ], [ 35.966667, 5.433333 ] ] } },
{ "type": "Feature", "properties": { "idx": 1091, "idx_ds": 1191, "pit": false, "strord": 1 }, "geometry": { "type": "LineString", "coordinates": [ [ 35.366667, 6.033333 ], [ 35.366667, 5.933333 ], [ 35.366667, 5.833333 ], [ 35.466667, 5.733333 ] ] } },
{ "type": "Feature", "properties": { "idx": 1203, "idx_ds": 1268, "pit": false, "strord": 1 }, "geometry": { "type": "LineString", "coordinates": [ [ 36.666667, 5.733333 ], [ 36.666667, 5.633333 ], [ 36.566667, 5.633333 ], [ 36.566667, 5.533333 ] ] } },
{ "type": "Feature", "properties": { "idx": 1102, "idx_ds": 1134, "pit": false, "strord": 1 }, "geometry": { "type": "LineString", "coordinates": [ [ 36.466667, 6.033333 ], [ 36.366667, 5.933333 ] ] } },
{ "type": "Feature", "properties": { "idx": 1320, "idx_ds": 1453, "pit": false, "strord": 1 }, "geometry": { "type": "LineString", "coordinates": [ [ 35.166667, 5.333333 ], [ 35.166667, 5.233333 ], [ 35.166667, 5.133333 ], [ 35.166667, 5.033333 ], [ 35.166667, 4.933333 ], [ 35.266667, 4.933333 ] ] } },
{ "type": "Feature", "properties": { "idx": 1134, "idx_ds": 1166, "pit": false, "strord": 2 }, "geometry": { "type": "LineString", "coordinates": [ [ 36.366667, 5.933333 ], [ 36.266667, 5.833333 ] ] } },
{ "type": "Feature", "properties": { "idx": 1133, "idx_ds": 1166, "pit": false, "strord": 2 }, "geometry": { "type": "LineString", "coordinates": [ [ 36.266667, 5.933333 ], [ 36.266667, 5.833333 ] ] } },
{ "type": "Feature", "properties": { "idx": 1295, "idx_ds": 1264, "pit": false, "strord": 4 }, "geometry": { "type": "LineString", "coordinates": [ [ 35.966667, 5.433333 ], [ 35.966667, 5.333333 ], [ 36.066667, 5.333333 ], [ 36.166667, 5.433333 ], [ 36.166667, 5.533333 ] ] } },
{ "type": "Feature", "properties": { "idx": 1159, "idx_ds": 1192, "pit": false, "strord": 1 }, "geometry": { "type": "LineString", "coordinates": [ [ 35.566667, 5.833333 ], [ 35.566667, 5.733333 ] ] } },
{ "type": "Feature", "properties": { "idx": 1223, "idx_ds": 1191, "pit": false, "strord": 1 }, "geometry": { "type": "LineString", "coordinates": [ [ 35.366667, 5.633333 ], [ 35.466667, 5.733333 ] ] } },
{ "type": "Feature", "properties": { "idx": 1190, "idx_ds": 1191, "pit": false, "strord": 1 }, "geometry": { "type": "LineString", "coordinates": [ [ 35.366667, 5.733333 ], [ 35.466667, 5.733333 ] ] } },
{ "type": "Feature", "properties": { "idx": 1302, "idx_ds": 1267, "pit": false, "strord": 1 }, "geometry": { "type": "LineString", "coordinates": [ [ 36.666667, 5.433333 ], [ 36.566667, 5.433333 ], [ 36.466667, 5.533333 ] ] } },
{ "type": "Feature", "properties": { "idx": 1269, "idx_ds": 1268, "pit": false, "strord": 1 }, "geometry": { "type": "LineString", "coordinates": [ [ 36.666667, 5.533333 ], [ 36.566667, 5.533333 ] ] } },
{ "type": "Feature", "properties": { "idx": 1166, "idx_ds": 1232, "pit": false, "strord": 3 }, "geometry": { "type": "LineString", "coordinates": [ [ 36.266667, 5.833333 ], [ 36.266667, 5.733333 ], [ 36.266667, 5.633333 ] ] } },
{ "type": "Feature", "properties": { "idx": 1289, "idx_ds": 1291, "pit": false, "strord": 1 }, "geometry": { "type": "LineString", "coordinates": [ [ 35.366667, 5.433333 ], [ 35.366667, 5.333333 ], [ 35.466667, 5.433333 ], [ 35.566667, 5.433333 ] ] } },
{ "type": "Feature", "properties": { "idx": 1224, "idx_ds": 1225, "pit": false, "strord": 1 }, "geometry": { "type": "LineString", "coordinates": [ [ 35.466667, 5.633333 ], [ 35.566667, 5.633333 ] ] } },
{ "type": "Feature", "properties": { "idx": 1192, "idx_ds": 1225, "pit": false, "strord": 2 }, "geometry": { "type": "LineString", "coordinates": [ [ 35.566667, 5.733333 ], [ 35.566667, 5.633333 ] ] } },
{ "type": "Feature", "properties": { "idx": 1191, "idx_ds": 1225, "pit": false, "strord": 2 }, "geometry": { "type": "LineString", "coordinates": [ [ 35.466667, 5.733333 ], [ 35.566667, 5.633333 ] ] } },
{ "type": "Feature", "properties": { "idx": 1268, "idx_ds": 1267, "pit": false, "strord": 2 }, "geometry": { "type": "LineString", "coordinates": [ [ 36.566667, 5.533333 ], [ 36.466667, 5.533333 ] ] } },
{ "type": "Feature", "properties": { "idx": 1296, "idx_ds": 1264, "pit": false, "strord": 1 }, "geometry": { "type": "LineString", "coordinates": [ [ 36.066667, 5.433333 ], [ 36.066667, 5.533333 ], [ 36.166667, 5.533333 ] ] } },
{ "type": "Feature", "properties": { "idx": 1259, "idx_ds": 1258, "pit": false, "strord": 1 }, "geometry": { "type": "LineString", "coordinates": [ [ 35.666667, 5.533333 ], [ 35.566667, 5.533333 ] ] } },
{ "type": "Feature", "properties": { "idx": 1225, "idx_ds": 1258, "pit": false, "strord": 3 }, "geometry": { "type": "LineString", "coordinates": [ [ 35.566667, 5.633333 ], [ 35.566667, 5.533333 ] ] } },
{ "type": "Feature", "properties": { "idx": 1256, "idx_ds": 1291, "pit": false, "strord": 1 }, "geometry": { "type": "LineString", "coordinates": [ [ 35.366667, 5.533333 ], [ 35.466667, 5.533333 ], [ 35.566667, 5.433333 ] ] } },
{ "type": "Feature", "properties": { "idx": 1321, "idx_ds": 1421, "pit": false, "strord": 1 }, "geometry": { "type": "LineString", "coordinates": [ [ 35.266667, 5.333333 ], [ 35.266667, 5.233333 ], [ 35.266667, 5.133333 ], [ 35.366667, 5.033333 ] ] } },
{ "type": "Feature", "properties": { "idx": 1300, "idx_ds": 1298, "pit": false, "strord": 1 }, "geometry": { "type": "LineString", "coordinates": [ [ 36.466667, 5.433333 ], [ 36.366667, 5.433333 ], [ 36.266667, 5.433333 ] ] } },
{ "type": "Feature", "properties": { "idx": 1267, "idx_ds": 1298, "pit": false, "strord": 2 }, "geometry": { "type": "LineString", "coordinates": [ [ 36.466667, 5.533333 ], [ 36.366667, 5.533333 ], [ 36.266667, 5.433333 ] ] } },
{ "type": "Feature", "properties": { "idx": 1233, "idx_ds": 1265, "pit": false, "strord": 1 }, "geometry": { "type": "LineString", "coordinates": [ [ 36.366667, 5.633333 ], [ 36.266667, 5.533333 ] ] } },
{ "type": "Feature", "properties": { "idx": 1232, "idx_ds": 1265, "pit": false, "strord": 3 }, "geometry": { "type": "LineString", "coordinates": [ [ 36.266667, 5.633333 ], [ 36.266667, 5.533333 ] ] } },
{ "type": "Feature", "properties": { "idx": 1258, "idx_ds": 1291, "pit": false, "strord": 3 }, "geometry": { "type": "LineString", "coordinates": [ [ 35.566667, 5.533333 ], [ 35.566667, 5.433333 ] ] } },
{ "type": "Feature", "properties": { "idx": 1486, "idx_ds": 1453, "pit": false, "strord": 1 }, "geometry": { "type": "LineString", "coordinates": [ [ 35.266667, 4.833333 ], [ 35.266667, 4.933333 ] ] } },
{ "type": "Feature", "properties": { "idx": 1485, "idx_ds": 1453, "pit": false, "strord": 1 }, "geometry": { "type": "LineString", "coordinates": [ [ 35.166667, 4.833333 ], [ 35.266667, 4.933333 ] ] } },
{ "type": "Feature", "properties": { "idx": 1420, "idx_ds": 1453, "pit": false, "strord": 1 }, "geometry": { "type": "LineString", "coordinates": [ [ 35.266667, 5.033333 ], [ 35.266667, 4.933333 ] ] } },
{ "type": "Feature", "properties": { "idx": 1323, "idx_ds": 1422, "pit": false, "strord": 1 }, "geometry": { "type": "LineString", "coordinates": [ [ 35.466667, 5.333333 ], [ 35.466667, 5.233333 ], [ 35.466667, 5.133333 ], [ 35.466667, 5.033333 ] ] } },
{ "type": "Feature", "properties": { "idx": 1366, "idx_ds": 1332, "pit": false, "strord": 1 }, "geometry": { "type": "LineString", "coordinates": [ [ 36.466667, 5.233333 ], [ 36.366667, 5.333333 ] ] } },
{ "type": "Feature", "properties": { "idx": 1333, "idx_ds": 1332, "pit": false, "strord": 1 }, "geometry": { "type": "LineString", "coordinates": [ [ 36.466667, 5.333333 ], [ 36.366667, 5.333333 ] ] } },
{ "type": "Feature", "properties": { "idx": 1265, "idx_ds": 1298, "pit": false, "strord": 3 }, "geometry": { "type": "LineString", "coordinates": [ [ 36.266667, 5.533333 ], [ 36.266667, 5.433333 ] ] } },
{ "type": "Feature", "properties": { "idx": 1264, "idx_ds": 1298, "pit": false, "strord": 4 }, "geometry": { "type": "LineString", "coordinates": [ [ 36.166667, 5.533333 ], [ 36.266667, 5.433333 ] ] } },
{ "type": "Feature", "properties": { "idx": 1291, "idx_ds": 1393, "pit": false, "strord": 3 }, "geometry": { "type": "LineString", "coordinates": [ [ 35.566667, 5.433333 ], [ 35.666667, 5.433333 ], [ 35.766667, 5.333333 ], [ 35.866667, 5.333333 ], [ 35.866667, 5.233333 ], [ 35.866667, 5.133333 ] ] } },
{ "type": "Feature", "properties": { "idx": 1453, "idx_ds": 1421, "pit": false, "strord": 2 }, "geometry": { "type": "LineString", "coordinates": [ [ 35.266667, 4.933333 ], [ 35.366667, 5.033333 ] ] } },
{ "type": "Feature", "properties": { "idx": 1355, "idx_ds": 1422, "pit": false, "strord": 1 }, "geometry": { "type": "LineString", "coordinates": [ [ 35.366667, 5.233333 ], [ 35.366667, 5.133333 ], [ 35.466667, 5.033333 ] ] } },
{ "type": "Feature", "properties": { "idx": 1332, "idx_ds": 1363, "pit": false, "strord": 2 }, "geometry": { "type": "LineString", "coordinates": [ [ 36.366667, 5.333333 ], [ 36.266667, 5.233333 ], [ 36.166667, 5.233333 ] ] } },
{ "type": "Feature", "properties": { "idx": 1331, "idx_ds": 1330, "pit": false, "strord": 1 }, "geometry": { "type": "LineString", "coordinates": [ [ 36.266667, 5.333333 ], [ 36.166667, 5.333333 ] ] } },
{ "type": "Feature", "properties": { "idx": 1298, "idx_ds": 1330, "pit": false, "strord": 4 }, "geometry": { "type": "LineString", "coordinates": [ [ 36.266667, 5.433333 ], [ 36.166667, 5.333333 ] ] } },
{ "type": "Feature", "properties": { "idx": 1454, "idx_ds": 1422, "pit": false, "strord": 1 }, "geometry": { "type": "LineString", "coordinates": [ [ 35.366667, 4.933333 ], [ 35.466667, 5.033333 ] ] } },
{ "type": "Feature", "properties": { "idx": 1421, "idx_ds": 1422, "pit": false, "strord": 2 }, "geometry": { "type": "LineString", "coordinates": [ [ 35.366667, 5.033333 ], [ 35.466667, 5.033333 ] ] } },
{ "type": "Feature", "properties": { "idx": 1398, "idx_ds": 1396, "pit": false, "strord": 1 }, "geometry": { "type": "LineString", "coordinates": [ [ 36.366667, 5.133333 ], [ 36.266667, 5.133333 ], [ 36.166667, 5.133333 ] ] } },
{ "type": "Feature", "properties": { "idx": 1330, "idx_ds": 1363, "pit": false, "strord": 4 }, "geometry": { "type": "LineString", "coordinates": [ [ 36.166667, 5.333333 ], [ 36.166667, 5.233333 ] ] } },
{ "type": "Feature", "properties": { "idx": 1325, "idx_ds": 1393, "pit": false, "strord": 1 }, "geometry": { "type": "LineString", "coordinates": [ [ 35.666667, 5.333333 ], [ 35.666667, 5.233333 ], [ 35.766667, 5.233333 ], [ 35.866667, 5.133333 ] ] } },
{ "type": "Feature", "properties": { "idx": 1455, "idx_ds": 1423, "pit": false, "strord": 1 }, "geometry": { "type": "LineString", "coordinates": [ [ 35.466667, 4.933333 ], [ 35.566667, 5.033333 ] ] } },
{ "type": "Feature", "properties": { "idx": 1422, "idx_ds": 1423, "pit": false, "strord": 2 }, "geometry": { "type": "LineString", "coordinates": [ [ 35.466667, 5.033333 ], [ 35.566667, 5.033333 ] ] } },
{ "type": "Feature", "properties": { "idx": 1357, "idx_ds": 1391, "pit": false, "strord": 1 }, "geometry": { "type": "LineString", "coordinates": [ [ 35.566667, 5.233333 ], [ 35.566667, 5.133333 ], [ 35.666667, 5.133333 ] ] } },
{ "type": "Feature", "properties": { "idx": 1363, "idx_ds": 1396, "pit": false, "strord": 4 }, "geometry": { "type": "LineString", "coordinates": [ [ 36.166667, 5.233333 ], [ 36.166667, 5.133333 ] ] } },
{ "type": "Feature", "properties": { "idx": 1423, "idx_ds": 1391, "pit": false, "strord": 2 }, "geometry": { "type": "LineString", "coordinates": [ [ 35.566667, 5.033333 ], [ 35.666667, 5.133333 ] ] } },
{ "type": "Feature", "properties": { "idx": 1396, "idx_ds": 1395, "pit": false, "strord": 4 }, "geometry": { "type": "LineString", "coordinates": [ [ 36.166667, 5.133333 ], [ 36.066667, 5.133333 ] ] } },
{ "type": "Feature", "properties": { "idx": 1362, "idx_ds": 1395, "pit": false, "strord": 1 }, "geometry": { "type": "LineString", "coordinates": [ [ 36.066667, 5.233333 ], [ 36.066667, 5.133333 ] ] } },
{ "type": "Feature", "properties": { "idx": 1394, "idx_ds": 1426, "pit": false, "strord": 1 }, "geometry": { "type": "LineString", "coordinates": [ [ 35.966667, 5.133333 ], [ 35.966667, 5.033333 ], [ 35.866667, 5.033333 ] ] } },
{ "type": "Feature", "properties": { "idx": 1361, "idx_ds": 1393, "pit": false, "strord": 1 }, "geometry": { "type": "LineString", "coordinates": [ [ 35.966667, 5.233333 ], [ 35.866667, 5.133333 ] ] } },
{ "type": "Feature", "properties": { "idx": 1391, "idx_ds": 1425, "pit": false, "strord": 2 }, "geometry": { "type": "LineString", "coordinates": [ [ 35.666667, 5.133333 ], [ 35.766667, 5.133333 ], [ 35.766667, 5.033333 ] ] } },
{ "type": "Feature", "properties": { "idx": 1425, "idx_ds": 1425, "pit": true, "strord": 2 }, "geometry": { "type": "LineString", "coordinates": [ ] } },
{ "type": "Feature", "properties": { "idx": 1395, "idx_ds": 1428, "pit": false, "strord": 4 }, "geometry": { "type": "LineString", "coordinates": [ [ 36.066667, 5.133333 ], [ 36.066667, 5.033333 ] ] } },
{ "type": "Feature", "properties": { "idx": 1428, "idx_ds": 1428, "pit": true, "strord": 4 }, "geometry": { "type": "LineString", "coordinates": [ ] } },
{ "type": "Feature", "properties": { "idx": 1393, "idx_ds": 1426, "pit": false, "strord": 3 }, "geometry": { "type": "LineString", "coordinates": [ [ 35.866667, 5.133333 ], [ 35.866667, 5.033333 ] ] } },
{ "type": "Feature", "properties": { "idx": 1459, "idx_ds": 1459, "pit": true, "strord": 1 }, "geometry": { "type": "LineString", "coordinates": [ ] } },
{ "type": "Feature", "properties": { "idx": 1426, "idx_ds": 1426, "pit": true, "strord": 3 }, "geometry": { "type": "LineString", "coordinates": [ ] } }
]
}
