{"type":"FeatureCollection","features":[{"type":"Feature","properties":{},"geometry":{"coordinates":[[[35.831136388851945,5.252354048493572],[35.82648198011691,5.252354048493572],[35.824620216623146,5.2467921849049475],[35.853477550779616,5.214810508695493],[35.86604445436461,5.182827203117384],[35.860459163882155,5.162894758177487],[35.84975402379206,5.140180278189874],[35.818104044394346,5.104484460047345],[35.817173162646895,4.982547482413381],[35.98007746837055,4.984402208057503],[35.99916054418432,5.065077679071749],[36.00195318942559,5.217591588841302],[35.93958411237651,5.257452379851273],[35.831136388851945,5.252354048493572]]],"type":"Polygon"}}]}