{"type":"FeatureCollection","features":[{"type":"Feature","properties":{},"geometry":{"coordinates":[[[35.955916144986844,5.325448830555658],[35.950508450267165,5.269027597112768],[36.08170382650084,5.265047481964885],[36.15999784134999,5.306252142927235],[36.17269416808176,5.380928561933786],[36.135545656531605,5.384439767629118],[36.10639112848,5.368288053704589],[36.107566714288026,5.375076507407016],[36.10145366808396,5.380460399642473],[36.097691793497006,5.3769491709779516],[36.08946269283658,5.3736720059505245],[36.09063827864563,5.363138141853838],[36.083349646632456,5.36641536351658],[36.0770014832666,5.364074492696034],[36.06430515653372,5.36056316962943],[36.063834922211214,5.352135911910281],[36.06007304762315,5.349794986371805],[36.05466535290455,5.364308580182367],[36.041498791848056,5.361265435858982],[36.04243926049537,5.3673517093299665],[36.05113859547839,5.377183253519306],[36.044320197788835,5.384439767629118],[36.02645129349918,5.38701463891735],[36.0198680129715,5.379524073979056],[36.03068340240981,5.3741401734629335],[36.024335239043864,5.369224396642366],[36.01116867798848,5.359626813400354],[35.99282953937521,5.368288053704589],[35.99071348491992,5.354945010727661],[35.99541582815411,5.342069868570007],[35.9947104766687,5.334110554422992],[35.97378504927647,5.339494807652315],[35.96508571429348,5.325682932806643],[35.955916144986844,5.325448830555658]]],"type":"Polygon"}}]}