{"type":"FeatureCollection","features":[{"type":"Feature","properties":{},"geometry":{"coordinates":[[[35.549933573742976,5.539560636613345],[35.56174941378086,5.413487740239617],[35.58095015384052,5.4186340915687055],[35.598304668895224,5.399151244966717],[35.61750540895662,5.400989276147513],[35.61935163396336,5.381873479723723],[35.65258368406728,5.392166675671646],[35.66809197411695,5.387387713524632],[35.69172365419101,5.390328617758357],[35.714986089265466,5.39326950774786],[35.716832314270505,5.40135688171496],[35.69504685920316,5.423045214953547],[35.68729271417831,5.4436300307177135],[35.67953856915352,5.478181528655114],[35.688769694181985,5.500969721706113],[35.71535533426686,5.527064805962723],[35.70464722923293,5.574474054700474],[35.594612218885146,5.579619014769008],[35.549933573742976,5.539560636613345]]],"type":"Polygon"}}]}