{"type":"FeatureCollection","features":[{"type":"Feature","properties":{},"geometry":{"coordinates":[[[36.116858647273006,5.175205522970131],[36.11452345478622,5.180415009340123],[36.08248461384747,5.187205882446989],[36.0635229414261,5.183345334635533],[36.06039378349172,5.1705076538755605],[36.07043511119102,5.157948801267722],[36.07370438067517,5.159111668438257],[36.070341703492346,5.1645073442226845],[36.06618506086349,5.169484349272125],[36.06501746461933,5.174740396252403],[36.06604494931369,5.178507978283363],[36.070388407341625,5.180135938882103],[36.07519890386837,5.178461465062213],[36.07767420790492,5.172926367270904],[36.08150392358655,5.1705076538755605],[36.082905039079236,5.171484443090236],[36.08337207757626,5.174647369251645],[36.085286935417,5.178182385660847],[36.08836938950034,5.17971732084321],[36.0929930706279,5.178182385660847],[36.09378703607379,5.174321774641726],[36.0929930706279,5.1699029740820635],[36.09056447044068,5.165902770143347],[36.09103150893773,5.163577058569885],[36.09518815156653,5.162972372163509],[36.101493171284716,5.163763115809857],[36.10681741015776,5.1639956872825366],[36.11018008734058,5.16320494392626],[36.11321583757626,5.164460829972882],[36.11391639532175,5.167577277191555],[36.1123751682793,5.1706937090803535],[36.1123751682793,5.173624071340512],[36.11522410311585,5.175159017586168],[36.116858647273006,5.175205522970131]]],"type":"Polygon"}}]}