{
"type": "FeatureCollection",
"name": "merged_aois",
"crs": { "type": "name", "properties": { "name": "urn:ogc:def:crs:OGC:1.3:CRS84" } },
"features": [
{ "type": "Feature", "properties": { "layer": "AOI_2_Kuraz", "path": "C:/Users/ohanrah/Downloads/AOI_2_Kuraz.geojson", "AOIS": 14 }, "geometry": { "type": "Polygon", "coordinates": [ [ [ 35.831136388851945, 5.252354048493572 ], [ 35.82648198011691, 5.252354048493572 ], [ 35.824620216623146, 5.246792184904947 ], [ 35.853477550779616, 5.214810508695493 ], [ 35.866044454364612, 5.182827203117384 ], [ 35.860459163882155, 5.162894758177487 ], [ 35.849754023792059, 5.140180278189874 ], [ 35.818104044394346, 5.104484460047345 ], [ 35.817173162646895, 4.982547482413381 ], [ 35.980077468370553, 4.984402208057503 ], [ 35.999160544184321, 5.065077679071749 ], [ 36.001953189425592, 5.217591588841302 ], [ 35.939584112376508, 5.257452379851273 ], [ 35.831136388851945, 5.252354048493572 ] ] ] } },
{ "type": "Feature", "properties": { "layer": "AOI_3_Chare", "path": "C:/Users/ohanrah/Downloads/AOI_3_Chare.geojson", "AOIS": 13 }, "geometry": { "type": "Polygon", "coordinates": [ [ [ 35.955916144986844, 5.325448830555658 ], [ 35.950508450267165, 5.269027597112768 ], [ 36.081703826500842, 5.265047481964885 ], [ 36.159997841349991, 5.306252142927235 ], [ 36.172694168081762, 5.380928561933786 ], [ 36.135545656531605, 5.384439767629118 ], [ 36.106391128479999, 5.368288053704589 ], [ 36.107566714288026, 5.375076507407016 ], [ 36.101453668083963, 5.380460399642473 ], [ 36.097691793497006, 5.376949170977952 ], [ 36.089462692836577, 5.373672005950525 ], [ 36.090638278645628, 5.363138141853838 ], [ 36.083349646632456, 5.36641536351658 ], [ 36.077001483266599, 5.364074492696034 ], [ 36.06430515653372, 5.36056316962943 ], [ 36.063834922211214, 5.352135911910281 ], [ 36.060073047623149, 5.349794986371805 ], [ 36.05466535290455, 5.364308580182367 ], [ 36.041498791848056, 5.361265435858982 ], [ 36.042439260495371, 5.367351709329967 ], [ 36.051138595478392, 5.377183253519306 ], [ 36.044320197788835, 5.384439767629118 ], [ 36.026451293499179, 5.38701463891735 ], [ 36.0198680129715, 5.379524073979056 ], [ 36.030683402409807, 5.374140173462933 ], [ 36.024335239043864, 5.369224396642366 ], [ 36.011168677988479, 5.359626813400354 ], [ 35.992829539375208, 5.368288053704589 ], [ 35.990713484919922, 5.354945010727661 ], [ 35.995415828154108, 5.342069868570007 ], [ 35.9947104766687, 5.334110554422992 ], [ 35.973785049276472, 5.339494807652315 ], [ 35.96508571429348, 5.325682932806643 ], [ 35.955916144986844, 5.325448830555658 ] ] ] } },
{ "type": "Feature", "properties": { "layer": "AOI_4_Kangaten", "path": "C:/Users/ohanrah/Downloads/AOI_4_Kangaten.geojson", "AOIS": 12 }, "geometry": { "type": "Polygon", "coordinates": [ [ [ 36.116858647273006, 5.175205522970131 ], [ 36.114523454786223, 5.180415009340123 ], [ 36.08248461384747, 5.187205882446989 ], [ 36.0635229414261, 5.183345334635533 ], [ 36.060393783491719, 5.170507653875561 ], [ 36.070435111191017, 5.157948801267722 ], [ 36.073704380675167, 5.159111668438257 ], [ 36.070341703492346, 5.164507344222685 ], [ 36.066185060863489, 5.169484349272125 ], [ 36.065017464619331, 5.174740396252403 ], [ 36.066044949313692, 5.178507978283363 ], [ 36.070388407341625, 5.180135938882103 ], [ 36.075198903868369, 5.178461465062213 ], [ 36.07767420790492, 5.172926367270904 ], [ 36.081503923586553, 5.170507653875561 ], [ 36.082905039079236, 5.171484443090236 ], [ 36.083372077576257, 5.174647369251645 ], [ 36.085286935417002, 5.178182385660847 ], [ 36.088369389500343, 5.17971732084321 ], [ 36.092993070627898, 5.178182385660847 ], [ 36.093787036073792, 5.174321774641726 ], [ 36.092993070627898, 5.169902974082063 ], [ 36.090564470440682, 5.165902770143347 ], [ 36.091031508937732, 5.163577058569885 ], [ 36.095188151566532, 5.162972372163509 ], [ 36.101493171284716, 5.163763115809857 ], [ 36.10681741015776, 5.163995687282537 ], [ 36.110180087340581, 5.16320494392626 ], [ 36.113215837576263, 5.164460829972882 ], [ 36.113916395321752, 5.167577277191555 ], [ 36.1123751682793, 5.170693709080354 ], [ 36.1123751682793, 5.173624071340512 ], [ 36.11522410311585, 5.175159017586168 ], [ 36.116858647273006, 5.175205522970131 ] ] ] } },
{ "type": "Feature", "properties": { "layer": "AOI_1_Tirga", "path": "C:/Users/ohanrah/Downloads/AOI_1_Tirga.geojson", "AOIS": 11 }, "geometry": { "type": "Polygon", "coordinates": [ [ [ 35.549933573742976, 5.539560636613345 ], [ 35.561749413780859, 5.413487740239617 ], [ 35.580950153840519, 5.418634091568705 ], [ 35.598304668895224, 5.399151244966717 ], [ 35.617505408956617, 5.400989276147513 ], [ 35.619351633963362, 5.381873479723723 ], [ 35.652583684067281, 5.392166675671646 ], [ 35.668091974116948, 5.387387713524632 ], [ 35.691723654191009, 5.390328617758357 ], [ 35.714986089265466, 5.39326950774786 ], [ 35.716832314270505, 5.40135688171496 ], [ 35.69504685920316, 5.423045214953547 ], [ 35.687292714178312, 5.443630030717713 ], [ 35.679538569153522, 5.478181528655114 ], [ 35.688769694181985, 5.500969721706113 ], [ 35.71535533426686, 5.527064805962723 ], [ 35.704647229232933, 5.574474054700474 ], [ 35.594612218885146, 5.579619014769008 ], [ 35.549933573742976, 5.539560636613345 ] ] ] } }
]
}
