{"type":"FeatureCollection","features":[{"type":"Feature","properties":{},"geometry":{"coordinates":[[35.838432799098285,4.922784630790147],[35.83354052921328,4.930373568410033],[35.828338622581555,4.939319765367642],[35.82747510629332,4.948923464532129],[35.82778474362746,4.95860975996878],[35.82438046891292,4.973708518377805],[35.8315561897316,4.989336989556534],[35.84002439470865,5.019637447584373],[35.84296234346951,5.033926377244256],[35.83985157429419,5.036852987410398],[35.83987840424652,5.040212465809063],[35.84290770830373,5.045847700905313],[35.84272522010781,5.053264322825186],[35.83940393648072,5.056245482381314],[35.83670311117643,5.058390460084823],[35.83436726226543,5.06148066970384],[35.831045977094135,5.061589735655019],[35.8265202698291,5.062607683655585],[35.827505706087976,5.0683881436944205],[35.827797687202036,5.072096336111997],[35.82728672025311,5.076386179195808],[35.82798017539798,5.07882192485927],[35.826593265106936,5.079112759547499],[35.824695387866996,5.080167034192272],[35.82383051525974,5.081753835405721],[35.824152557402016,5.083495190109446],[35.82534871393602,5.084732465590861],[35.82718895475463,5.084915765459229],[35.82847712332884,5.086886235756893],[35.82962727384103,5.089681543736262],[35.828937183533014,5.093026732400517],[35.828431117308725,5.095363771688639],[35.82760300893875,5.098159042810195],[35.825272519036616,5.100179760408167],[35.82260602396369,5.103560036042083],[35.8220404037973,5.10436486094882],[35.82244441820163,5.107745114529749],[35.8217979951535,5.109032825491354],[35.82266932553466,5.11094637282531],[35.82511032842717,5.111756804853641],[35.824906911519236,5.112567235856517],[35.82353384706266,5.112921799122688],[35.824449223148065,5.114542657152953],[35.82887354089178,5.11489721929982],[35.82994147965758,5.116518072329114],[35.828466707076046,5.116112859456663],[35.82658510067972,5.1177337094059965],[35.82907695779966,5.1178856638778285],[35.830297459245884,5.120671489471249],[35.83167052337356,5.120975396983823],[35.83172137760101,5.122444281257245],[35.83472177699056,5.121633862764881],[35.83645082070649,5.120874094495676],[35.8384849745419,5.124065093916457],[35.838942662585,5.127661304451564],[35.84092597743535,5.132067901010785],[35.84224818733648,5.133536759768177],[35.84382466837104,5.136373167104452],[35.844638336002475,5.1370316170024495],[35.84529944095257,5.1382978648945965],[35.84565542054091,5.13981735904315],[35.84748617271072,5.140475805381868],[35.84565542054091,5.140881002790707],[35.845909691676155,5.142349841236069],[35.849316924880554,5.143464130209452],[35.850334009419925,5.145287507958784],[35.85216476158979,5.146452441007867],[35.85135109395824,5.147060231317283],[35.84946948756195,5.147870617492259],[35.850028884058105,5.14994722735382],[35.851910490455396,5.148934247780588],[35.85379209685175,5.1500991741501565],[35.85536857788716,5.149288790815248],[35.856639933560956,5.151517342501037],[35.8583181230494,5.153391345825781],[35.8585882003793,5.156167278996676],[35.86046980677568,5.159104881860742],[35.85985955605304,5.161232103032802],[35.86016468141395,5.166043648410678],[35.864639853385086,5.169234442570556],[35.863724477339616,5.17171616022658],[35.863571914658195,5.174653691025583],[35.86326678929643,5.176223744998609],[35.863978748473954,5.17779379507418],[35.86525010414766,5.181490994365205],[35.86580950064382,5.183567494070388],[35.86402960542733,5.1878484177705815],[35.86092749758373,5.190431353771402],[35.857265993244084,5.1933181520776515],[35.85568951198138,5.197167196121185],[35.85538439957509,5.201218801517214],[35.85624892143403,5.202940723489874],[35.85472329462502,5.20577681999346],[35.8544181692632,5.208157105401668],[35.85457073194462,5.209423210989584],[35.853502793178734,5.2088661248454],[35.85406218967492,5.210081584886993],[35.85487585730641,5.211752838605975],[35.8544181692632,5.213069580828034],[35.852638271320785,5.2128163613846255],[35.853146813590484,5.21382923854749],[35.85151947832756,5.214690182850816],[35.851061790285314,5.213981169980542],[35.85040068533519,5.214791470338341],[35.847908828215225,5.215753700654318],[35.847044306357304,5.217121078038673],[35.84568755923286,5.218759877802086],[35.84502645428273,5.221595902875762],[35.84380595283557,5.221595902875762],[35.84263630561574,5.222912624443438],[35.84167007530388,5.224837058680919],[35.841924346439185,5.22615377343763],[35.84146665839603,5.227673056256251],[35.84055128231154,5.2305090409891335],[35.8363972093519,5.235302945490005],[35.83125183466984,5.242461308261511],[35.827695472756034,5.245173929561943],[35.828225143680214,5.246831636776207],[35.826560463635104,5.2491674894637015],[35.82845214550383,5.255798249415008],[35.82792247458107,5.26107266715421],[35.82958715462479,5.264011251933184],[35.83185717286668,5.26634704018565],[35.83458119475861,5.2701144220943945],[35.8357162038796,5.272148798826109],[35.837834887571915,5.2722994931337865],[35.83874289486923,5.272676228742185],[35.83866722759382,5.274107821971015],[35.84161825130937,5.274258515803112],[35.84169391858342,5.275388718376888],[35.83988035298955,5.278107832739124],[35.8444960567474,5.278032486294421],[35.84638773861613,5.279238028300057],[35.84752274773709,5.282703948507461],[35.85009543507954,5.286471231091525],[35.850927775101326,5.290615215462154],[35.8555434788606,5.290991939938962],[35.85735949345383,5.289635730751442],[35.85932684259666,5.290690560376419],[35.85728382617978,5.292724869573675],[35.85652715343204,5.295361927091278],[35.859780846245286,5.296341402733063],[35.86121852446533,5.297998973360961],[35.8600835153444,5.300033258507625],[35.86129419174085,5.300409977243447],[35.86409388090547,5.301992193426599],[35.862504868135915,5.304403181717532],[35.863110206334085,5.306512788745152],[35.86318587360961,5.3087730739846535],[35.86485055365324,5.310430611226423],[35.862731869960896,5.311184035772683],[35.86129420504929,5.312831335789653],[35.86227787962068,5.315392965506192],[35.86076453412653,5.317125826625855],[35.86076453412653,5.3189340243337],[35.86129420504929,5.320591534230758],[35.85925118863099,5.320440851697256],[35.85796484496049,5.323228472591964],[35.856224497641335,5.3214202875048215],[35.85524082306992,5.321796993170381],[35.85251680117935,5.3257147184026365],[35.8485821028938,5.324885970916327],[35.84706875739823,5.323680518033015],[35.84048570449622,5.326995507774811],[35.83806435170473,5.330235139564309],[35.839804699023915,5.334152810988513],[35.83988036629799,5.336111637323938],[35.83556733163783,5.336036297964441],[35.829286947834845,5.338145796512677],[35.82427868147326,5.33573586750714],[35.81928464133938,5.336715278928708],[35.81920897406533,5.34070824776893],[35.816409284899265,5.343571115076529],[35.81330692663556,5.343495776633816],[35.811036908393646,5.3457559258615674],[35.80778321557895,5.344625852290278],[35.80407551911699,5.347865390948613],[35.80006515355592,5.345605249505823],[35.79522244797306,5.345831264026174],[35.79257409335656,5.347940728852336],[35.79022840783918,5.347865390948613],[35.78591537317905,5.351481599893646],[35.78417502585987,5.353591045240961],[35.781352157146245,5.3554916555925445],[35.775701411758604,5.354294616425136],[35.77401821100494,5.358484243254736],[35.77089226674718,5.354773432373861],[35.77437889687985,5.3509428942865185],[35.77341706787823,5.348309385436522],[35.767405636613404,5.351541417444409],[35.76055260497236,5.355012840206456],[35.75923009009472,5.357167506489759],[35.75309843020571,5.360519194490863],[35.757667117966434,5.363631459734236],[35.752617515704344,5.366863410686193],[35.75574345996097,5.368419529111989],[35.754180487832656,5.371531754045648],[35.749130885570594,5.3741651627292555],[35.74768814206763,5.371651454687338],[35.73975305279848,5.376439461065715],[35.73734848029281,5.37464396308512],[35.7367473371672,5.379192547684525],[35.73241910665607,5.377636456778475],[35.73109659177845,5.374883363121924],[35.727369504395114,5.3758409623279135],[35.72484470326404,5.378594051652698],[35.723401959760025,5.383382003419214],[35.71883327199927,5.386733547224395],[35.709816125103174,5.390563860363798],[35.70247233967589,5.3905743968589235],[35.70163073929851,5.393088026683287],[35.696941822912464,5.391053184294776],[35.69068993439808,5.3891380322874625],[35.683115531005,5.390215306034307],[35.6709724398512,5.386863781435096],[35.66063277807743,5.386504688416878],[35.65474157543801,5.388778940613506],[35.65654500481813,5.3932077230819715],[35.65125494530537,5.393566812136513],[35.63553368662485,5.386422558897877],[35.627483583742475,5.383394830374087],[35.62032793673484,5.383394830374087],[35.617286786756864,5.389450272335793],[35.61675011321097,5.404232421039509],[35.608342227976465,5.404232421039509],[35.605301077998405,5.40120478137618],[35.602081036845135,5.398889517309314],[35.59689319276558,5.403341940356668],[35.5865175046047,5.4170551976015275],[35.579004075246445,5.418658025550869],[35.574174013515716,5.425247384644322],[35.57238545409922,5.443946823552793],[35.57274323644978,5.452672890137123],[35.56773428354376,5.461754987974032],[35.566124262967975,5.478850327955726],[35.57345880114923,5.498438136809355],[35.58311892461069,5.514642109757091],[35.590095680443085,5.532270105270271],[35.590632420904,5.5454136229433],[35.58705459740017,5.561794358732996],[35.59921919731377,5.574257656631232],[35.59671472086163,5.582269637025831],[35.590632420904,5.596868964071049],[35.58311899154748,5.602922236720744],[35.575963344539815,5.60950955037498]],"type":"LineString"}},{"type":"Feature","properties":{},"geometry":{"coordinates":[[35.50195616360105,5.46218482883738],[35.524044524888495,5.458812416998072],[35.528922935970115,5.451393044193935],[35.54531981766192,5.446401778165097],[35.55046925158152,5.448155470955797],[35.56036158516375,5.44356887900318],[35.56957636165214,5.43884735073847],[35.57350619280072,5.434530492478288]],"type":"LineString"}},{"type":"Feature","properties":{},"geometry":{"coordinates":[[35.42530182394921,5.4814615851218065],[35.44183421705881,5.479303313276077],[35.45281064199301,5.474582066428795],[35.461754395643425,5.47525653254678],[35.47015610361788,5.48240582660172],[35.48208110848384,5.483215175251729],[35.49265099916104,5.488071244105512],[35.50864134659582,5.483619849165805],[35.52151493139485,5.480652234093284],[35.532491356329075,5.482001151864665],[35.542654712749254,5.480517342148559],[35.55037886362868,5.474986746191675],[35.5544442061975,5.477010140895004],[35.560000174372874,5.468376942442859],[35.56718227957751,5.468646731780609]],"type":"LineString"}},{"type":"Feature","properties":{},"geometry":{"coordinates":[[35.44321897123157,5.523453095452638],[35.456363578868604,5.523722859838202],[35.4677465380598,5.532085494833666],[35.47872296299275,5.531545973561677],[35.490105922184,5.530197168226138],[35.498101095901404,5.518057781958021],[35.504605644011036,5.508750750847753],[35.511381214957424,5.505108829406197],[35.514633489012226,5.50011801193682],[35.51883434299876,5.494048042385302],[35.51856332016075,5.490136251451048],[35.52940423367599,5.487033778319969],[35.539161055840424,5.482852158565805],[35.54349742124603,5.480289215848984]],"type":"LineString"}},{"type":"Feature","properties":{},"geometry":{"coordinates":[[35.520731478499386,5.516304474495257],[35.53617978025818,5.513471906889038],[35.54376841971862,5.506053213401017],[35.55040847924718,5.499983304396068],[35.56450166681603,5.49377844452556],[35.56924456647988,5.487168848793473]],"type":"LineString"}},{"type":"Feature","properties":{},"geometry":{"coordinates":[[35.33659220776647,5.52690838027101],[35.34175978437068,5.532266223658709],[35.35058772773465,5.543196073647209],[35.35101835911851,5.547696541322395],[35.35683188279751,5.550911140069829],[35.3604922495592,5.5556258531914295],[35.367382351696875,5.556483069704939],[35.37276524399297,5.55712598127208],[35.37556434798603,5.565269467005194],[35.39149770918155,5.56891256885676],[35.39774186424438,5.572769946200253],[35.406569807609316,5.568698269373783],[35.42185722172809,5.570198364119179],[35.43219237493548,5.561626342582457],[35.44015905553374,5.554982939986829],[35.44747978905522,5.549410996168433],[35.4623365717911,5.55326850134567],[35.47353298776622,5.548768076184814],[35.48731319204245,5.5500539154510875],[35.51336639075345,5.547696541322395],[35.528007857797434,5.543196073647209],[35.53907482794469,5.5303372850900985],[35.55177845376227,5.524550793280568],[35.564482079579875,5.522621950113475],[35.56801536742441,5.52039643722577],[35.57065275021185,5.515462943935887],[35.5771097908291,5.506998965419811],[35.57692790236089,5.504011650093915]],"type":"LineString"}},{"type":"Feature","properties":{},"geometry":{"coordinates":[[35.50504651711799,5.5957502632287515],[35.51427052248525,5.596770267851852],[35.52434860242403,5.5983002714502845],[35.53323097796277,5.601190267320561],[35.54228416841579,5.600850268548157],[35.54911676498452,5.59473025682658],[35.55475365715472,5.5909902181345785],[35.55765751069626,5.583340064571374],[35.5644901072649,5.575179790711445],[35.57081025909079,5.561069049561553],[35.57132270383369,5.549848218662731],[35.571835148576554,5.540837396822525],[35.57337248280362,5.536586961431851],[35.577642855659576,5.53624692527967],[35.57781367057382,5.53284655300358],[35.58225485834231,5.528085998978469],[35.58550034171245,5.5257057076075995],[35.58550034171245,5.520265005701674]],"type":"LineString"}}]}