{"type":"FeatureCollection","features":[{"type":"Feature","properties":{},"geometry":{"coordinates":[[35.725464177152816,5.449791988060042],[35.72920306517801,5.455250878277141],[35.736930100431294,5.45971720605786],[35.73942269244844,5.4636872472620155],[35.74191528446559,5.466416635327889],[35.74615269089446,5.471627250714377],[35.75263343013978,5.47510096909204],[35.75736935497221,5.477334063104109],[35.76335157581269,5.477334063104109],[35.76783824144337,5.476589699360147],[35.7745682398905,5.480559628609669],[35.77980268312547,5.487010707341298],[35.78478786715982,5.49122868263882],[35.79027156959779,5.495694741593141],[35.79725082724559,5.491973028123013],[35.80323304808721,5.48849940791203],[35.811707860944864,5.487506941278156],[35.811957120146644,5.483288939660156],[35.819434896198146,5.480311508804519],[35.82616489464411,5.4743566025669566],[35.826414153845946,5.467657262153438],[35.82516785783798,5.4639353739639205],[35.826414153845946,5.458476562789457],[35.823921561828854,5.454754617581671],[35.82666341304778,5.449791988060042],[35.828657486661314,5.443588643494607],[35.832645633889456,5.442844237843801],[35.8383785955281,5.445077452029878],[35.84136970594889,5.448303191205639],[35.84485933477336,5.451777044792735],[35.85183859242119,5.455002747980757],[35.86305525649783,5.454754617581671],[35.8685389589358,5.45376209496051],[35.878509327004394,5.455250878277141],[35.880503400617926,5.45897282040535],[35.88768419463233,5.458480590092819],[35.8943850486302,5.45748001902011],[35.8975679542792,5.4569797328584855],[35.89890812507937,5.45281066528149],[35.90058333857806,5.4494753903694],[35.905106415027234,5.447807745966912],[35.909294448774745,5.44830803977402],[35.9131474398238,5.450809502557362],[35.91867564437314,5.4504759747888585],[35.92303119947073,5.451143030141409]],"type":"LineString"}},{"type":"Feature","properties":{},"geometry":{"coordinates":[[35.81657173971789,5.518404735484765],[35.81264060127239,5.515574106453286],[35.81113505889027,5.512327191819011],[35.81205511256843,5.509080259427421],[35.81138598262007,5.504750988634342],[35.8069529967149,5.501170990894593],[35.80536381308849,5.499172843253277],[35.80528017184568,5.4943439587596],[35.80636750801091,5.4901810958776025],[35.807287561689094,5.487933137832883]],"type":"LineString"}},{"type":"Feature","properties":{},"geometry":{"coordinates":[[35.780940561761014,5.450465922573272],[35.78453713523078,5.453463385803914],[35.78796642621509,5.45579473574368],[35.78997381605845,5.458958696169944],[35.79173028217198,5.460124361591994],[35.79925799408733,5.46004109985202],[35.80260364382727,5.4607071934533735],[35.80486195740045,5.462372424219012],[35.807371194706576,5.462788731187544],[35.81105140941915,5.461123501578811],[35.81481526537763,5.458209338630624],[35.81866276257881,5.45804281460569],[35.82368123718797,5.454629061906118]],"type":"LineString"}},{"type":"Feature","properties":{},"geometry":{"coordinates":[[35.836149135828606,5.39684256790251],[35.83659572607894,5.403511689965072],[35.83400550262286,5.407424207405427],[35.83373754847295,5.411425619538875],[35.83400550262286,5.417383228550307],[35.83704231633101,5.41960620194034],[35.839364585635565,5.421740248697489],[35.8389179953852,5.42440779653505],[35.841240264689816,5.427164250243678],[35.84115094663869,5.430720946089664],[35.839900493936995,5.434988953396783],[35.83829276903268,5.436411615779207],[35.840972310538234,5.442102231678575],[35.84365185204538,5.446014498879123],[35.845616849149025,5.450726968735324],[35.84892161700708,5.453661129399492]],"type":"LineString"}},{"type":"Feature","properties":{},"geometry":{"coordinates":[[35.80024327964878,5.416227279153986],[35.80381600165674,5.417472147643053],[35.806227589012366,5.416849713719117],[35.808281904167075,5.4191616079173315],[35.810425537371174,5.422007004011846],[35.81328371497716,5.423251860586021],[35.81801757163902,5.422451595940501],[35.82203688389731,5.4204953890061205],[35.8248950615033,5.421829167148729],[35.828467783511314,5.424229960379321],[35.83293368602159,5.426808579505007],[35.83704231633101,5.431254448656787],[35.838828677334135,5.4336552043615995],[35.83954322173605,5.435700285008124]],"type":"LineString"}},{"type":"Feature","properties":{},"geometry":{"coordinates":[[35.89766010023547,5.470803741687746],[35.89837443134158,5.468433479445551],[35.8989458962275,5.466395046409787],[35.898612541712026,5.463313680971979],[35.89746961194018,5.461085606857594],[35.89756485608697,5.4598530516616535],[35.896564792536964,5.458241244888939],[35.896469548390286,5.457150902556251]],"type":"LineString"}},{"type":"Feature","properties":{},"geometry":{"coordinates":[[35.70926900863742,5.455371520888519],[35.71230582234551,5.456705221737579],[35.71721831510621,5.455905001583986],[35.7215948995655,5.456171741753778],[35.7240064869211,5.457683267141249],[35.72793648113,5.459016962848608],[35.73150920313793,5.459016962848608],[35.737493512499896,5.460706306485605],[35.73802942080127,5.461595432803563]],"type":"LineString"}},{"type":"Feature","properties":{},"geometry":{"coordinates":[[35.74370546616524,5.518796155552053],[35.750404319930766,5.51826273110531],[35.75647794734368,5.517462593536422],[35.75951476105024,5.516040124081641],[35.76326611915866,5.515773410679003],[35.76755338556842,5.5136396991430985],[35.76898247437228,5.513995318265287],[35.77335905883157,5.513284079807832],[35.77711041693999,5.512306125538245],[35.77871814184266,5.512128315497776],[35.78354131655391,5.510616928005092],[35.78550631365758,5.5055493065837595],[35.78693540246144,5.499325852753685],[35.78898971761612,5.496391916228035],[35.7909547147197,5.495325026634205]],"type":"LineString"}},{"type":"Feature","properties":{},"geometry":{"coordinates":[[35.78613151666755,5.535065379936526],[35.78595288056704,5.532753934034602],[35.783541293211385,5.531153696964523],[35.78166561415722,5.526975279768266],[35.78273743076011,5.5221745087186065],[35.78398788346348,5.516129038005303],[35.785059700064664,5.511061463620621],[35.785863562517676,5.504393536708747]],"type":"LineString"}}]}