{"type":"FeatureCollection","features":[{"type":"Feature","properties":{},"geometry":{"coordinates":[[35.94904094425783,5.649622787383564],[35.944940783406764,5.63738192501836],[35.9507182827885,5.625882697935012],[35.95146376657826,5.619205623011069],[35.955750298377126,5.612713948991043],[35.95873223354113,5.606778640914783],[35.95258199226535,5.603069042711724],[35.952209250369634,5.590641717136023],[35.9478027715769,5.578545185539539],[35.948175513470915,5.564633400399956],[35.94090704650978,5.554802207062053],[35.933638579546965,5.55220526066266],[35.931402128172664,5.5442288537735465],[35.91872890372551,5.529574244022697],[35.90941035633625,5.521412025497071],[35.89878721231378,5.51974246694634],[35.897482615678825,5.5147337630916695],[35.906242050224506,5.506756851174629],[35.90773301780732,5.495440583183907],[35.91332414623952,5.489875126574972],[35.9239472525951,5.484309577091224],[35.928979268344136,5.4702100564378355],[35.92450636560088,5.4571989674851125],[35.92394725275727,5.4419856242587485],[35.9323339454055,5.435677539750344],[35.923388139913726,5.419350426094965],[35.90959665015248,5.405991541503994],[35.91201947247461,5.398755360601257],[35.92692914829601,5.394302283263528],[35.93512946999641,5.385024933873751],[35.942025195063565,5.374634134454752],[35.9502255167657,5.372036406885812],[35.95637575804142,5.3545942352086655],[35.962153257423125,5.3443884783296625],[35.954325677616765,5.338636067673164],[35.952461968139886,5.327316650465178],[35.96010317699671,5.326574386308451],[35.969608095333825,5.331584651958906],[35.973521885237034,5.33956387949587],[35.97855390082566,5.3380793799064605],[35.98954978674388,5.33511036994625],[35.994395431386295,5.335481496977309],[35.99514091517773,5.340862813687622],[35.98917704484819,5.351068629352326],[35.99234535096164,5.363129828312196],[35.99234535096164,5.368696455166216],[35.999986559818495,5.366469810520556],[36.00986422005133,5.362016496846479],[36.016760333962736,5.362944552789372],[36.02440154282121,5.367768967129763],[36.02887444556629,5.370923371255827],[36.02943355840986,5.374634414029828],[36.02384242997772,5.377974333192043],[36.01992864007451,5.3792731856947285],[36.021792349551305,5.384283019372305],[36.02980630030558,5.386509598866752],[36.03800662200774,5.384468567975205],[36.04620694370979,5.384097470712774],[36.04974799171731,5.3781598837194196],[36.042665895700594,5.368696734743153],[36.04042944432808,5.363686772862721],[36.04322500854414,5.361274554322392],[36.0514253302463,5.362202331812483],[36.05478000730588,5.365542319097727],[36.057389200574136,5.361460109933191],[36.05813468436554,5.354965630015357],[36.05906653910483,5.348842200031967],[36.06428492564302,5.348656640590704],[36.064098554695164,5.352553377037722],[36.062421216164495,5.356821202751121],[36.065030409432666,5.362016776427254],[36.07285798923911,5.362202331812483],[36.07751726293375,5.363501217928771],[36.07938097241052,5.366284536011875],[36.08385387515736,5.367768967129763],[36.09112234212023,5.363686772862721],[36.09317242254656,5.365356764728077],[36.088885890747605,5.371665581619311],[36.09037685832874,5.37556217119095],[36.09708621244806,5.376118824808316],[36.09969540571802,5.3792731856947285],[36.10118637329913,5.382056431721608],[36.106963872680865,5.3792731856947285],[36.10808209836625,5.373892207283248],[36.10640475983729,5.368882288096586],[36.11031854974047,5.369810054016611],[36.119264355232275,5.37630437590127],[36.12709193503872,5.380200935785538],[36.13417403105373,5.383355275508407],[36.13361491821013,5.388550622903679],[36.126719193143,5.394302562828656],[36.119077984284445,5.395415835228164],[36.116655154659554,5.408403858900485],[36.11311410907649,5.417124235955015],[36.116841529028704,5.428532962082556],[36.123178141252254,5.431315981701218],[36.12988749537155,5.4305738443922],[36.137901446125795,5.435026654532479],[36.14442442929729,5.43892283639704],[36.14982918678152,5.442818993035473],[36.15169289626007,5.4509822869705715],[36.14647450972191,5.455805999412092],[36.13883330086506,5.453950729984669],[36.13566499381898,5.447271712990627],[36.121102052604385,5.446120936624041],[36.116442778911534,5.449274932370486],[36.11607003701582,5.460221024354325],[36.1188656012319,5.464488090829164],[36.12650681009046,5.463745994495355],[36.12948874525438,5.465601233607131],[36.12725229388184,5.475804945925873],[36.13042059999364,5.4802574203662715],[36.13414801894896,5.483782272423369],[36.13209793852258,5.486936069775595],[36.12576132629903,5.482854681794166],[36.1214747945001,5.483411236344708],[36.12222027829151,5.488791236899829],[36.132470680418294,5.492687069070527],[36.14178922780755,5.504374412675901],[36.14216207871087,5.510867219909343],[36.149244174725794,5.519957117838089],[36.15837635116546,5.514762907500696],[36.16694941476334,5.508270080649396],[36.171981430351906,5.515319432211655],[36.17775892973364,5.5140208737397955],[36.17813167162936,5.509012121596868],[36.16899949518796,5.503075768077281],[36.1628492539123,5.490460820174263],[36.15576715789726,5.485080834678513],[36.1438394172398,5.49268700686855],[36.14253482060485,5.4839677281732975],[36.14626223956017,5.4720944630163615],[36.15502167410588,5.4670853585533905],[36.16005368969613,5.472836548999865],[36.167508527606884,5.468384019291932],[36.17067683371866,5.463931456460216],[36.17887715541903,5.461519637771175],[36.177199816890095,5.457809128528112],[36.168254011396584,5.4537275418430795],[36.17626796215086,5.450759097726149],[36.18614562238193,5.456139391877343],[36.19192312176364,5.450573569481392],[36.2001234434658,5.456324918401549],[36.20496908810654,5.4537275418430795],[36.204409975262934,5.446491933599077],[36.19639602451042,5.442595800758866],[36.18931392849538,5.431278319412897],[36.19770062114367,5.425341194991887],[36.20571457189794,5.425155658911763],[36.20552820095011,5.434246859691783],[36.21205118412149,5.438514110708127],[36.21410126454791,5.448903812700095],[36.22211521530048,5.449274870164004],[36.22845182752576,5.4414826153094396],[36.23050190795047,5.4316493877478536],[36.221369601663525,5.424228071841],[36.211678312380315,5.416064415319738],[36.20534170015662,5.412724705856363],[36.20832363532065,5.411425924971255],[36.21820129555164,5.412724705856363],[36.222860569246365,5.397881329676167],[36.22099685976778,5.390088411659761],[36.215964844179155,5.388047392789801],[36.208137264372795,5.392314969875855],[36.201241528654634,5.380996561396842],[36.20347798002717,5.368564608982098],[36.20683265708678,5.36374020093325],[36.20086878675892,5.359101311072507],[36.18968652989284,5.361513538199517],[36.18428177240685,5.3555757312127525],[36.18763644946648,5.346668912587944],[36.209814602500614,5.330710561520391],[36.2120510538731,5.318648724534825],[36.210746457238145,5.304359781027927],[36.20440984501457,5.291740698636332],[36.210560086290286,5.285987796198214],[36.207391780178455,5.275409739378972],[36.20180065174634,5.276523227541887],[36.19676863615592,5.284688746313975],[36.188009201612005,5.290441660824953],[36.17813154137923,5.293782038257149],[36.171794929155624,5.291740698636332],[36.168812993991736,5.280606000372558],[36.172913154842774,5.276894389819034],[36.18092710559702,5.27875019787264],[36.18614549213342,5.281905058816719],[36.193600399368734,5.273925121112271],[36.19993701159237,5.268543220628899],[36.19844604400953,5.260006317366617],[36.19708600911895,5.24445632359739],[36.1939177030072,5.234434342303388],[36.1963405253276,5.2214426460849666],[36.20025431523075,5.213461899173481],[36.20491358892545,5.209749889295864],[36.211935683266034,5.212830190179915],[36.21827229548967,5.20614854989492],[36.21249479610964,5.196311561409885],[36.20559907104078,5.19315626840374],[36.19795786218393,5.205777345574091],[36.195348668913965,5.202065290319467],[36.18808020195115,5.194455508613913],[36.18323455731041,5.184803946006397],[36.17745705792865,5.184247120582768],[36.179693509302865,5.175894680343248],[36.18789383100332,5.168655809579263],[36.191807620906474,5.162530546618612],[36.18994391142965,5.158818237238492],[36.179507138355035,5.160303163597973],[36.17522060655611,5.165871606480962],[36.17279778423574,5.174224179054306],[36.167206655801834,5.176637123944033],[36.16056977409528,5.1719743329860535],[36.158706064618485,5.165477874090286],[36.16448356399846,5.15749641915491],[36.165974531581355,5.148215531422096],[36.15982429030558,5.141904450381688],[36.15274219428886,5.1463593376142285],[36.145473727327754,5.157125186249061],[36.141746308372376,5.151556666621829],[36.13522332519926,5.14802991228504],[36.12925945487132,5.152113520781299],[36.13224139003526,5.15749641915491],[36.12925945487132,5.161951197084619],[36.12571840686388,5.161023120928974],[36.12217735885639,5.162508042126731],[36.12292284264777,5.171603108558543],[36.12217735885639,5.174572897880211],[36.114349779049945,5.174016063443673],[36.113977037154285,5.1682620789187155],[36.11304518241499,5.163064886678953],[36.10018558701992,5.162693657032079],[36.09086703963243,5.164364188734467],[36.09254437816142,5.170118208672676],[36.09291712005714,5.177728283760331],[36.08527591119852,5.178470725209209],[36.083784943617445,5.170860659050504],[36.080057524662124,5.169746983156941],[36.073720912436784,5.177913894204281],[36.06738430021318,5.178470725209209],[36.06514784884067,5.172345557194959],[36.07017986442929,5.164735417404074],[36.07539825096745,5.1550834013875715],[36.06682518736963,5.153598462819929],[36.062352284622875,5.145616858574144],[36.06831615495247,5.140605102400102],[36.07949852830592,5.138961891021751],[36.08303957631341,5.12671073396406],[36.08229409252198,5.1202138128521],[36.07204369039522,5.125040103416069],[36.07241643229088,5.117243769781609],[36.07390739987372,5.108519188555874],[36.084157802000476,5.110004232051637],[36.08713973716448,5.117243769781609],[36.093662720335885,5.110004232051637],[36.09291723654442,5.1012795522607775],[36.08192135062632,5.0997944885634325],[36.067943529544124,5.0964530826878445],[36.0612341754248,5.10183645026062],[36.06272514300767,5.107219772675251],[36.064216110588745,5.114273712923051],[36.05843861120877,5.114459341880533],[36.054152079409846,5.108519188555874],[36.05806613114393,5.0914407687892265],[36.05974346967463,5.080673814484086],[36.06533459810677,5.079559981351551],[36.07018024274922,5.079745620340788],[36.064030001481825,5.073619505435431],[36.034397020786855,5.059696300948488],[36.03681984310728,5.0535699960231],[36.044817672315304,5.042800200068825],[36.05495181172418,5.06167302429904],[36.06508595113311,5.060356333475909],[36.067729639674866,5.050261614863572],[36.065526565890224,5.043239109196435],[36.058917344536354,5.036655441144916],[36.07125455772987,5.040605649982069],[36.0774231643266,5.034899785067296],[36.07257640200126,5.023487905105483],[36.06200164783522,5.016465110406486],[36.053189352696734,5.016465110406486],[36.059357959293465,4.99934673198571],[36.04966443464065,5.000663546230214],[36.047020746099946,5.007247577713258],[36.03953029523183,5.0011024837222635],[36.04746136085606,4.994957332056444],[36.06023918880774,4.9817889560297886],[36.07257640200126,4.9817889560297886],[36.07874500859805,4.97344884804869],[36.082710541410165,4.971254065224372]],"type":"LineString"},"id":0}]}