{"type":"FeatureCollection","features":[{"type":"Feature","properties":{},"geometry":{"coordinates":[[[36.040323854143764,5.341619018700399],[36.041164585069026,5.340561653683764],[36.041695573022594,5.339063716786498],[36.04390802282836,5.339416172856332],[36.04514699471841,5.340385426003465],[36.04474875375368,5.342059586919234],[36.048332922439926,5.34302883588478],[36.049837388307566,5.346597421131847],[36.049925886299036,5.348271565067662],[36.05258082606531,5.350474379058056],[36.05240383008075,5.351443614701978],[36.05284632004293,5.3541310327704394],[36.05421803892173,5.356554104507794],[36.05342155699222,5.357919831616471],[36.05182859313143,5.359638000095018],[36.04997013529473,5.357699553257248],[36.04709395054823,5.356642216026387],[36.043465532866264,5.354968095002079],[36.041784071014064,5.353470193356998],[36.03930612723232,5.35360236129651],[36.03651844047718,5.352104456305483],[36.03412899468691,5.35126739015368],[36.03417324368425,5.346156856176975],[36.03669543646171,5.343954026649044],[36.038553894298474,5.341354677617062],[36.040323854143764,5.341619018700399]]],"type":"Polygon"}}]}