{"type":"FeatureCollection","features":[{"type":"Feature","properties":{},"geometry":{"coordinates":[[[35.873134916543506,4.954598400546928],[35.873898060646724,4.954539916500664],[35.87413287421569,4.955007788729333],[35.87560045902799,4.95591429023213],[35.87614346540917,4.955314829700498],[35.87722947816934,4.955724217439055],[35.87809535320852,4.956981621051014],[35.880105944402004,4.958472957117124],[35.87991515837592,4.96002277338043],[35.878755766374724,4.961484860860551],[35.876598416700205,4.963034670053489],[35.875248238672896,4.9636779860074824],[35.874367687785735,4.962961565927657],[35.872415799986385,4.962493699333123],[35.87116835289504,4.961733415410066],[35.86986220241283,4.961791898819357],[35.86839461760053,4.960476020845917],[35.86796901800548,4.958107433883228],[35.86974479562778,4.95709858870724],[35.871593952491224,4.956177467854516],[35.872606586011415,4.955270966713826],[35.873134916543506,4.954598400546928]]],"type":"Polygon"}}]}