{
"type": "FeatureCollection",
"name": "WBS",
"crs": { "type": "name", "properties": { "name": "urn:ogc:def:crs:OGC:1.3:CRS84" } },
"features": [
{ "type": "Feature", "properties": { "layer": "WB_Arus", "path": "C:/Users/ohanrah/Downloads/WB_Arus.geojson", "WBS": 1 }, "geometry": { "type": "Polygon", "coordinates": [ [ [ 36.040323854143764, 5.341619018700399 ], [ 36.041164585069026, 5.340561653683764 ], [ 36.041695573022594, 5.339063716786498 ], [ 36.043908022828361, 5.339416172856332 ], [ 36.045146994718408, 5.340385426003465 ], [ 36.04474875375368, 5.342059586919234 ], [ 36.048332922439926, 5.34302883588478 ], [ 36.049837388307566, 5.346597421131847 ], [ 36.049925886299036, 5.348271565067662 ], [ 36.052580826065309, 5.350474379058056 ], [ 36.052403830080749, 5.351443614701978 ], [ 36.052846320042931, 5.354131032770439 ], [ 36.054218038921732, 5.356554104507794 ], [ 36.05342155699222, 5.357919831616471 ], [ 36.051828593131432, 5.359638000095018 ], [ 36.049970135294728, 5.357699553257248 ], [ 36.047093950548231, 5.356642216026387 ], [ 36.043465532866264, 5.354968095002079 ], [ 36.041784071014064, 5.353470193356998 ], [ 36.039306127232322, 5.35360236129651 ], [ 36.036518440477181, 5.352104456305483 ], [ 36.03412899468691, 5.35126739015368 ], [ 36.034173243684251, 5.346156856176975 ], [ 36.036695436461713, 5.343954026649044 ], [ 36.038553894298474, 5.341354677617062 ], [ 36.040323854143764, 5.341619018700399 ] ] ] } },
{ "type": "Feature", "properties": { "layer": "WB_South Kuraz", "path": "C:/Users/ohanrah/Downloads/WB_South Kuraz.geojson", "WBS": 2 }, "geometry": { "type": "Polygon", "coordinates": [ [ [ 35.873134916543506, 4.954598400546928 ], [ 35.873898060646724, 4.954539916500664 ], [ 35.87413287421569, 4.955007788729333 ], [ 35.875600459027993, 4.95591429023213 ], [ 35.876143465409172, 4.955314829700498 ], [ 35.87722947816934, 4.955724217439055 ], [ 35.878095353208522, 4.956981621051014 ], [ 35.880105944402004, 4.958472957117124 ], [ 35.879915158375923, 4.96002277338043 ], [ 35.878755766374724, 4.961484860860551 ], [ 35.876598416700205, 4.963034670053489 ], [ 35.875248238672896, 4.963677986007482 ], [ 35.874367687785735, 4.962961565927657 ], [ 35.872415799986385, 4.962493699333123 ], [ 35.87116835289504, 4.961733415410066 ], [ 35.869862202412833, 4.961791898819357 ], [ 35.868394617600529, 4.960476020845917 ], [ 35.867969018005482, 4.958107433883228 ], [ 35.869744795627781, 4.95709858870724 ], [ 35.871593952491224, 4.956177467854516 ], [ 35.872606586011415, 4.955270966713826 ], [ 35.873134916543506, 4.954598400546928 ] ] ] } }
]
}
