{
"type": "FeatureCollection",
"name": "region_buffer",
"crs": { "type": "name", "properties": { "name": "urn:ogc:def:crs:OGC:1.3:CRS84" } },
"features": [
{ "type": "Feature", "properties": { }, "geometry": { "type": "Polygon", "coordinates": [ [ [ 35.740787023922472, 5.010834789799877 ], [ 35.73772154703353, 5.019369424968983 ], [ 35.734508505296482, 5.032147291392519 ], [ 35.732568218896539, 5.045177092870076 ], [ 35.731919373852406, 5.058333333269722 ], [ 35.731919373852406, 5.066666666603062 ], [ 35.732568218896539, 5.079822469883409 ], [ 35.734508505296482, 5.092851310939741 ], [ 35.73772154703353, 5.105627725714129 ], [ 35.742176400759327, 5.118028688389203 ], [ 35.747830163797211, 5.129934795524849 ], [ 35.75462838731849, 5.141231415049617 ], [ 35.75574166027981, 5.142726449047348 ], [ 35.758843067425971, 5.151359350333244 ], [ 35.764496830463862, 5.163264834396709 ], [ 35.766902382342785, 5.167261957392723 ], [ 35.767176400759297, 5.168024674787265 ], [ 35.772830163797188, 5.179929845803942 ], [ 35.779628387318461, 5.191225575135102 ], [ 35.787505600714326, 5.201803113804752 ], [ 35.796385942113645, 5.211560632582659 ], [ 35.806183888974267, 5.220404201174595 ], [ 35.816805081711813, 5.228248691267928 ], [ 35.828147232434084, 5.235018594797098 ], [ 35.84010111002938, 5.240648749611147 ], [ 35.852551592121806, 5.245084965615592 ], [ 35.861647357414995, 5.24735379203578 ], [ 35.865101110029364, 5.248980447482807 ], [ 35.865563347656767, 5.249145145169675 ], [ 35.869813899100713, 5.251682138264794 ], [ 35.881767776696009, 5.257312142732556 ], [ 35.894218258788435, 5.261748240160033 ], [ 35.907045440429307, 5.264947734375282 ], [ 35.920125788847386, 5.266879831747448 ], [ 35.933333333136943, 5.26752593698473 ], [ 35.941666666470262, 5.26752593698473 ], [ 35.954874210759826, 5.266879831747448 ], [ 35.967954559177898, 5.264947734375282 ], [ 35.98078174081877, 5.261748240160033 ], [ 35.987949495448213, 5.259194378425292 ], [ 35.991666666470223, 5.259194378425292 ], [ 36.004874210759787, 5.258548264533395 ], [ 36.017954559177852, 5.256616141287004 ], [ 36.030781740818732, 5.253416604245661 ], [ 36.043232222911158, 5.248980447482807 ], [ 36.055186100506454, 5.243350367782386 ], [ 36.066528251228725, 5.236580554466055 ], [ 36.077149443966277, 5.228736168759565 ], [ 36.086947390826886, 5.219892717661952 ], [ 36.0910788914099, 5.215353197105101 ], [ 36.095280724160212, 5.211560632582659 ], [ 36.104161065559538, 5.201803113804752 ], [ 36.112038278955396, 5.191225575135102 ], [ 36.118836502476668, 5.179929845803942 ], [ 36.124490265514559, 5.168024674787265 ], [ 36.128945119240356, 5.155624684844157 ], [ 36.132158160977397, 5.142849269802939 ], [ 36.134098447377333, 5.129821445671712 ], [ 36.13474729242148, 5.116666666603102 ], [ 36.13474729242148, 5.099999999936421 ], [ 36.134098447377333, 5.086844608780112 ], [ 36.132158160977397, 5.073815646219033 ], [ 36.128945119240356, 5.061038600398629 ], [ 36.126240847056039, 5.053510088418085 ], [ 36.126413959088154, 5.049999999936381 ], [ 36.126413959088154, 5.033333333269701 ], [ 36.125765114044015, 5.020176586663808 ], [ 36.123824827644071, 5.007146285144225 ], [ 36.12061178590703, 4.994367929602905 ], [ 36.116156932181234, 4.981964601522494 ], [ 36.110503169143342, 4.970055776882585 ], [ 36.10370494562207, 4.958756174557442 ], [ 36.095827732226212, 4.948174650334993 ], [ 36.094762295037832, 4.947003501560535 ], [ 36.093836502476691, 4.945053366401507 ], [ 36.087038278955411, 4.933753336840986 ], [ 36.079161065559553, 4.923171413415298 ], [ 36.070280724160234, 4.913409542823934 ], [ 36.060482777299612, 4.904561775519864 ], [ 36.049861584562066, 4.896713358499724 ], [ 36.038519433839795, 4.88993991288834 ], [ 36.026565556244492, 4.884306704290977 ], [ 36.026096619840651, 4.884139525438574 ], [ 36.021852767173144, 4.88160508955391 ], [ 36.009898889577855, 4.875971810948575 ], [ 35.997448407485429, 4.871533064541942 ], [ 35.984621225844549, 4.868331621937224 ], [ 35.971540877426477, 4.866398332623277 ], [ 35.95833333313692, 4.865751826213264 ], [ 35.956553066744014, 4.865751826213264 ], [ 35.955186100506538, 4.864935450400679 ], [ 35.943232222911249, 4.859302032137088 ], [ 35.930781740818823, 4.854863175800136 ], [ 35.917954559177943, 4.85166165397036 ], [ 35.904874210759871, 4.849728316839136 ], [ 35.891666666470314, 4.849081794442903 ], [ 35.883333333136989, 4.849081794442903 ], [ 35.870125788847425, 4.849728316839136 ], [ 35.857045440429353, 4.85166165397036 ], [ 35.84421825878848, 4.854863175800136 ], [ 35.831767776696061, 4.859302032137088 ], [ 35.819813899100758, 4.864935450400679 ], [ 35.80847174837848, 4.87170914843761 ], [ 35.797850555640942, 4.879557858381249 ], [ 35.788052608780326, 4.888405956469803 ], [ 35.783929849061316, 4.892938159658595 ], [ 35.779719275447, 4.896740483246023 ], [ 35.770838934047681, 4.906502597811447 ], [ 35.762961720651816, 4.917084786252975 ], [ 35.756163497130537, 4.928385099441508 ], [ 35.750509734092645, 4.940294675025603 ], [ 35.746054880366863, 4.952698787146532 ], [ 35.742841838629815, 4.965477952477043 ], [ 35.740901552229872, 4.978509081886602 ], [ 35.740252707185739, 4.991666666603003 ], [ 35.740252707185739, 4.999999999936342 ], [ 35.740787023922472, 5.010834789799877 ] ] ] } },
{ "type": "Feature", "properties": { }, "geometry": { "type": "Polygon", "coordinates": [ [ [ 35.411622711700311, 6.007130183587525 ], [ 35.409508505299229, 6.015524156591912 ], [ 35.407568218935531, 6.028532322877361 ], [ 35.406919373890652, 6.041666666583061 ], [ 35.406919373890652, 6.049999999932587 ], [ 35.407568218935531, 6.063133822525086 ], [ 35.409508505299229, 6.076140843962786 ], [ 35.412721547035687, 6.088895812666262 ], [ 35.417176400776626, 6.101275912867419 ], [ 35.418664037926419, 6.104403431609129 ], [ 35.421054880339582, 6.113894004486959 ], [ 35.425509734080521, 6.126273526647571 ], [ 35.426887258347904, 6.12916941613402 ], [ 35.425509734080521, 6.132065289813813 ], [ 35.421054880339582, 6.144444390380343 ], [ 35.417841838603124, 6.157197729735967 ], [ 35.415901552239426, 6.170202463129029 ], [ 35.41525270719454, 6.183333333237707 ], [ 35.41525270719454, 6.208333333263167 ], [ 35.415901552239426, 6.221463254821933 ], [ 35.417841838603124, 6.234466404692847 ], [ 35.421054880339582, 6.247217568933268 ], [ 35.425509734080521, 6.259593968984285 ], [ 35.431163497096456, 6.271476443396717 ], [ 35.431919373892157, 6.272729998986098 ], [ 35.431919373892157, 6.274999999895359 ], [ 35.432568218937043, 6.288128248915976 ], [ 35.434508505300741, 6.30112973894771 ], [ 35.437721547037199, 6.313879272180952 ], [ 35.442176400778138, 6.326254086004135 ], [ 35.44783016379408, 6.338135034656181 ], [ 35.450205298266177, 6.342073471023636 ], [ 35.450509734082033, 6.342919104391668 ], [ 35.456163497097968, 6.354799669068752 ], [ 35.462961720613066, 6.366072004887817 ], [ 35.470838934061952, 6.37662759619828 ], [ 35.479719275437539, 6.386364833701171 ], [ 35.482332501907827, 6.388718620781058 ], [ 35.483843067387433, 6.392914133722968 ], [ 35.485323289124217, 6.396024328913992 ], [ 35.487721547040216, 6.405539028296624 ], [ 35.492176400781155, 6.417911633708457 ], [ 35.497830163797097, 6.429790457973141 ], [ 35.504628387312195, 6.441061139674397 ], [ 35.512505600671254, 6.451615179239243 ], [ 35.521385942136668, 6.461350983126283 ], [ 35.525494428321259, 6.465051031275742 ], [ 35.529719275440556, 6.469682767502889 ], [ 35.539517222343008, 6.478506478374489 ], [ 35.550138415016221, 6.486333329103292 ], [ 35.561480565802242, 6.493087990747079 ], [ 35.573434443335437, 6.498705456466688 ], [ 35.585884925457869, 6.503131665678187 ], [ 35.598712107111545, 6.506324023493921 ], [ 35.608033075727249, 6.507697751606351 ], [ 35.611480565805266, 6.509750779243136 ], [ 35.612995430981151, 6.510462637157147 ], [ 35.614517222347537, 6.511833011907898 ], [ 35.625138415020757, 6.519659344123599 ], [ 35.636480565806778, 6.526413557707739 ], [ 35.648434443339966, 6.532030650359789 ], [ 35.648818187998657, 6.532167065061183 ], [ 35.653147232414561, 6.534744943161768 ], [ 35.66510111003759, 6.540361942272391 ], [ 35.665484286871177, 6.54049815282466 ], [ 35.669813899112178, 6.543076326123829 ], [ 35.67132623211694, 6.543786946837551 ], [ 35.672850555654456, 6.545159510446503 ], [ 35.683471748417503, 6.552985321323361 ], [ 35.694813899113683, 6.559739084652604 ], [ 35.706767776736712, 6.565355802426537 ], [ 35.71921825876931, 6.56978142192307 ], [ 35.732045440422986, 6.572973354166112 ], [ 35.7451257888833, 6.574900883041695 ], [ 35.748586040518077, 6.575069756239394 ], [ 35.748586040518077, 6.583333333247928 ], [ 35.749204217797811, 6.595833490908812 ], [ 35.748586040518077, 6.608333333237092 ], [ 35.748586040518077, 6.624999999920341 ], [ 35.749234885562956, 6.638119176579982 ], [ 35.751175171926654, 6.651111663757445 ], [ 35.754388213663113, 6.663852351120654 ], [ 35.758843067404051, 6.676218562505819 ], [ 35.764496830419994, 6.688091236599586 ], [ 35.771295054024925, 6.699356072734458 ], [ 35.779172267383977, 6.709904629366472 ], [ 35.788052608759557, 6.719635367637538 ], [ 35.789891294766306, 6.721290404922609 ], [ 35.78951722226828, 6.72156592914537 ], [ 35.779719275455669, 6.730385152928097 ], [ 35.775455010710857, 6.735057598502836 ], [ 35.771385942151774, 6.738720122899753 ], [ 35.76250560068636, 6.748450283773667 ], [ 35.754628387327308, 6.758997774014202 ], [ 35.747830163812203, 6.770260965419844 ], [ 35.746822054098438, 6.772377566651813 ], [ 35.745838934078577, 6.773454702622875 ], [ 35.737961720629684, 6.784001646847002 ], [ 35.731163497114586, 6.795264254066306 ], [ 35.725509734098651, 6.807134012587288 ], [ 35.721054880357705, 6.819496568941103 ], [ 35.717841838621254, 6.832232830946513 ], [ 35.715901552257549, 6.845220115899761 ], [ 35.715493039429511, 6.853476240282369 ], [ 35.712721547053818, 6.861166633240621 ], [ 35.711442054316421, 6.866238046810256 ], [ 35.699999999821529, 6.866238046810256 ], [ 35.686792455486547, 6.866882237877132 ], [ 35.673712107116074, 6.868808602012307 ], [ 35.660884925462398, 6.871998571752698 ], [ 35.648434443339966, 6.87642140087388 ], [ 35.636480565806778, 6.882034461582472 ], [ 35.625138415020757, 6.888783655651452 ], [ 35.614517222347537, 6.896603937652944 ], [ 35.604719275445092, 6.905419942899583 ], [ 35.595838934069512, 6.915146715191653 ], [ 35.587961720620626, 6.925690526872701 ], [ 35.581163497105528, 6.936949783691692 ], [ 35.575509734089586, 6.948816005274319 ], [ 35.571054880348647, 6.961174871295497 ], [ 35.567841838612182, 6.973907324610776 ], [ 35.565901552248491, 6.986890718690788 ], [ 35.565252707203605, 6.999999999926447 ], [ 35.565252707203605, 7.041666666583111 ], [ 35.565901552248491, 7.054774404567135 ], [ 35.567841838612182, 7.067755542029027 ], [ 35.571054880348647, 7.080485078860671 ], [ 35.574540758852351, 7.090153059667321 ], [ 35.576175172005911, 7.101086992676989 ], [ 35.579388213742369, 7.113815608381903 ], [ 35.583843067393481, 7.126170081672668 ], [ 35.58949683049925, 7.138031466447039 ], [ 35.591847589904766, 7.141923058265946 ], [ 35.592176400787203, 7.142834892091555 ], [ 35.597830163803138, 7.154695844781623 ], [ 35.604628387318236, 7.165949540936724 ], [ 35.612505600677295, 7.176487649773854 ], [ 35.621385942142702, 7.186208736082492 ], [ 35.625430786821674, 7.189845957813683 ], [ 35.629719275446604, 7.194540346383025 ], [ 35.637806646971427, 7.201812542975034 ], [ 35.646385942144221, 7.211203561016304 ], [ 35.650428467013789, 7.214838496342285 ], [ 35.654719275448116, 7.219535165342152 ], [ 35.664517222350561, 7.228345016746156 ], [ 35.675138415023781, 7.236159558934159 ], [ 35.686480565809795, 7.242903586944487 ], [ 35.69843444334299, 7.248512201360876 ], [ 35.710884925465415, 7.252931431148785 ], [ 35.719838952409823, 7.255156346310311 ], [ 35.723434443344495, 7.256843268487851 ], [ 35.723765964623809, 7.256960938506874 ], [ 35.726991346607157, 7.258878668164238 ], [ 35.715378773725377, 7.26058742164524 ], [ 35.702551592161527, 7.263774688673482 ], [ 35.690101110039095, 7.268193768620963 ], [ 35.678147232416073, 7.273802067653 ], [ 35.671342660147531, 7.277847731061741 ], [ 35.660884925462398, 7.280446145487273 ], [ 35.648434443339966, 7.284865061216908 ], [ 35.644815128455129, 7.286563048730352 ], [ 35.635884925460886, 7.288781877897045 ], [ 35.623434443338454, 7.293200711511083 ], [ 35.611480565805266, 7.298808697704684 ], [ 35.607077330787689, 7.301426502333221 ], [ 35.606767776730671, 7.301536364404476 ], [ 35.594813899107642, 7.307144246081138 ], [ 35.583471748411462, 7.313887207548447 ], [ 35.572850555648408, 7.321700260475938 ], [ 35.569507189384801, 7.324705792996967 ], [ 35.541666666508576, 7.324705792996967 ], [ 35.528459122173594, 7.325349342716493 ], [ 35.515378773803121, 7.327273788646012 ], [ 35.502551592149445, 7.330460580788758 ], [ 35.490101110027005, 7.334879001975976 ], [ 35.478147232403984, 7.340486464397654 ], [ 35.466805081707804, 7.347228921326558 ], [ 35.45618388894475, 7.35504138906917 ], [ 35.446385942132139, 7.363848574964194 ], [ 35.437505600756559, 7.373565604030047 ], [ 35.429628387307666, 7.384098839259479 ], [ 35.422830163792568, 7.395346784852914 ], [ 35.417176400776626, 7.407201066313617 ], [ 35.412721547035687, 7.419547475629264 ], [ 35.409508505299229, 7.432267073424016 ], [ 35.407568218935531, 7.445237335343617 ], [ 35.406919373890652, 7.458333333246387 ], [ 35.406919373890652, 7.466666666571693 ], [ 35.407568218935531, 7.479762023007364 ], [ 35.409508505299229, 7.492730876617086 ], [ 35.412721547035687, 7.505448346528066 ], [ 35.415489839073352, 7.5131188508755 ], [ 35.415901552239426, 7.521427437014314 ], [ 35.417841838603124, 7.534395047910778 ], [ 35.421054880339582, 7.547111297124153 ], [ 35.425509734080521, 7.559453747000311 ], [ 35.431163497096456, 7.571303569396732 ], [ 35.437961720611561, 7.582546688623911 ], [ 35.445838934060447, 7.593074878536091 ], [ 35.454719275436027, 7.602786802458485 ], [ 35.464517222338472, 7.611588987412857 ], [ 35.475138415011692, 7.619396721798275 ], [ 35.486480565797713, 7.626134868806554 ], [ 35.498434443330908, 7.631738588209172 ], [ 35.49873670261865, 7.63184578036862 ], [ 35.503147232405496, 7.634465925038545 ], [ 35.515101110028517, 7.640069535245545 ], [ 35.527551592150949, 7.644484819556057 ], [ 35.540378773804626, 7.647669293687001 ], [ 35.550617082674698, 7.649174492050697 ], [ 35.560884925456357, 7.652815677819516 ], [ 35.573712107110033, 7.656000089757214 ], [ 35.579187702674261, 7.656805076569648 ], [ 35.579628387316731, 7.65753375833676 ], [ 35.587505600675783, 7.668060103728838 ], [ 35.596385942141197, 7.677770323984083 ], [ 35.606183888953815, 7.686570962916488 ], [ 35.616805081716862, 7.69437732437624 ], [ 35.628147232413049, 7.70111428549477 ], [ 35.640101110036078, 7.706717017962252 ], [ 35.65255159215851, 7.711131610062396 ], [ 35.665378773722352, 7.714315584763001 ], [ 35.678459122182659, 7.716238306655638 ], [ 35.691666666427807, 7.716881276040902 ], [ 35.693306907761098, 7.716881276040902 ], [ 35.694813899113683, 7.717776350757948 ], [ 35.706767776736712, 7.723378862495028 ], [ 35.71921825876931, 7.727793280720782 ], [ 35.732045440422986, 7.730977129890849 ], [ 35.7451257888833, 7.732899775864836 ], [ 35.758333333128448, 7.733542719888043 ], [ 35.785722023449196, 7.733542719888043 ], [ 35.788052608759557, 7.736090728808476 ], [ 35.797850555662002, 7.744890154861015 ], [ 35.80350878060996, 7.749048279886883 ], [ 35.806163497119115, 7.75460991317324 ], [ 35.81296172063422, 7.76584819032981 ], [ 35.820838934083106, 7.77637183950228 ], [ 35.829719275458686, 7.78607956942203 ], [ 35.839517222271297, 7.794877948608711 ], [ 35.850138415034351, 7.802682303575271 ], [ 35.861480565730538, 7.809417531379472 ], [ 35.873434443353567, 7.815018821122856 ], [ 35.885884925475992, 7.819432275879334 ], [ 35.898712107129668, 7.822615429820551 ], [ 35.908934040790086, 7.824117597464474 ], [ 35.919218258781399, 7.827763077347244 ], [ 35.932045440435076, 7.830946167682165 ], [ 35.945125788805548, 7.832868355354357 ], [ 35.958333333140537, 7.833511146063906 ], [ 35.974999999838147, 7.833511146063906 ], [ 35.988207544083309, 7.832868355354357 ], [ 35.99298560941768, 7.832166208529318 ], [ 35.997850555674091, 7.836534383417477 ], [ 36.008471748347304, 7.844337959108728 ], [ 36.019813899133325, 7.851072513846995 ], [ 36.03176777666652, 7.856673243402999 ], [ 36.044218258788952, 7.861086256487606 ], [ 36.057045440442629, 7.864269091724628 ], [ 36.068498314067135, 7.865951983763098 ], [ 36.072850555678627, 7.869859491908654 ], [ 36.083471748351847, 7.877662441281743 ], [ 36.094813899137861, 7.884396455005021 ], [ 36.106767776671049, 7.889996734369333 ], [ 36.119218258793481, 7.894409392348614 ], [ 36.132045440447158, 7.89759197141147 ], [ 36.14512578881763, 7.899513850239816 ], [ 36.158333333152619, 7.900156537653461 ], [ 36.168294795535338, 7.900156537653461 ], [ 36.16981389914239, 7.901058410707502 ], [ 36.181767776675578, 7.906658464132295 ], [ 36.182047597035684, 7.906757633596635 ], [ 36.186480565750173, 7.909389384822879 ], [ 36.198434443373202, 7.914989325144864 ], [ 36.210884925495634, 7.919401715971624 ], [ 36.223712107059477, 7.922584102197602 ], [ 36.233924509504888, 7.924084507171217 ], [ 36.244218258801041, 7.927732485072172 ], [ 36.257045440454711, 7.930914806884674 ], [ 36.27012578882519, 7.9328365302273 ], [ 36.277491337878246, 7.933194913641773 ], [ 36.281183888994597, 7.936509604166379 ], [ 36.291805081667817, 7.944311293075397 ], [ 36.303147232453838, 7.951044217936865 ], [ 36.315101109987026, 7.956643590969481 ], [ 36.327551592109458, 7.961055534528666 ], [ 36.340378773763142, 7.964237598014728 ], [ 36.350587167296936, 7.965737261834373 ], [ 36.360884925414865, 7.969386290131983 ], [ 36.373712107068542, 7.972568288868305 ], [ 36.386792455528848, 7.974489817051213 ], [ 36.399999999774003, 7.975132387217919 ], [ 36.408333333167725, 7.975132387217919 ], [ 36.41666666647162, 7.974726956093183 ], [ 36.424999999775508, 7.975132387217919 ], [ 36.458333333170742, 7.975132387217919 ], [ 36.471540877415897, 7.974489817051213 ], [ 36.484621225876204, 7.972568288868305 ], [ 36.49744840752988, 7.969386290131983 ], [ 36.509898889562486, 7.964974436306056 ], [ 36.5218527671855, 7.95937517708636 ], [ 36.526289904891399, 7.956741271088498 ], [ 36.526565556260103, 7.956643590969481 ], [ 36.538519433883131, 7.951044217936865 ], [ 36.549861584579311, 7.944311293075397 ], [ 36.560482777342358, 7.936509604166379 ], [ 36.570280724154976, 7.927714227457831 ], [ 36.579161065530556, 7.918009806550845 ], [ 36.58016710220214, 7.916666253309256 ], [ 36.584898889567015, 7.914989325144864 ], [ 36.596852767190036, 7.909389384822879 ], [ 36.60819491788623, 7.902655778355361 ], [ 36.618816110649277, 7.894853300363758 ], [ 36.628614057461888, 7.886057034994836 ], [ 36.637494398927302, 7.876351634630444 ], [ 36.645371612286354, 7.865830507567789 ], [ 36.647716923409675, 7.861954389857432 ], [ 36.657045440389055, 7.864269091724628 ], [ 36.670125788849361, 7.866191125299861 ], [ 36.677842981713589, 7.866566679135984 ], [ 36.685884925434507, 7.869417044477562 ], [ 36.698712107088177, 7.872599815860927 ], [ 36.711792455548483, 7.874521810721381 ], [ 36.722102056066973, 7.875023512814866 ], [ 36.721054880328303, 7.877922562251086 ], [ 36.717841838591838, 7.890628490411872 ], [ 36.715901552228146, 7.903584790086693 ], [ 36.715487292248405, 7.911937059517109 ], [ 36.712721547024408, 7.919593147685461 ], [ 36.70950850528795, 7.932297792812436 ], [ 36.707568218924251, 7.945252781972329 ], [ 36.706919373879373, 7.958333333286036 ], [ 36.706919373879373, 7.974999999916592 ], [ 36.707126070207536, 7.97916668787802 ], [ 36.706919373879373, 7.983333333277757 ], [ 36.706919373879373, 8.024999999974563 ], [ 36.707568218924251, 8.038077995477513 ], [ 36.70950850528795, 8.051029627353101 ], [ 36.712721547024408, 8.063730181451378 ], [ 36.716188044016533, 8.073322487101601 ], [ 36.717841838591838, 8.084360817762125 ], [ 36.721054880328303, 8.097060323897367 ], [ 36.725509734069234, 8.10938649700959 ], [ 36.731163497085177, 8.121220668336498 ], [ 36.737961720690109, 8.132448916115193 ], [ 36.740368223613281, 8.135661066220317 ], [ 36.740901552229658, 8.146407816381533 ], [ 36.74284183859335, 8.159355964208894 ], [ 36.746054880329808, 8.172053096515766 ], [ 36.750509734070754, 8.184376961972802 ], [ 36.756163497086696, 8.196208914575688 ], [ 36.762961720691628, 8.207435054274914 ], [ 36.77083893405068, 8.217947322589836 ], [ 36.775773062082401, 8.22333535596497 ], [ 36.776175171988591, 8.22601827908473 ], [ 36.779388213725049, 8.238713283061793 ], [ 36.783843067465988, 8.251035079716063 ], [ 36.789496830481923, 8.262865043018161 ], [ 36.791808236221982, 8.266681339952568 ], [ 36.792176400769883, 8.26769959829122 ], [ 36.797830163785818, 8.279529061877712 ], [ 36.798586040491685, 8.280777019926354 ], [ 36.798586040491685, 8.283333333314937 ], [ 36.799234885536571, 8.296402875873781 ], [ 36.801175171990103, 8.30934612322879 ], [ 36.804388213726554, 8.322038442541473 ], [ 36.8088430674675, 8.334357629630485 ], [ 36.814496830483435, 8.346185083994094 ], [ 36.81680508331651, 8.349995366088363 ], [ 36.817176400771388, 8.351022126712467 ], [ 36.822830163787323, 8.362849076180483 ], [ 36.826477432806499, 8.368869426725748 ], [ 36.829388213728066, 8.380366005525747 ], [ 36.833843067469012, 8.392683350418366 ], [ 36.835262799619002, 8.395652964398883 ], [ 36.837721547031961, 8.40536352028081 ], [ 36.840484591920223, 8.413002691412675 ], [ 36.840901552235692, 8.421398690346191 ], [ 36.842841838599398, 8.434337786217119 ], [ 36.846054880335849, 8.447026028338387 ], [ 36.850509734076795, 8.459341252235566 ], [ 36.851927157826005, 8.462305526810589 ], [ 36.854388213729578, 8.472023523459987 ], [ 36.858843067380683, 8.484337947597849 ], [ 36.860259620392888, 8.487300208762868 ], [ 36.862721547033473, 8.497021011099321 ], [ 36.867176400774412, 8.509334633311896 ], [ 36.872830163790347, 8.521156737320641 ], [ 36.879628387305452, 8.532373519892531 ], [ 36.887505600754338, 8.542877014805251 ], [ 36.896385942129918, 8.552566130030547 ], [ 36.900291634986601, 8.556066663231881 ], [ 36.904719275433813, 8.560897413023497 ], [ 36.914517222336251, 8.569678710110903 ], [ 36.919227774695628, 8.573133273585189 ], [ 36.921054880340385, 8.580345916981448 ], [ 36.923586040499245, 8.587340794984577 ], [ 36.923586040499245, 8.591666666615771 ], [ 36.92379306111922, 8.595833356190109 ], [ 36.923586040499245, 8.599999999961252 ], [ 36.923586040499245, 8.616666666630564 ], [ 36.924089276811237, 8.626794519422987 ], [ 36.922830163793371, 8.62887145018105 ], [ 36.917176400777436, 8.640689835664846 ], [ 36.916789156731561, 8.641759824883875 ], [ 36.914496830489476, 8.645540901944301 ], [ 36.908843067383707, 8.657358764791317 ], [ 36.908455156428566, 8.658430549329942 ], [ 36.906163497095754, 8.662210359031699 ], [ 36.900509734079819, 8.674027698241499 ], [ 36.896054880338873, 8.686335574272563 ], [ 36.892841838602415, 8.699015412826776 ], [ 36.890901552238716, 8.711945067984979 ], [ 36.890560922222093, 8.71879869022534 ], [ 36.889496830487964, 8.720553500562851 ], [ 36.888950346942572, 8.721695583800024 ], [ 36.888052608736189, 8.722499836634007 ], [ 36.883584295537354, 8.727372810103878 ], [ 36.879719275432301, 8.730835284080161 ], [ 36.875249995646215, 8.735709202810733 ], [ 36.871385942128406, 8.739170733444162 ], [ 36.862505600752826, 8.74885480273152 ], [ 36.85462838730394, 8.759352265003692 ], [ 36.847830163788842, 8.770561959467008 ], [ 36.8421764007729, 8.782375870563584 ], [ 36.841783445418109, 8.783461229190939 ], [ 36.839496830484947, 8.787231456317638 ], [ 36.838945297329673, 8.788383886028326 ], [ 36.838052608823006, 8.789183471712466 ], [ 36.829172267357592, 8.798866237087015 ], [ 36.82129505399854, 8.809362284498565 ], [ 36.814496830483435, 8.820570466069114 ], [ 36.8088430674675, 8.832382780837102 ], [ 36.804388213726554, 8.844685416793885 ], [ 36.801910157475724, 8.854460602785833 ], [ 36.800509734073771, 8.857386250567028 ], [ 36.796054880332832, 8.869688050448479 ], [ 36.792841838596381, 8.882361620381122 ], [ 36.790901552232675, 8.895284874174347 ], [ 36.790252707187797, 8.908333333259625 ], [ 36.790252707187797, 8.924999999969494 ], [ 36.790874340466083, 8.937500214373872 ], [ 36.790252707187797, 8.949999999900566 ], [ 36.790252707187797, 8.966666666640176 ], [ 36.790901552232675, 8.979712569437327 ], [ 36.7925355772242, 8.990593095963703 ], [ 36.789496830481923, 8.995600615934739 ], [ 36.783843067465988, 9.007407272287999 ], [ 36.783440844012745, 9.008517547167761 ], [ 36.781163497088201, 9.012270184508038 ], [ 36.779860377670687, 9.014991375261602 ], [ 36.771385942122365, 9.022577198413517 ], [ 36.762505600746785, 9.032253781810958 ], [ 36.754628387297892, 9.042743120297732 ], [ 36.747830163782794, 9.053944129302101 ], [ 36.742176400766859, 9.065748875056302 ], [ 36.737721547025913, 9.07804361737217 ], [ 36.734508505289462, 9.090709906326518 ], [ 36.732568218925756, 9.10362572512099 ], [ 36.731919373880878, 9.116666666608287 ], [ 36.731919373880878, 9.133333333266226 ], [ 36.732568218925756, 9.146373188748225 ], [ 36.734508505289462, 9.1592869922862 ], [ 36.737721547025913, 9.171950396800721 ], [ 36.742176400766859, 9.184241479300059 ], [ 36.747830163782794, 9.196041913965509 ], [ 36.754628387297892, 9.207238110401017 ], [ 36.762505600746785, 9.217722304715313 ], [ 36.771385942122365, 9.227393595913881 ], [ 36.781183888934983, 9.236158914153632 ], [ 36.79180508169803, 9.243933915051164 ], [ 36.80308441338606, 9.250606626081863 ], [ 36.804719275427772, 9.252386954949827 ], [ 36.80854388014852, 9.255808258688075 ], [ 36.813052608821494, 9.260718070697839 ], [ 36.815839523294322, 9.263211051844726 ], [ 36.815252707189302, 9.274999999902448 ], [ 36.815252707189302, 9.308333333291429 ], [ 36.815901552234187, 9.321366720166997 ], [ 36.817841838597886, 9.334274108878436 ], [ 36.821054880334344, 9.346931214237134 ], [ 36.825509734075283, 9.359216174527845 ], [ 36.831163497091218, 9.371010723980167 ], [ 36.837961720606323, 9.382201329524261 ], [ 36.845838934055209, 9.392680282608824 ], [ 36.854719275430796, 9.402346733689685 ], [ 36.858525630966383, 9.405750248949566 ], [ 36.863052608734684, 9.410677813546497 ], [ 36.866857941538314, 9.414080332408345 ], [ 36.871385942128406, 9.419008891497949 ], [ 36.881183888941024, 9.427769396270888 ], [ 36.891805081704078, 9.435540123783509 ], [ 36.903147232400258, 9.442246306596831 ], [ 36.915101110023286, 9.447823424267904 ], [ 36.919661118305591, 9.449432885722814 ], [ 36.920838934059745, 9.450999433721764 ], [ 36.929719275435318, 9.460664251403756 ], [ 36.939517222337763, 9.469423696807617 ], [ 36.95013841501099, 9.477193483825705 ], [ 36.961480565797004, 9.483898854370986 ], [ 36.973434443330198, 9.489475296094426 ], [ 36.985884925452631, 9.493869161016807 ], [ 36.998712107106307, 9.497038179887063 ], [ 37.01179245547678, 9.498951867595459 ], [ 37.024999999811769, 9.499591815481782 ], [ 37.058333333117169, 9.499591815481782 ], [ 37.071540877452158, 9.498951867595459 ], [ 37.08462122582263, 9.497038179887063 ], [ 37.097448407476307, 9.493869161016807 ], [ 37.109898889598739, 9.489475296094426 ], [ 37.121852767131926, 9.483898854370986 ], [ 37.13319491791794, 9.477193483825705 ], [ 37.14381611059116, 9.469423696807617 ], [ 37.153614057493613, 9.460664251403756 ], [ 37.158147187104646, 9.45573070564966 ], [ 37.161947390797508, 9.452333183372021 ], [ 37.166479492915514, 9.447400636548434 ], [ 37.17028072419123, 9.444002113392502 ], [ 37.179069064606985, 9.434436962480772 ], [ 37.18018610052868, 9.433915789598414 ], [ 37.191528251224867, 9.427209444756642 ], [ 37.202149443987913, 9.41943852972641 ], [ 37.211947390800525, 9.410677813546497 ], [ 37.220827732265938, 9.401011595284016 ], [ 37.228704945624997, 9.390532894223167 ], [ 37.234132405413881, 9.381598956568759 ], [ 37.241528251227884, 9.377225321589234 ], [ 37.25214944399093, 9.369453284370675 ], [ 37.261947390803542, 9.360691304169313 ], [ 37.263597642782699, 9.358894772533324 ], [ 37.274861584533291, 9.352233228446586 ], [ 37.285482777296338, 9.344460632351298 ], [ 37.295280724198783, 9.335698022639267 ], [ 37.304161065574363, 9.326029717165179 ], [ 37.312038278933414, 9.3155487558661 ], [ 37.314231170387202, 9.311938369375673 ], [ 37.316528251232413, 9.310579693108284 ], [ 37.327149443995467, 9.302806168837254 ], [ 37.336947390808078, 9.294042513644989 ], [ 37.34571286658457, 9.284498130163538 ], [ 37.346852767145528, 9.28396605990995 ], [ 37.358194917931542, 9.277256822794575 ], [ 37.368816110604762, 9.269482558851511 ], [ 37.378614057507207, 9.260718070697839 ], [ 37.387494398882787, 9.251047694565854 ], [ 37.388712940658657, 9.249426047357913 ], [ 37.396540877381959, 9.249046485379274 ], [ 37.409621225842265, 9.247131419386687 ], [ 37.422448407495949, 9.243960118726115 ], [ 37.434898889618374, 9.239563091353096 ], [ 37.446852767151569, 9.233982638058345 ], [ 37.451405562680804, 9.231289149455277 ], [ 37.451565556226164, 9.231232644283455 ], [ 37.463519433849186, 9.225652059100074 ], [ 37.474861584545373, 9.218941709617079 ], [ 37.485482777308427, 9.211166157817747 ], [ 37.495280724121031, 9.20240021895872 ], [ 37.504161065586445, 9.192728243673233 ], [ 37.512038278945504, 9.182243308488149 ], [ 37.518836502460609, 9.171046321975437 ], [ 37.524490265476544, 9.15924505544484 ], [ 37.526684812974551, 9.15318985628422 ], [ 37.527149444007549, 9.152849650154547 ], [ 37.53694739082016, 9.144082269668891 ], [ 37.541442139192029, 9.139186067655572 ], [ 37.545280724124062, 9.135751126077931 ], [ 37.554161065589469, 9.126077335645361 ], [ 37.562038278948521, 9.115590434794296 ], [ 37.568836502463625, 9.104391351588864 ], [ 37.574490265479568, 9.092587877967194 ], [ 37.578945119220499, 9.080293634383088 ], [ 37.581889694044406, 9.068685361912834 ], [ 37.583263664935849, 9.066421676795027 ], [ 37.59999999984651, 9.066421676795027 ], [ 37.613207544091658, 9.065780937636877 ], [ 37.626287892551971, 9.063864883958914 ], [ 37.639115074115814, 9.060691948313933 ], [ 37.651565556238246, 9.056292654954856 ], [ 37.663519433861275, 9.05070932744554 ], [ 37.674861584557455, 9.043995682557661 ], [ 37.685482777320502, 9.036216315243655 ], [ 37.695280724133127, 9.027446078658375 ], [ 37.699761678783972, 9.022563313643136 ], [ 37.703614057526842, 9.01911490723419 ], [ 37.712494398902429, 9.009437971631398 ], [ 37.720371612261488, 8.998947665007158 ], [ 37.727169835776579, 8.98774494905374 ], [ 37.732823598882355, 8.975937651458558 ], [ 37.737278452533467, 8.963639430261065 ], [ 37.740491494269918, 8.950968680746152 ], [ 37.74243178072345, 8.938047397372225 ], [ 37.743080625768336, 8.924999999969494 ], [ 37.743080625768336, 8.907206640438643 ], [ 37.746385942091443, 8.910809497695825 ], [ 37.756183888993888, 8.919582553870001 ], [ 37.766805081667108, 8.927364424580105 ], [ 37.778147232453129, 8.934080231644481 ], [ 37.790101109986324, 8.939665358612588 ], [ 37.802551592108756, 8.944066070536916 ], [ 37.81537877376244, 8.947240029731438 ], [ 37.828459122222739, 8.949156701589015 ], [ 37.841666666467887, 8.949797647528705 ], [ 37.858333333165511, 8.949797647528705 ], [ 37.871540877410666, 8.949156701589015 ], [ 37.874999999773294, 8.948649835170139 ], [ 37.878459122135929, 8.949156701589015 ], [ 37.891666666470911, 8.949797647528705 ], [ 37.899999999774799, 8.949797647528705 ], [ 37.913207544109788, 8.949156701589015 ], [ 37.926287892480268, 8.947240029731438 ], [ 37.939115074133937, 8.944066070536916 ], [ 37.951565556256377, 8.939665358612588 ], [ 37.963519433879398, 8.934080231644481 ], [ 37.968043390523569, 8.931401564039414 ], [ 37.968232222953986, 8.931334817921293 ], [ 37.980186100487181, 8.925749563400641 ], [ 37.991528251183368, 8.919033602959479 ], [ 38.002149443946415, 8.911251554580049 ], [ 38.011947390848867, 8.90247829839095 ], [ 38.013533822018658, 8.900749023462394 ], [ 38.024861584578602, 8.894041123808407 ], [ 38.035482777341656, 8.886258543762862 ], [ 38.045280724154274, 8.877484688552908 ], [ 38.049744217711947, 8.872618945154292 ], [ 38.053614057458169, 8.869153481352432 ], [ 38.058076590177812, 8.864288674966646 ], [ 38.061947390851884, 8.860822272040496 ], [ 38.070827732227471, 8.851141132122757 ], [ 38.077715299395948, 8.84196480102314 ], [ 38.085482777254839, 8.836272463217382 ], [ 38.095280724157291, 8.827497415239323 ], [ 38.104161065532871, 8.817815399526495 ], [ 38.112038278981764, 8.807319592071723 ], [ 38.118836502496855, 8.796111008818306 ], [ 38.11937672990512, 8.794982226067033 ], [ 38.120280724158803, 8.794172526459066 ], [ 38.129161065534376, 8.784489638403327 ], [ 38.137038278983262, 8.773992886262446 ], [ 38.143836502498374, 8.762783295403814 ], [ 38.145215905861654, 8.759900823523111 ], [ 38.146852767193863, 8.759135675633789 ], [ 38.15819491789005, 8.75241667746805 ], [ 38.160316310723573, 8.750861663409394 ], [ 38.168232222876242, 8.748062265025089 ], [ 38.180186100499263, 8.742474232263669 ], [ 38.184692158121571, 8.739804775273083 ], [ 38.184898889573866, 8.739731664454496 ], [ 38.196852767196887, 8.734143506767277 ], [ 38.208194917893067, 8.727424057841318 ], [ 38.218816110656121, 8.719637970600905 ], [ 38.228614057468739, 8.710860165258852 ], [ 38.237494398934153, 8.701175110363668 ], [ 38.245371612293205, 8.690676012041669 ], [ 38.252169835808303, 8.679463918760536 ], [ 38.257823598824245, 8.66764675054025 ], [ 38.262278452565191, 8.655338262254631 ], [ 38.265491494301635, 8.64265694952347 ], [ 38.265922534271894, 8.639784099292788 ], [ 38.270280724167868, 8.635878869750975 ], [ 38.278950407734712, 8.626421678158579 ], [ 38.280186100505311, 8.625843850127943 ], [ 38.291528251201498, 8.619122462678238 ], [ 38.302149443964545, 8.611334131058646 ], [ 38.311947390866997, 8.60255379778023 ], [ 38.316379670932996, 8.597718516394419 ], [ 38.320280724170885, 8.594222524789066 ], [ 38.329161065546465, 8.584534470927666 ], [ 38.331716627362034, 8.58112728349003 ], [ 38.334621225808327, 8.580701249904457 ], [ 38.347448407462004, 8.577524159442603 ], [ 38.359898889584436, 8.573119107862569 ], [ 38.371852767207457, 8.567528476463597 ], [ 38.383194917903644, 8.560806055136867 ], [ 38.393816110666698, 8.553016526527943 ], [ 38.395517945885757, 8.551491224092919 ], [ 38.396852767208962, 8.550866918743933 ], [ 38.408194917905163, 8.544144203302427 ], [ 38.418816110668203, 8.536354334178267 ], [ 38.420516269002121, 8.534830468041095 ], [ 38.421852767210481, 8.534205351169717 ], [ 38.426339832022229, 8.531545677780674 ], [ 38.426565556285077, 8.531465806034937 ], [ 38.438519433818264, 8.525874563591707 ], [ 38.449861584604285, 8.519151408043681 ], [ 38.460482777277505, 8.511361029381545 ], [ 38.462180427065995, 8.509839312226125 ], [ 38.463519433819776, 8.5092129810626 ], [ 38.474861584515963, 8.502489532820697 ], [ 38.485482777279017, 8.494698815201025 ], [ 38.495280724181463, 8.485915794791689 ], [ 38.499700073178609, 8.481093145944044 ], [ 38.50361405748535, 8.477584493890966 ], [ 38.512494398860937, 8.467893481114688 ], [ 38.520371612309823, 8.457387931582906 ], [ 38.527169835824928, 8.446168957647018 ], [ 38.532823598840864, 8.434344547127502 ], [ 38.537278452581802, 8.42202852599255 ], [ 38.54049149431826, 8.40933946351339 ], [ 38.542431780681959, 8.396399532418915 ], [ 38.543080625726837, 8.383333333303428 ], [ 38.543080625726837, 8.349999999897683 ], [ 38.542431780681959, 8.336932244438238 ], [ 38.54049149431826, 8.323989908034358 ], [ 38.537278452581802, 8.311297651915863 ], [ 38.532823598840864, 8.298977740007404 ], [ 38.527169835824928, 8.287148861011294 ], [ 38.526102160172144, 8.285386148066417 ], [ 38.525765114074176, 8.27859696660936 ], [ 38.523824827620643, 8.265652707478456 ], [ 38.520611785884185, 8.252958568500604 ], [ 38.516156932143247, 8.240636831793934 ], [ 38.510503169127304, 8.22880620335806 ], [ 38.503704945612206, 8.2175806678967 ], [ 38.495827732253147, 8.20706838996159 ], [ 38.486947390787734, 8.197370669160543 ], [ 38.483022469941567, 8.193849658807798 ], [ 38.478614057483846, 8.189035349397026 ], [ 38.46881611067122, 8.180245459274282 ], [ 38.45819491790818, 8.172448317580173 ], [ 38.446852767211993, 8.165719075315817 ], [ 38.445501333254398, 8.165086374518339 ], [ 38.443816110669715, 8.163574458264684 ], [ 38.43597617910175, 8.157818847235392 ], [ 38.429161065552506, 8.148722611801338 ], [ 38.420280724176934, 8.139023472548329 ], [ 38.410482777274481, 8.130232482333867 ], [ 38.402708318068534, 8.124524462150214 ], [ 38.399490265529415, 8.115620778141482 ], [ 38.398063721274958, 8.112634798996865 ], [ 38.395611785876632, 8.102943966925551 ], [ 38.391156932135686, 8.090617596552192 ], [ 38.385503169119751, 8.07878252557761 ], [ 38.378704945604653, 8.067552780887622 ], [ 38.370827732245601, 8.057036566225772 ], [ 38.361947390780188, 8.047335218392361 ], [ 38.358006319842175, 8.043798398598307 ], [ 38.353614057476292, 8.038999934538243 ], [ 38.349672098194297, 8.035462244796777 ], [ 38.345280724172397, 8.030664652694538 ], [ 38.335482777269952, 8.021871301651135 ], [ 38.324861584596732, 8.014071093041471 ], [ 38.313519433810711, 8.007339206266828 ], [ 38.301565556277524, 8.001740527650494 ], [ 38.290161993604414, 7.997699973737596 ], [ 38.287038278992334, 7.992539027956747 ], [ 38.279161065543448, 7.982020872019193 ], [ 38.270280724167868, 7.972317735485768 ], [ 38.266331692359813, 7.968773118556976 ], [ 38.261947390863973, 7.963982469660706 ], [ 38.257997479156089, 7.960436990728374 ], [ 38.253614057470244, 7.955647205718403 ], [ 38.243816110657633, 7.946852238833921 ], [ 38.233194917894586, 7.939050598191623 ], [ 38.2307734576626, 7.937613138825613 ], [ 38.228704945595581, 7.934195085655142 ], [ 38.220827732236529, 7.923675432303663 ], [ 38.211947390860949, 7.91397091621926 ], [ 38.20950482722666, 7.911778184285976 ], [ 38.209098447358421, 7.903584790086693 ], [ 38.20715816099473, 7.890628490411872 ], [ 38.203945119258272, 7.877922562251086 ], [ 38.199490265517333, 7.865589399936022 ], [ 38.193836502501391, 7.853747817453487 ], [ 38.187038278986293, 7.842511903183392 ], [ 38.1791610655374, 7.831989918796994 ], [ 38.170280724161827, 7.82228325495544 ], [ 38.169318680954149, 7.821419422375697 ], [ 38.168836502499879, 7.82040942466713 ], [ 38.162038278984781, 7.809172611126688 ], [ 38.154161065535895, 7.798649785772215 ], [ 38.145280724160315, 7.788942347213162 ], [ 38.135482777257863, 7.780143843281136 ], [ 38.124861584584643, 7.772339068532168 ], [ 38.113519433798622, 7.765603244604749 ], [ 38.11343614416144, 7.765564212770172 ], [ 38.111947390854908, 7.763936687283378 ], [ 38.10797664523929, 7.76037078880409 ], [ 38.103614057461186, 7.755601471289369 ], [ 38.099642455301947, 7.752034732817496 ], [ 38.099216459282182, 7.751569013781479 ], [ 38.098824827684794, 7.748952965348801 ], [ 38.095611785948336, 7.736242725150917 ], [ 38.091156932207397, 7.723905383883301 ], [ 38.085503169101621, 7.712059795369669 ], [ 38.07870494558653, 7.700820085392308 ], [ 38.070827732227471, 7.690294551593383 ], [ 38.061947390851884, 7.680584617531419 ], [ 38.052149443949439, 7.671783854615375 ], [ 38.041528251186392, 7.663977077990274 ], [ 38.030186100490212, 7.657239528059903 ], [ 38.018232222867184, 7.651636143277604 ], [ 38.010220684333859, 7.64879508357283 ], [ 38.008194917880985, 7.647306037850947 ], [ 37.996852767184798, 7.640568224432103 ], [ 37.986560987714419, 7.63574376469692 ], [ 37.991156932201349, 7.62611251286721 ], [ 37.995611785942295, 7.613771975407492 ], [ 37.998824827678753, 7.601057693294831 ], [ 38.000468771059154, 7.590072367833395 ], [ 38.00394511924619, 7.580441642819965 ], [ 38.007158160982641, 7.567726375005604 ], [ 38.009098447346346, 7.55475976321681 ], [ 38.009747292391225, 7.541666666571764 ], [ 38.009747292391225, 7.508333333248061 ], [ 38.009098447346346, 7.495238835150857 ], [ 38.007158160982641, 7.482270056062728 ], [ 38.00394511924619, 7.469551909953974 ], [ 37.999490265505237, 7.45720690737578 ], [ 37.993836502489309, 7.445353974395366 ], [ 37.987038278974211, 7.434107306329826 ], [ 37.979161065525325, 7.423575265705178 ], [ 37.971661841768082, 7.415370423732826 ], [ 37.970611785940775, 7.411213406176786 ], [ 37.967352071155759, 7.402179129047028 ], [ 37.97714944394491, 7.39497339802059 ], [ 37.986947390847362, 7.386166831453444 ], [ 37.989825314180607, 7.383017869032369 ], [ 37.993232222865664, 7.38180896243118 ], [ 38.005186100488693, 7.376202022246011 ], [ 38.016528251184887, 7.369460005602273 ], [ 38.027149443947927, 7.361647791746611 ], [ 38.036947390850379, 7.352840562164649 ], [ 38.041250712726772, 7.348131596659004 ], [ 38.045280724154274, 7.344508989855854 ], [ 38.054161065529847, 7.334791324755622 ], [ 38.06203827897874, 7.324256919522381 ], [ 38.068836502493838, 7.313007172553373 ], [ 38.074490265509773, 7.301150375542791 ], [ 38.078945119250719, 7.288800672857438 ], [ 38.08215816098717, 7.276076963726509 ], [ 38.084098447350875, 7.263101758567965 ], [ 38.084747292395754, 7.249999999899791 ], [ 38.084747292395754, 7.224999999965215 ], [ 38.084540960783599, 7.220833352459704 ], [ 38.084747292395754, 7.21666666656337 ], [ 38.084747292395754, 7.199999999913814 ], [ 38.084098447350875, 7.186896411925833 ], [ 38.08215816098717, 7.173918646108638 ], [ 38.078945119250719, 7.161191702306047 ], [ 38.074490265509773, 7.148838174700177 ], [ 38.068836502493838, 7.136977069983121 ], [ 38.06203827897874, 7.125722660371319 ], [ 38.054161065529847, 7.115183380892776 ], [ 38.045280724154274, 7.105460783599793 ], [ 38.044272584616436, 7.104554075523874 ], [ 38.043836502492326, 7.103639135625482 ], [ 38.037038278977228, 7.092383908527789 ], [ 38.036014617180101, 7.091014219604419 ], [ 38.032823598810651, 7.082164048945132 ], [ 38.027169835794709, 7.070301222538943 ], [ 38.024820427724876, 7.06641126194434 ], [ 38.024490265506756, 7.065495528329029 ], [ 38.023030748499963, 7.062433062316436 ], [ 38.0206117859438, 7.052849193506993 ], [ 38.016156932202868, 7.040492755475876 ], [ 38.010503169097092, 7.028628861172617 ], [ 38.009638536773366, 7.027197147589376 ], [ 38.009747292391225, 7.024999999934613 ], [ 38.009747292391225, 7.016666666582133 ], [ 38.009098447346346, 7.003557853683574 ], [ 38.007158160982641, 6.990574922583321 ], [ 38.00394511924619, 6.977842922468246 ], [ 37.999490265505237, 6.965484495562563 ], [ 37.993836502489309, 6.953618694861823 ], [ 37.987038278974211, 6.94235983673533 ], [ 37.979161065525325, 6.931816397829103 ], [ 37.978186306305467, 6.930748776759768 ], [ 37.977169835791692, 6.928615330049712 ], [ 37.970371612276587, 6.91735587424189 ], [ 37.962494398917535, 6.906811876508164 ], [ 37.959541797736392, 6.903577812969604 ], [ 37.957823598806115, 6.898810560316714 ], [ 37.95216983579018, 6.886943082115196 ], [ 37.945371612275082, 6.875682634937618 ], [ 37.937494398916023, 6.865137710287994 ], [ 37.928614057450609, 6.855409912862434 ], [ 37.924555469985101, 6.851757708845223 ], [ 37.920280724146721, 6.847074914823769 ], [ 37.912161285910351, 6.839768314417983 ], [ 37.903614057449097, 6.830404924798569 ], [ 37.89955320847487, 6.826750494402309 ], [ 37.895280724145209, 6.822069932818401 ], [ 37.89425560087895, 6.821147392716549 ], [ 37.893836502483261, 6.820267554865088 ], [ 37.89275808720177, 6.818481056415354 ], [ 37.892431780732508, 6.811885868075252 ], [ 37.891278681764085, 6.804167118544346 ], [ 37.892431780732508, 6.796448244850775 ], [ 37.893080625777394, 6.783333333282268 ], [ 37.893080625777394, 6.749999999953304 ], [ 37.892431780732508, 6.736883826709978 ], [ 37.890491494278983, 6.723893619893147 ], [ 37.887278452542525, 6.711154497906906 ], [ 37.882823598801579, 6.698789170611305 ], [ 37.881353664571435, 6.695702463450927 ], [ 37.87894511923863, 6.686152501238624 ], [ 37.874490265497691, 6.673786540774135 ], [ 37.868836502481749, 6.661913519771014 ], [ 37.862038278966651, 6.650647822068946 ], [ 37.859177680811463, 6.646816692209015 ], [ 37.859098447337274, 6.645214695605679 ], [ 37.857158160973583, 6.632222052630384 ], [ 37.853945119237117, 6.619480546328105 ], [ 37.849490265496186, 6.607112908926684 ], [ 37.843836502480244, 6.595238280667569 ], [ 37.837038278965139, 6.583971060744771 ], [ 37.829161065516253, 6.573419803935771 ], [ 37.826191243720956, 6.570164640938839 ], [ 37.824490265494667, 6.565441924210682 ], [ 37.823016683206156, 6.562346719182381 ], [ 37.820611785931725, 6.552808643953819 ], [ 37.816156932190772, 6.540439346364041 ], [ 37.810503169174837, 6.528563127109515 ], [ 37.803704945659739, 6.51729440004806 ], [ 37.795827732210853, 6.506741734381077 ], [ 37.786947390835273, 6.497006806395635 ], [ 37.782857190127785, 6.493323459216609 ], [ 37.778614057531378, 6.488671894445555 ], [ 37.770431511747979, 6.481303120157363 ], [ 37.763287402173532, 6.47347112701655 ], [ 37.762278452534972, 6.469468839966315 ], [ 37.760183165821587, 6.463650162673558 ], [ 37.76050316917182, 6.463119662804274 ], [ 37.766156932187755, 6.451241618458653 ], [ 37.7706117859287, 6.438869824044882 ], [ 37.773824827665152, 6.42612339546343 ], [ 37.775765114028857, 6.413125064976966 ], [ 37.776413959073736, 6.399999999956836 ], [ 37.776413959073736, 6.383333333295627 ], [ 37.775765114028857, 6.370207503662292 ], [ 37.773824827665152, 6.357207752155007 ], [ 37.7706117859287, 6.34445928829146 ], [ 37.766156932187755, 6.332084910586998 ], [ 37.76050316917182, 6.320203822780872 ], [ 37.753704945656715, 6.308930484659911 ], [ 37.745827732207829, 6.298373508078634 ], [ 37.736947390832256, 6.288634609679761 ], [ 37.727149443929797, 6.279807629060112 ], [ 37.716528251256584, 6.271977623454256 ], [ 37.712274780398729, 6.269443444656698 ], [ 37.707823598880843, 6.257077479592971 ], [ 37.702169835775067, 6.245194677603809 ], [ 37.695371612259969, 6.233919715967664 ], [ 37.68749439890091, 6.223361221670631 ], [ 37.678614057525337, 6.213620925425142 ], [ 37.668816110622892, 6.204792679721323 ], [ 37.658194917859838, 6.196961553408377 ], [ 37.646852767163651, 6.190203010755558 ], [ 37.634898889540629, 6.184582182584113 ], [ 37.634507831876874, 6.184443074250541 ], [ 37.630186100466034, 6.18186779703302 ], [ 37.618232222932846, 6.176246880271898 ], [ 37.605781740810414, 6.171817865532883 ], [ 37.59295455915673, 6.168623437069384 ], [ 37.582612430372315, 6.167098207472701 ], [ 37.572448407505, 6.16348249613042 ], [ 37.55962122585133, 6.160288017459733 ], [ 37.555901041209374, 6.159739366481162 ], [ 37.549861584549902, 6.15528604141818 ], [ 37.538519433853715, 6.148526967059164 ], [ 37.526565556230693, 6.142905697129215 ], [ 37.523063128962825, 6.141659702828302 ], [ 37.52028072412255, 6.138607403441911 ], [ 37.510482777309932, 6.129777907789472 ], [ 37.507097132286638, 6.127281292695643 ], [ 37.504161065586445, 6.123345066373497 ], [ 37.495280724121031, 6.113602932218771 ], [ 37.491158597018853, 6.109888089302937 ], [ 37.486947390817143, 6.105268112506049 ], [ 37.477149444004525, 6.096438066179746 ], [ 37.466528251241478, 6.088605344772022 ], [ 37.455186100545291, 6.081845427123078 ], [ 37.443232222922269, 6.076223456567297 ], [ 37.430781740799837, 6.071793612166571 ], [ 37.41795455914616, 6.068598585680367 ], [ 37.416284216525341, 6.068352202244982 ], [ 37.411947390812614, 6.063594043926058 ], [ 37.407821243480043, 6.059875231944164 ], [ 37.403614057508719, 6.05525923616598 ], [ 37.399487243177049, 6.051539765577863 ], [ 37.39528072411499, 6.04692443047878 ], [ 37.394212713480442, 6.045961827205376 ], [ 37.393836502453055, 6.045170819532363 ], [ 37.387038278937951, 6.033891623017031 ], [ 37.379161065578899, 6.023329169973413 ], [ 37.370280724203319, 6.013585227690029 ], [ 37.360482777300867, 6.004753682429969 ], [ 37.34986158453782, 5.996919633300515 ], [ 37.338519433841633, 5.990158571081193 ], [ 37.326565556218604, 5.984535649512054 ], [ 37.314115074186006, 5.980105056539924 ], [ 37.301287892532329, 5.976909490422252 ], [ 37.288207544072023, 5.974979748080044 ], [ 37.274999999826875, 5.974334427540152 ], [ 37.258333333129251, 5.974334427540152 ], [ 37.254166666477303, 5.97453801096549 ], [ 37.249999999825363, 5.974334427540152 ], [ 37.241666666431641, 5.974334427540152 ], [ 37.228459122186479, 5.974979748080044 ], [ 37.215378773726172, 5.976909490422252 ], [ 37.20255159216233, 5.980105056539924 ], [ 37.190101110039905, 5.984535649512054 ], [ 37.178147232416876, 5.990158571081193 ], [ 37.166805081720689, 5.996919633300515 ], [ 37.156183888957642, 6.004753682429969 ], [ 37.147426806140849, 6.012647034034842 ], [ 37.144218258765591, 6.013446311464029 ], [ 37.131767776732985, 6.017876633598197 ], [ 37.12824760252802, 6.019532374512666 ], [ 37.119218258764079, 6.021781631979016 ], [ 37.106767776731473, 6.026211886146891 ], [ 37.103247011884207, 6.027867879478944 ], [ 37.094218258762567, 6.030116955275508 ], [ 37.081767776729961, 6.034547141383309 ], [ 37.06981389910694, 6.040169545962536 ], [ 37.05847174841076, 6.046929986017281 ], [ 37.047850555647699, 6.054763313373257 ], [ 37.044295773756595, 6.057967197309557 ], [ 37.036792455478292, 6.058333753131092 ], [ 37.023712107107812, 6.06026319946528 ], [ 37.010884925454143, 6.063458275347093 ], [ 36.99843444333171, 6.067888188276791 ], [ 36.986480565798516, 6.073510245875284 ], [ 36.982317172787127, 6.075991674867023 ], [ 36.978614057483043, 6.071928853578572 ], [ 36.968816110670424, 6.063098259568727 ], [ 36.95819491790737, 6.055265053088667 ], [ 36.946852767211183, 6.048504717228887 ], [ 36.934898889588162, 6.042882399126991 ], [ 36.934498460160377, 6.042739919339512 ], [ 36.930186100513566, 6.040169545962536 ], [ 36.918232222890552, 6.034547141383309 ], [ 36.90578174085794, 6.030116955275508 ], [ 36.89295455920427, 6.026921682487644 ], [ 36.879874210743964, 6.024992117206469 ], [ 36.866666666498809, 6.024346855864477 ], [ 36.858333333105087, 6.024346855864477 ], [ 36.852996789650149, 6.024607575518582 ], [ 36.845827732243279, 6.014994523656577 ], [ 36.836947390867707, 6.005250432036203 ], [ 36.827149443965247, 5.996418751630933 ], [ 36.8165282512022, 5.988584582696914 ], [ 36.805186100506013, 5.981823417284383 ], [ 36.803338785192814, 5.980954458867656 ], [ 36.802169835810524, 5.978496371195801 ], [ 36.80187150988607, 5.978001351315261 ], [ 36.80394511926351, 5.972237486434485 ], [ 36.807158160999968, 5.959479776757548 ], [ 36.80909844736366, 5.946469966048185 ], [ 36.809747292408552, 5.933333333274455 ], [ 36.809747292408552, 5.924999999978521 ], [ 36.809541499336405, 5.920833349008518 ], [ 36.809747292408552, 5.916666666614269 ], [ 36.809747292408552, 5.908333333272417 ], [ 36.809594424569504, 5.905238158705169 ], [ 36.811947390866187, 5.903116867231597 ], [ 36.820306704526082, 5.89394261791005 ], [ 36.82861405747397, 5.886453024052164 ], [ 36.832792773049164, 5.881866813744285 ], [ 36.836947390867707, 5.878121099382977 ], [ 36.845827732243279, 5.868374584906501 ], [ 36.853704945602338, 5.857808953459605 ], [ 36.860503169117436, 5.846525914834824 ], [ 36.866156932223205, 5.83463409117851 ], [ 36.870611785874317, 5.822247972807212 ], [ 36.872995567349676, 5.812780396351316 ], [ 36.874490265527093, 5.809636363450573 ], [ 36.878945119268039, 5.797249694626306 ], [ 36.882158161004497, 5.784487972654659 ], [ 36.884098447368196, 5.771474079393332 ], [ 36.884747292413081, 5.758333333249658 ], [ 36.884747292413081, 5.749999999950611 ], [ 36.884098447368196, 5.736858757502088 ], [ 36.882158161004497, 5.723843774044894 ], [ 36.878945119268039, 5.711080404389092 ], [ 36.874490265527093, 5.69869158832551 ], [ 36.868836502511158, 5.686796665667862 ], [ 36.86203827899606, 5.675510225437582 ], [ 36.854161065547174, 5.664941001763339 ], [ 36.845280724171594, 5.655190824250836 ], [ 36.841105627279866, 5.651425142179603 ], [ 36.841156932221693, 5.651317194258501 ], [ 36.845611785872805, 5.63892709407649 ], [ 36.848824827609263, 5.626161844499952 ], [ 36.850435005474097, 5.615359098212875 ], [ 36.853945119266527, 5.605595982372101 ], [ 36.857158161002985, 5.592830002560558 ], [ 36.859098447366684, 5.579811777031948 ], [ 36.85950091345488, 5.571658152167674 ], [ 36.862278452570422, 5.563932074187637 ], [ 36.86549149430688, 5.551165187746919 ], [ 36.867431780670579, 5.538146039714007 ], [ 36.868080625715457, 5.524999999979054 ], [ 36.868080625715457, 5.516666666579767 ], [ 36.867431780670579, 5.503520150484467 ], [ 36.86549149430688, 5.490499955976637 ], [ 36.862278452570422, 5.477731487801632 ], [ 36.857823598829484, 5.465337734010759 ], [ 36.852169835813541, 5.453438080570831 ], [ 36.845371612298436, 5.442147161039511 ], [ 36.83749439884955, 5.43157375075135 ], [ 36.82861405747397, 5.421819718188861 ], [ 36.818816110661359, 5.412979042285884 ], [ 36.817488527423713, 5.411998829429328 ], [ 36.81808062571244, 5.399999999974406 ], [ 36.81808062571244, 5.391666666575878 ], [ 36.817431780667555, 5.378517414949878 ], [ 36.815491494303856, 5.36549451768491 ], [ 36.812278452567398, 5.352723405277889 ], [ 36.807823598826467, 5.340327090794391 ], [ 36.8063199756172, 5.337161737728502 ], [ 36.80394511926351, 5.327721811050971 ], [ 36.799490265522564, 5.315324991420944 ], [ 36.793836502506636, 5.303422401150135 ], [ 36.787038278991524, 5.292128700833943 ], [ 36.779161065542645, 5.281552691930157 ], [ 36.770280724167058, 5.271796266579252 ], [ 36.761909356643201, 5.264240949642171 ], [ 36.753614057469441, 5.255127034313922 ], [ 36.743816110656823, 5.24628395662847 ], [ 36.733194917893776, 5.23843969273807 ], [ 36.721852767197596, 5.231669826150437 ], [ 36.709898889574568, 5.226039590542908 ], [ 36.697448407452136, 5.221603239454747 ], [ 36.684621225888293, 5.218403523180084 ], [ 36.671540877427979, 5.216471275870366 ], [ 36.658333333092997, 5.215825117812694 ], [ 36.649999999789109, 5.215825117812694 ], [ 36.64961981236911, 5.21584371788744 ], [ 36.645371612286354, 5.208785332663753 ], [ 36.638622098031078, 5.199722182155993 ], [ 36.637278452556821, 5.194380100276597 ], [ 36.634499607919693, 5.186645596567535 ], [ 36.63409844735309, 5.178513168262867 ], [ 36.632158160989391, 5.165486075621119 ], [ 36.628945119252933, 5.152710858902978 ], [ 36.624490265511994, 5.140310569978155 ], [ 36.618836502496059, 5.12840465634786 ], [ 36.612038278980954, 5.117107809842858 ], [ 36.604161065532061, 5.10652886067906 ], [ 36.595280724156481, 5.096769728384757 ], [ 36.591083349674527, 5.092980480590344 ], [ 36.586947390852593, 5.088435153399704 ], [ 36.582749455642237, 5.084645350234437 ], [ 36.578614057458871, 5.080100580425777 ], [ 36.568816110646253, 5.071255061439796 ], [ 36.558194917883199, 5.063408635392047 ], [ 36.546852767187019, 5.056636905594369 ], [ 36.534898889563991, 5.051005122214836 ], [ 36.530795166157205, 5.049542486760767 ], [ 36.528172369035886, 5.047174543635077 ], [ 36.527169835793906, 5.045063080640293 ], [ 36.520371612278801, 5.033764772869248 ], [ 36.512494398919749, 5.023184458412139 ], [ 36.503614057454335, 5.01342406897608 ], [ 36.499411119346497, 5.009629310408417 ], [ 36.49528072415044, 5.005089514113301 ], [ 36.485482777337829, 4.996242974127097 ], [ 36.474861584574782, 4.988395643896742 ], [ 36.463519433878588, 4.981623134890209 ], [ 36.451565556255566, 4.97599070427132 ], [ 36.439115074133134, 4.971552625323064 ], [ 36.426287892479465, 4.968351663761148 ], [ 36.413207544108985, 4.966418664824218 ], [ 36.399999999774003, 4.965772255480231 ], [ 36.391666666470108, 4.965772255480231 ], [ 36.378459122224953, 4.966418664824218 ], [ 36.366666666468596, 4.968161340685 ], [ 36.354874210802073, 4.966418664824218 ], [ 36.341666666467084, 4.965772255480231 ], [ 36.308333333161684, 4.965772255480231 ], [ 36.304166666509737, 4.965976182383756 ], [ 36.299999999767962, 4.965772255480231 ], [ 36.266666666462555, 4.965772255480231 ], [ 36.253459122217407, 4.966418664824218 ], [ 36.240378773757094, 4.968351663761148 ], [ 36.227551592103424, 4.971552625323064 ], [ 36.226413959069909, 4.971958145436592 ], [ 36.226413959069909, 4.966666666633161 ], [ 36.225765114025023, 4.953508582345299 ], [ 36.223824827661332, 4.940476959557367 ], [ 36.220611785924866, 4.927697311585009 ], [ 36.216156932183928, 4.915292732159249 ], [ 36.210503169167993, 4.903382709004999 ], [ 36.203704945652888, 4.892081972193858 ], [ 36.195827732204002, 4.881499387882684 ], [ 36.186947390828422, 4.871736908953438 ], [ 36.177149443925977, 4.862888591301829 ], [ 36.166528251252757, 4.855039686853576 ], [ 36.155186100466736, 4.848265821255921 ], [ 36.143232222933548, 4.842632263832886 ], [ 36.130781740811116, 4.838193297926333 ], [ 36.11795455915744, 4.834991697143141 ], [ 36.10487421078696, 4.833058312394442 ], [ 36.091666666451985, 4.832411774065986 ], [ 36.074999999844202, 4.832411774065986 ], [ 36.061792455509206, 4.833058312394442 ], [ 36.048712107138734, 4.834991697143141 ], [ 36.035884925485057, 4.838193297926333 ], [ 36.025336092736801, 4.841954271370883 ], [ 36.021540877388702, 4.841393313185415 ], [ 36.008333333143554, 4.840746782815856 ], [ 35.991666666445937, 4.840746782815856 ], [ 35.978459122200789, 4.841393313185415 ], [ 35.965378773740483, 4.843326674127781 ], [ 35.952551592086799, 4.846528235467855 ], [ 35.940101110054201, 4.850967146644132 ], [ 35.928147232431179, 4.856600634625632 ], [ 35.92390469946023, 4.859134376637779 ], [ 35.923434443356584, 4.859302032175399 ], [ 35.911480565733562, 4.864935450417114 ], [ 35.900138415037375, 4.871709148447895 ], [ 35.889517222274321, 4.879557858354862 ], [ 35.879719275461703, 4.888405956509266 ], [ 35.870838934086123, 4.898168192704009 ], [ 35.862961720637237, 4.908750513342967 ], [ 35.856163497122139, 4.920050967960833 ], [ 35.850509734106204, 4.9319606930054 ], [ 35.846054880365259, 4.944364961087494 ], [ 35.8428418386288, 4.957144287577498 ], [ 35.840901552265109, 4.970175581780088 ], [ 35.840252707220223, 4.983333333239331 ], [ 35.840252707220223, 5.024999999949561 ], [ 35.840901552265109, 5.038156649042532 ], [ 35.8428418386288, 5.051186329999923 ], [ 35.846054880365259, 5.063963570466714 ], [ 35.849572451072866, 5.073756075431088 ], [ 35.851175171932702, 5.084518315849527 ], [ 35.854388213669154, 5.097294896313073 ], [ 35.857167557589925, 5.105031876113499 ], [ 35.857568218872892, 5.113155121509481 ], [ 35.859508505326424, 5.126183285760108 ], [ 35.862721547062876, 5.13895903513934 ], [ 35.865500736383588, 5.146695080224633 ], [ 35.865901552266621, 5.154820929783944 ], [ 35.867841838630312, 5.167848241774506 ], [ 35.871054880366778, 5.18062315331401 ], [ 35.87121870720312, 5.181079148226989 ], [ 35.863052608764093, 5.188450185595565 ], [ 35.858909853288715, 5.193002267132208 ], [ 35.854719275460198, 5.196784784688314 ], [ 35.850575947937649, 5.201337434579917 ], [ 35.846385942156303, 5.205119385698061 ], [ 35.842242041149277, 5.209672605441919 ], [ 35.838052608762581, 5.213453988803288 ], [ 35.833908133642254, 5.218007779001996 ], [ 35.829719275458686, 5.221788593914082 ], [ 35.82557422523692, 5.226342955438541 ], [ 35.821385942154798, 5.23012320102997 ], [ 35.812505600689384, 5.239880279083065 ], [ 35.81161377582302, 5.241077739467823 ], [ 35.803459122190212, 5.241476676860383 ], [ 35.790378773729906, 5.243408846982565 ], [ 35.777551592166056, 5.24660843537554 ], [ 35.765101110043624, 5.251044609028952 ], [ 35.761631773387052, 5.252678594581143 ], [ 35.752551592164544, 5.254943506194689 ], [ 35.740101110042119, 5.259379620425928 ], [ 35.731374296318151, 5.263489705403589 ], [ 35.730781740786945, 5.263278579634819 ], [ 35.717954559133268, 5.260079076834939 ], [ 35.704874210762796, 5.258146958286158 ], [ 35.691666666427807, 5.257500843306451 ], [ 35.658333333122407, 5.257500843306451 ], [ 35.654166666470459, 5.257704677348995 ], [ 35.649999999818512, 5.257500843306451 ], [ 35.624999999817, 5.257500843306451 ], [ 35.611792455482018, 5.258146958286158 ], [ 35.598712107111545, 5.260079076834939 ], [ 35.585884925457869, 5.263278579634819 ], [ 35.573434443335437, 5.267714634528893 ], [ 35.561480565802242, 5.273344493872617 ], [ 35.550138415016221, 5.280113907413639 ], [ 35.539517222343008, 5.28795764573371 ], [ 35.529719275440556, 5.29680013008061 ], [ 35.520838934064976, 5.306556161189328 ], [ 35.512961720616097, 5.317131742100358 ], [ 35.506163497100985, 5.328424984254581 ], [ 35.50050973408505, 5.340327090794391 ], [ 35.496054880344111, 5.352723405277889 ], [ 35.492841838607653, 5.36549451768491 ], [ 35.490901552243955, 5.378517414949878 ], [ 35.490499618227901, 5.386662893882291 ], [ 35.487721547040216, 5.394392745589106 ], [ 35.484508505303765, 5.407162983339928 ], [ 35.48256821894006, 5.420184986483615 ], [ 35.481919373895181, 5.433333333309043 ], [ 35.481919373895181, 5.458333333253339 ], [ 35.48256821894006, 5.471480845517929 ], [ 35.484508505303765, 5.484501455148374 ], [ 35.487721547040216, 5.497269778386691 ], [ 35.492176400781155, 5.50966286871718 ], [ 35.497830163797097, 5.521561400314282 ], [ 35.50022711493385, 5.525541902874314 ], [ 35.50050973408505, 5.526328099740564 ], [ 35.506163497100985, 5.538226296733925 ], [ 35.512961720616097, 5.549515394710108 ], [ 35.520838934064976, 5.560086711086162 ], [ 35.529719275440556, 5.569838479062173 ], [ 35.533896458130549, 5.573606569682749 ], [ 35.536064680499159, 5.575987519531492 ], [ 35.535341258936349, 5.578861907434241 ], [ 35.533843067390457, 5.582014554737857 ], [ 35.533556032839968, 5.582812957966294 ], [ 35.531163497102497, 5.586785715104869 ], [ 35.525509734086562, 5.598682689370039 ], [ 35.521054880345623, 5.611073646810434 ], [ 35.517841838609165, 5.623839227474846 ], [ 35.515901552245474, 5.636856470639503 ], [ 35.515498575375197, 5.64501953096215 ], [ 35.512721547041728, 5.652743114730647 ], [ 35.509912033291975, 5.663904671829445 ], [ 35.506163497100985, 5.670128160476312 ], [ 35.50050973408505, 5.682023427675108 ], [ 35.496054880344111, 5.694412603256345 ], [ 35.492841838607653, 5.707176344024798 ], [ 35.490901552243955, 5.720191706942945 ], [ 35.490252707199076, 5.733333333226553 ], [ 35.490252707199076, 5.745711386729975 ], [ 35.487721547040216, 5.75274992171843 ], [ 35.485336976484703, 5.762221637819771 ], [ 35.483843067387433, 5.765364274528956 ], [ 35.479388213736328, 5.777751641947436 ], [ 35.4784058648303, 5.781653462106825 ], [ 35.471347305413609, 5.789401712207503 ], [ 35.463052608739922, 5.796881191749551 ], [ 35.454172267364342, 5.806628949673119 ], [ 35.446295054005283, 5.817195546058582 ], [ 35.439496830490178, 5.828479175209003 ], [ 35.439131678622253, 5.829247232182576 ], [ 35.438052608738403, 5.830220185963221 ], [ 35.429172267362823, 5.839967365927524 ], [ 35.421295054003771, 5.850533334713698 ], [ 35.414496830488673, 5.861816292425142 ], [ 35.408843067382904, 5.873707537648496 ], [ 35.404388213731792, 5.886092515476839 ], [ 35.401175171995341, 5.898851922301985 ], [ 35.399234885541809, 5.91186285586749 ], [ 35.39858604049693, 5.924999999978521 ], [ 35.39858604049693, 5.949999999923866 ], [ 35.399234885541809, 5.963136234654034 ], [ 35.401175171995341, 5.976145650121321 ], [ 35.404388213731792, 5.988902971468296 ], [ 35.408843067382904, 6.001285359909199 ], [ 35.411622711700311, 6.007130183587525 ] ] ] } },
{ "type": "Feature", "properties": { }, "geometry": { "type": "Polygon", "coordinates": [ [ [ 35.140252707186285, 5.861575588670499 ], [ 35.13805260878091, 5.863559212259034 ], [ 35.129172267381584, 5.873305811011155 ], [ 35.121295053985726, 5.883871148594934 ], [ 35.114496830464454, 5.895153431073062 ], [ 35.108843067426562, 5.907043963205859 ], [ 35.104388213700766, 5.919428196808068 ], [ 35.101175171963725, 5.932186835296484 ], [ 35.099234885563781, 5.945196983737118 ], [ 35.098586040519642, 5.958333333270438 ], [ 35.098586040519642, 5.966666666603778 ], [ 35.099234885563781, 5.979802502044363 ], [ 35.101175171963725, 5.992811521305573 ], [ 35.104388213700766, 6.005568453230573 ], [ 35.108843067426562, 6.017950462886872 ], [ 35.114496830464454, 6.029838333739439 ], [ 35.121295053985726, 6.041117614673766 ], [ 35.129172267381584, 6.051679720863162 ], [ 35.13805260878091, 6.061422977929897 ], [ 35.141049221528661, 6.06412375837584 ], [ 35.14284183863036, 6.076140843969537 ], [ 35.146054880367409, 6.088895812660286 ], [ 35.150509734093198, 6.101275912831603 ], [ 35.156163497131082, 6.113161946741758 ], [ 35.162961720652369, 6.124439481458974 ], [ 35.170838934048227, 6.134999949534694 ], [ 35.179719275447546, 6.144741692975813 ], [ 35.183853364021054, 6.14846707208467 ], [ 35.188052608780872, 6.153073553459895 ], [ 35.19218604064649, 6.156798282416425 ], [ 35.19638594211419, 6.161405411940374 ], [ 35.200518716351716, 6.165129489855191 ], [ 35.204719275447516, 6.169737268417279 ], [ 35.214517222308139, 6.178566100146108 ], [ 35.225138415045677, 6.186397499176882 ], [ 35.236480565767955, 6.193156090535203 ], [ 35.248434443363244, 6.19877682747872 ], [ 35.251950307464298, 6.20002746712138 ], [ 35.254719275447478, 6.203064674289849 ], [ 35.264517222308093, 6.21189294898079 ], [ 35.275138415045646, 6.219723853242527 ], [ 35.28648056576791, 6.226482017108758 ], [ 35.298434443363213, 6.232102398178212 ], [ 35.310884925455632, 6.236530906346466 ], [ 35.323712107096512, 6.239724923260876 ], [ 35.336792455514583, 6.241653711554931 ], [ 35.34175732221361, 6.241896173916549 ], [ 35.346295053985529, 6.249421986451237 ], [ 35.354172267381387, 6.259979955489531 ], [ 35.363052608780706, 6.269719389873365 ], [ 35.372850555641321, 6.278546541529606 ], [ 35.383471748378874, 6.286376448306864 ], [ 35.394813899101138, 6.293133750331354 ], [ 35.39504197238702, 6.293240970933062 ], [ 35.396385942114009, 6.29471487516429 ], [ 35.406183888974624, 6.303541602603149 ], [ 35.416805081712177, 6.311371132592374 ], [ 35.428147232434448, 6.318128109069122 ], [ 35.440101110029744, 6.323747501683312 ], [ 35.45255159212217, 6.328175230389738 ], [ 35.465378773763042, 6.331368684785411 ], [ 35.478459122181114, 6.333297133250347 ], [ 35.491666666470678, 6.333942018000815 ], [ 35.549999999803958, 6.333942018000815 ], [ 35.563207544093515, 6.333297133250347 ], [ 35.576287892511587, 6.331368684785411 ], [ 35.589115074152467, 6.328175230389738 ], [ 35.601565556244893, 6.323747501683312 ], [ 35.613519433840182, 6.318128109069122 ], [ 35.62486158456246, 6.311371132592374 ], [ 35.635482777300005, 6.303541602603149 ], [ 35.645280724160621, 6.29471487516429 ], [ 35.653701120712505, 6.285480328790277 ], [ 35.661947390827265, 6.278051220306778 ], [ 35.663290104234861, 6.276578646684486 ], [ 35.663519433840136, 6.276470832015456 ], [ 35.674861584562407, 6.269713313673386 ], [ 35.685482777299953, 6.261883156531763 ], [ 35.695280724160575, 6.253055722997042 ], [ 35.704161065559894, 6.243315978061664 ], [ 35.712038278955752, 6.232757672915972 ], [ 35.718836502477032, 6.221482443932142 ], [ 35.724490265514923, 6.209598835624334 ], [ 35.728945119240713, 6.197221256925344 ], [ 35.732158160977761, 6.18446888076903 ], [ 35.734098447377697, 6.171464497522868 ], [ 35.734747292421837, 6.158333333270597 ], [ 35.734747292421837, 6.141666666603916 ], [ 35.734098447377697, 6.128534766470531 ], [ 35.732158160977761, 6.115529015190319 ], [ 35.728945119240713, 6.102774679680913 ], [ 35.724490265514923, 6.090394614095059 ], [ 35.718836502477032, 6.078508075762829 ], [ 35.712038278955752, 6.067229575488437 ], [ 35.704161065559894, 6.056667773321044 ], [ 35.701166254425779, 6.053381942749964 ], [ 35.699950226583645, 6.050002312207297 ], [ 35.703945119240743, 6.038899406875827 ], [ 35.707158160977784, 6.026143257007022 ], [ 35.709098447377727, 6.013135033554565 ], [ 35.709747292421866, 5.999999999937138 ], [ 35.709747292421866, 5.974999999937117 ], [ 35.709098447377727, 5.961864049337453 ], [ 35.707158160977784, 5.948854295134422 ], [ 35.706248550953568, 5.945242472110507 ], [ 35.710503169143706, 5.9381822051165 ], [ 35.716156932181597, 5.926292342663738 ], [ 35.716449851476533, 5.925478062741296 ], [ 35.718836502477032, 5.921517437086333 ], [ 35.724490265514923, 5.90962721579301 ], [ 35.724782740874474, 5.908814145445861 ], [ 35.727169835810365, 5.904852663710694 ], [ 35.732823598848256, 5.8929620845826 ], [ 35.737278452574046, 5.880577259799582 ], [ 35.739663617951571, 5.871105174370936 ], [ 35.741156932181575, 5.867964379629802 ], [ 35.745611785907371, 5.855578998892972 ], [ 35.747996356481281, 5.846108851290533 ], [ 35.7494902655149, 5.842966664911982 ], [ 35.753945119240697, 5.830580730578773 ], [ 35.756329097611257, 5.821112512488916 ], [ 35.757823598848226, 5.817968940428702 ], [ 35.762278452574016, 5.805582454856654 ], [ 35.765491494311064, 5.792820921260548 ], [ 35.766958019869541, 5.782984810229569 ], [ 35.768836502476994, 5.779866692990157 ], [ 35.774490265514885, 5.767973462164011 ], [ 35.778945119240674, 5.755585881187328 ], [ 35.782158160977716, 5.742823221463201 ], [ 35.784098447377659, 5.729808373987992 ], [ 35.784747292421798, 5.71666666660358 ], [ 35.784747292421798, 5.699999999936898 ], [ 35.784646786909654, 5.69796427512548 ], [ 35.785503169143638, 5.696542545425237 ], [ 35.791156932181529, 5.684647578238742 ], [ 35.795611785907319, 5.672258192546844 ], [ 35.797992074003972, 5.662802001618934 ], [ 35.799490265514855, 5.659649791897436 ], [ 35.802610857763803, 5.650970770542065 ], [ 35.803704945622343, 5.649502731192313 ], [ 35.810503169143615, 5.638215562584972 ], [ 35.816156932181507, 5.626319394913297 ], [ 35.816442057088175, 5.625526362590964 ], [ 35.818836502476941, 5.621550698311791 ], [ 35.824490265514832, 5.609654189908487 ], [ 35.828945119240622, 5.597263202375791 ], [ 35.83215816097767, 5.584497040693243 ], [ 35.834098447377613, 5.571478630155073 ], [ 35.834747292421746, 5.558333333270118 ], [ 35.834747292421746, 5.54166666660344 ], [ 35.834107597813109, 5.528706100023971 ], [ 35.838519433839977, 5.52662916029541 ], [ 35.849861584562255, 5.519862499364567 ], [ 35.85310065676105, 5.517471374367129 ], [ 35.866666666470337, 5.517471374367129 ], [ 35.870833333137, 5.517267627492896 ], [ 35.874999999803663, 5.517471374367129 ], [ 35.89999999980364, 5.517471374367129 ], [ 35.913207544093197, 5.516825535118791 ], [ 35.926287892511269, 5.514894232963968 ], [ 35.939115074152149, 5.511696054979693 ], [ 35.951565556244567, 5.507261781217228 ], [ 35.96351943383987, 5.501634089069564 ], [ 35.967783885524177, 5.499089844024444 ], [ 35.968232222911226, 5.498930164607823 ], [ 35.980186100506522, 5.493302393657409 ], [ 35.991528251228793, 5.48653535327253 ], [ 36.002149443966346, 5.478694176283186 ], [ 36.011947390826954, 5.469854336951765 ], [ 36.016095910648836, 5.465297975602017 ], [ 36.02028072416028, 5.461522312067736 ], [ 36.029161065559606, 5.451768765224947 ], [ 36.037038278955464, 5.441195524106932 ], [ 36.043836502476736, 5.429904374720263 ], [ 36.049490265514628, 5.418004020241239 ], [ 36.053945119240424, 5.405609035559316 ], [ 36.054907302658279, 5.401784854978083 ], [ 36.055186100506454, 5.401653578994993 ], [ 36.066528251228725, 5.39488550691501 ], [ 36.077149443966277, 5.387043136068258 ], [ 36.086947390826886, 5.378201952887088 ], [ 36.095827732226212, 5.368447061438559 ], [ 36.10370494562207, 5.357872365441314 ], [ 36.110503169143342, 5.346579665524843 ], [ 36.116156932181234, 5.334677680361692 ], [ 36.11643487739196, 5.333904239694341 ], [ 36.118836502476668, 5.329914707633877 ], [ 36.124490265514559, 5.31801239935424 ], [ 36.124767812294259, 5.317240046462721 ], [ 36.127169835809994, 5.31324974439194 ], [ 36.132823598847885, 5.301347114002657 ], [ 36.137278452573675, 5.28894976416596 ], [ 36.140491494310723, 5.276177062634608 ], [ 36.142431780710659, 5.263151998800939 ], [ 36.142833004602025, 5.255019279057781 ], [ 36.145611785907001, 5.24728569953633 ], [ 36.148824827644042, 5.234512142603283 ], [ 36.150765114043985, 5.221486208599501 ], [ 36.151413959088124, 5.208333333269842 ], [ 36.151413959088124, 5.191666666603161 ], [ 36.151208422031175, 5.187500013691135 ], [ 36.151413959088124, 5.183333333269822 ], [ 36.151413959088124, 5.174999999936481 ], [ 36.150765114043985, 5.161846154950618 ], [ 36.148824827644042, 5.148818719804208 ], [ 36.145611785907001, 5.136043168099717 ], [ 36.142095756129663, 5.126255902579092 ], [ 36.140491494310723, 5.11548401489398 ], [ 36.137278452573675, 5.102707796434868 ], [ 36.132823598847885, 5.090306537563581 ], [ 36.131314611199478, 5.087128626381638 ], [ 36.128945119240356, 5.077706276340407 ], [ 36.124490265514559, 5.065304536023186 ], [ 36.118836502476668, 5.053397232170153 ], [ 36.112038278955396, 5.042099069504447 ], [ 36.104161065559538, 5.03151889051404 ], [ 36.095280724160212, 5.021758625895413 ], [ 36.085482777299596, 5.012912311463976 ], [ 36.074861584562051, 5.005065181053372 ], [ 36.06351943383978, 4.998292844194867 ], [ 36.051565556244483, 4.992660556550608 ], [ 36.039115074152058, 4.988222590178196 ], [ 36.026287892511178, 4.985021709737986 ], [ 36.022304662233012, 4.984433088022201 ], [ 36.020611785907121, 4.977700270147242 ], [ 36.016156932181325, 4.965296627663299 ], [ 36.010503169143433, 4.953387501889738 ], [ 36.008095322498527, 4.949385243677533 ], [ 36.007823598847999, 4.948628658151336 ], [ 36.002169835810108, 4.93671923225209 ], [ 35.995371612288835, 4.925419060758004 ], [ 35.99425478319808, 4.923918750078663 ], [ 35.991156932181347, 4.915292732169553 ], [ 35.985503169143456, 4.903382709042929 ], [ 35.978704945622177, 4.892081972205795 ], [ 35.970827732226319, 4.881499387920035 ], [ 35.967783748773471, 4.878153043319853 ], [ 35.96615693218137, 4.87362284914745 ], [ 35.960503169143479, 4.861712085156846 ], [ 35.953704945622206, 4.850410647021346 ], [ 35.945827732226341, 4.839827407474123 ], [ 35.936947390827022, 4.830064325276312 ], [ 35.927149443966407, 4.821215461911369 ], [ 35.916528251228861, 4.813366074293573 ], [ 35.90518610050659, 4.806591792281545 ], [ 35.893232222911287, 4.800957888970013 ], [ 35.880781740818868, 4.796518650836508 ], [ 35.867954559177988, 4.793316853853647 ], [ 35.854874210759924, 4.791383350651028 ], [ 35.84166666647036, 4.790736772734101 ], [ 35.833333333137034, 4.790736772734101 ], [ 35.82012578884747, 4.791383350651028 ], [ 35.807045440429405, 4.793316853853647 ], [ 35.794218258788526, 4.796518650836508 ], [ 35.7817677766961, 4.800957888970013 ], [ 35.769813899100804, 4.806591792281545 ], [ 35.758471748378533, 4.813366074293573 ], [ 35.747850555640987, 4.821215461911369 ], [ 35.738052608780372, 4.830064325276312 ], [ 35.733933599759276, 4.834592797462387 ], [ 35.729719275447039, 4.83839883799235 ], [ 35.725599733347202, 4.842927840502981 ], [ 35.721385942113713, 4.846733352717058 ], [ 35.712505600714394, 4.85649619424639 ], [ 35.704628387318529, 4.867079172360882 ], [ 35.697830163797256, 4.878380330694448 ], [ 35.69750872898998, 4.879057485210671 ], [ 35.696385942113736, 4.880071431702109 ], [ 35.687505600714417, 4.889833789415228 ], [ 35.679628387318552, 4.900416241976852 ], [ 35.672830163797279, 4.911716837836912 ], [ 35.667176400759388, 4.923626712034698 ], [ 35.662721547033598, 4.936031135934705 ], [ 35.65950850529655, 4.948810623288323 ], [ 35.657568218896607, 4.961842081924101 ], [ 35.656919373852475, 4.974999999936323 ], [ 35.656919373852475, 5.033333333269701 ], [ 35.65730959314331, 5.041245751292342 ], [ 35.653459122180955, 5.041434181039829 ], [ 35.640378773762883, 5.043366958390624 ], [ 35.627551592122003, 5.046567552768674 ], [ 35.615101110029585, 5.051005122219542 ], [ 35.603147232434289, 5.056636905620943 ], [ 35.59180508171201, 5.06340863542477 ], [ 35.581183888974465, 5.071255061419699 ], [ 35.571385942113849, 5.080100580429328 ], [ 35.56311458528404, 5.08919070404704 ], [ 35.563077673619638, 5.089224026943875 ], [ 35.56148056576766, 5.08997642439371 ], [ 35.550138415045389, 5.09674780415594 ], [ 35.539517222307843, 5.104593823974112 ], [ 35.529719275447221, 5.113438884338435 ], [ 35.520838934047902, 5.123197762791629 ], [ 35.512961720652051, 5.133776436166922 ], [ 35.506163497130771, 5.145072987593887 ], [ 35.505229938271754, 5.147038875963172 ], [ 35.504172267381257, 5.148201129423616 ], [ 35.496295053985392, 5.158779387475273 ], [ 35.489496830464113, 5.17007549445338 ], [ 35.483843067426228, 5.181980626877206 ], [ 35.483565917798998, 5.182752041896633 ], [ 35.481163497130787, 5.186743839051525 ], [ 35.480828723487726, 5.187448759777074 ], [ 35.479719275447273, 5.188450185590454 ], [ 35.475576520098549, 5.193002267041699 ], [ 35.47138594211394, 5.196784784656876 ], [ 35.470103809431436, 5.198193583702206 ], [ 35.469813899101077, 5.198330137133113 ], [ 35.466666666470701, 5.200208754373831 ], [ 35.463519433840318, 5.198330137133113 ], [ 35.451565556245022, 5.192699602637756 ], [ 35.45111344653845, 5.192538499081008 ], [ 35.446852767173667, 5.189995221128232 ], [ 35.434898889578371, 5.184364612214324 ], [ 35.422448407485952, 5.17992796729475 ], [ 35.409621225845072, 5.176728039237954 ], [ 35.396540877427, 5.174795664064273 ], [ 35.383333333137443, 5.174149463271318 ], [ 35.358333333137459, 5.174149463271318 ], [ 35.345125788847902, 5.174795664064273 ], [ 35.33204544042983, 5.176728039237954 ], [ 35.31921825878895, 5.17992796729475 ], [ 35.306767776696532, 5.184364612214324 ], [ 35.294813899101236, 5.189995221128232 ], [ 35.290553219736452, 5.192538499081008 ], [ 35.29010111002988, 5.192699602637756 ], [ 35.278147232434584, 5.198330137133113 ], [ 35.266805081712306, 5.205100363423963 ], [ 35.256183888974761, 5.212945044818862 ], [ 35.25473657972973, 5.214251382502352 ], [ 35.253147232434607, 5.214999976654854 ], [ 35.241805081712336, 5.221770023339026 ], [ 35.23118388897479, 5.229614496332057 ], [ 35.221385942114175, 5.238457810102275 ], [ 35.213092958177306, 5.247569425394798 ], [ 35.204719275447516, 5.255127034332824 ], [ 35.195838934048197, 5.264883721378185 ], [ 35.187961720652332, 5.275460014615104 ], [ 35.18116349713106, 5.286754019054575 ], [ 35.175509734093168, 5.298656930674903 ], [ 35.175229777542491, 5.29943601291324 ], [ 35.172830163797734, 5.303422401122798 ], [ 35.167176400759843, 5.315324991455445 ], [ 35.162721547034046, 5.327721811055592 ], [ 35.159508505297005, 5.340493445001176 ], [ 35.157568218897069, 5.353516875337077 ], [ 35.156919373852922, 5.366666666603301 ], [ 35.156919373852922, 5.433333333270021 ], [ 35.157568218897069, 5.446481393065714 ], [ 35.159508505297005, 5.459502546331977 ], [ 35.162359976069617, 5.470834508610015 ], [ 35.159508505297005, 5.482166256237013 ], [ 35.157568218897069, 5.495186632814949 ], [ 35.156919373852922, 5.508333333270081 ], [ 35.156919373852922, 5.51666666660342 ], [ 35.157568218897069, 5.529812891410931 ], [ 35.159508505297005, 5.542832223076543 ], [ 35.162721547034046, 5.555599290127585 ], [ 35.165499119752845, 5.563325571133282 ], [ 35.165901552230395, 5.571478630155073 ], [ 35.167841838630331, 5.584497040693243 ], [ 35.171054880367379, 5.597263202375791 ], [ 35.175509734093168, 5.609654189908487 ], [ 35.177009069312497, 5.612809077668286 ], [ 35.179388213700705, 5.622261539843342 ], [ 35.182456090238411, 5.630794371122056 ], [ 35.181919373852914, 5.64166666660352 ], [ 35.181919373852914, 5.649999999936859 ], [ 35.182568218897046, 5.663143230923076 ], [ 35.184508505296989, 5.676159590749568 ], [ 35.186614622275115, 5.684526393828939 ], [ 35.183843067426494, 5.6903575074683 ], [ 35.179388213700705, 5.702746503391918 ], [ 35.177004824933803, 5.712214354882897 ], [ 35.175509734093168, 5.715359753376776 ], [ 35.171054880367379, 5.727748208844301 ], [ 35.167841838630331, 5.740511206205159 ], [ 35.165901552230395, 5.753525809236756 ], [ 35.165252707186248, 5.766666666603619 ], [ 35.165252707186248, 5.768884555734264 ], [ 35.164496830464415, 5.770139271534036 ], [ 35.158843067426524, 5.782032456893232 ], [ 35.158550813552743, 5.782845095602877 ], [ 35.156163497131082, 5.786807808759272 ], [ 35.150509734093198, 5.798700643626326 ], [ 35.146054880367409, 5.811087280535824 ], [ 35.14284183863036, 5.823848400284199 ], [ 35.140901552230417, 5.836861084431289 ], [ 35.140252707186285, 5.849999999937019 ], [ 35.140252707186285, 5.861575588670499 ] ] ] } },
{ "type": "Feature", "properties": { }, "geometry": { "type": "Polygon", "coordinates": [ [ [ 34.932124905490916, 5.170833346980022 ], [ 34.931919373853134, 5.174999999936481 ], [ 34.931919373853134, 5.208333333269842 ], [ 34.932568218897273, 5.221486208599501 ], [ 34.93450850529721, 5.234512142603283 ], [ 34.937721547034258, 5.24728569953633 ], [ 34.942176400760047, 5.259683881617367 ], [ 34.947830163797938, 5.271587312875631 ], [ 34.954628387319218, 5.282881387851175 ], [ 34.962505600715076, 5.293457374121195 ], [ 34.96356327160558, 5.294619356222496 ], [ 34.96449683046459, 5.296584775798883 ], [ 34.966899251132794, 5.300575845454262 ], [ 34.967176400760025, 5.301347114002657 ], [ 34.972830163797916, 5.31324974439194 ], [ 34.979628387319195, 5.324543057833975 ], [ 34.98750560071506, 5.335118329522021 ], [ 34.995092073255861, 5.343452394072191 ], [ 34.996054880367545, 5.34727942004541 ], [ 35.000509734093335, 5.359675593727898 ], [ 35.006163497131219, 5.371577092328542 ], [ 35.012961720652498, 5.382869329593373 ], [ 35.014066103965774, 5.384351849509404 ], [ 35.015252707186391, 5.387653541484741 ], [ 35.015252707186391, 5.39166666660332 ], [ 35.015901552230531, 5.40481563346367 ], [ 35.017841838630467, 5.417837687202165 ], [ 35.021054880367515, 5.430607429852295 ], [ 35.025509734093312, 5.443001901030302 ], [ 35.031163497131196, 5.454901761396391 ], [ 35.037961720652476, 5.466192440967923 ], [ 35.045838934048334, 5.476765241262261 ], [ 35.054719275447653, 5.486518380701625 ], [ 35.058902341782293, 5.490292310048742 ], [ 35.063052608780978, 5.494850399567515 ], [ 35.067235090893568, 5.498623749071204 ], [ 35.071385942114311, 5.503182416427417 ], [ 35.081183888974927, 5.512021761478853 ], [ 35.091805081712472, 5.519862499364567 ], [ 35.103147232434743, 5.52662916029541 ], [ 35.115101110030047, 5.532256615320971 ], [ 35.127551592122465, 5.536690702076025 ], [ 35.136629706195613, 5.538954038096987 ], [ 35.140101110030017, 5.54058822144752 ], [ 35.152551592122443, 5.545022245679287 ], [ 35.165378773763315, 5.548220243568018 ], [ 35.178459122181394, 5.550151436917226 ], [ 35.191666666470951, 5.550797239771855 ], [ 35.216666666470928, 5.550797239771855 ], [ 35.229166666470924, 5.550186033383367 ], [ 35.236303090455131, 5.550534979695384 ], [ 35.244218258789026, 5.553353786568191 ], [ 35.257045440429899, 5.556551739264019 ], [ 35.270125788847977, 5.558482905309758 ], [ 35.283333333137534, 5.559128699031828 ], [ 35.291666666470853, 5.559128699031828 ], [ 35.304874210760417, 5.558482905309758 ], [ 35.317954559178489, 5.556551739264019 ], [ 35.330781740819361, 5.553353786568191 ], [ 35.343232222911787, 5.548919824953445 ], [ 35.355186100507083, 5.543292528604139 ], [ 35.366528251229354, 5.53652605825868 ], [ 35.377149443966907, 5.528685540919428 ], [ 35.386947390827522, 5.51984644412936 ], [ 35.395827732226842, 5.510093850781697 ], [ 35.403704945622707, 5.499521641382196 ], [ 35.410503169143979, 5.48823159157348 ], [ 35.412386389561163, 5.484268096188183 ], [ 35.419218258788867, 5.486701383452734 ], [ 35.432045440429739, 5.489899695798766 ], [ 35.445125788847804, 5.49183107912911 ], [ 35.458333333137375, 5.492476945529376 ], [ 35.474999999804027, 5.492476945529376 ], [ 35.488207544093584, 5.49183107912911 ], [ 35.495833333137341, 5.490705091394048 ], [ 35.503459122181091, 5.49183107912911 ], [ 35.516666666470655, 5.492476945529376 ], [ 35.533333333137314, 5.492476945529376 ], [ 35.546540877426871, 5.49183107912911 ], [ 35.559621225844943, 5.489899695798766 ], [ 35.572448407485815, 5.486701383452734 ], [ 35.584898889578241, 5.482266923526546 ], [ 35.596852767173537, 5.476638995327563 ], [ 35.608194917895808, 5.469871766074066 ], [ 35.618816110633354, 5.462030370527595 ], [ 35.628614057493969, 5.453190285177603 ], [ 35.632761417105179, 5.448635071487628 ], [ 35.636947390827295, 5.444858256281338 ], [ 35.645827732226614, 5.435104438867434 ], [ 35.653704945622479, 5.42453090498485 ], [ 35.660503169143752, 5.413239443581941 ], [ 35.666156932181643, 5.401338760952629 ], [ 35.669267542982389, 5.39268372589224 ], [ 35.670371612289131, 5.391201647824473 ], [ 35.677169835810403, 5.379909565254449 ], [ 35.67750610034031, 5.379201725128756 ], [ 35.678614057493924, 5.378201952887088 ], [ 35.682756241424094, 5.37365185957923 ], [ 35.68694739082725, 5.36986990593437 ], [ 35.691089004252966, 5.365320377104362 ], [ 35.695280724160575, 5.361537856975239 ], [ 35.704161065559894, 5.351782699080632 ], [ 35.712038278955752, 5.341207714790755 ], [ 35.718836502477032, 5.329914707633877 ], [ 35.724097586511753, 5.31883907507497 ], [ 35.727551592121912, 5.320069615524316 ], [ 35.740378773762792, 5.323268808063044 ], [ 35.753459122180864, 5.32520072317198 ], [ 35.766666666470421, 5.325846767444522 ], [ 35.774999999803747, 5.325846767444522 ], [ 35.778266254591962, 5.325686999336416 ], [ 35.7858849254552, 5.328401229714472 ], [ 35.798712107096073, 5.331600378886016 ], [ 35.811792455514144, 5.333532267793974 ], [ 35.824999999803708, 5.334178303302637 ], [ 35.833333333137034, 5.334178303302637 ], [ 35.846540877426598, 5.333532267793974 ], [ 35.85962122584467, 5.331600378886016 ], [ 35.872448407485543, 5.328401229714472 ], [ 35.884898889577961, 5.323965610346142 ], [ 35.896852767173264, 5.318336212024518 ], [ 35.908194917895536, 5.31156721706436 ], [ 35.918816110633081, 5.303723778302633 ], [ 35.928614057493697, 5.294881393067977 ], [ 35.932750577502475, 5.290336904454079 ], [ 35.936947390827022, 5.286549326049879 ], [ 35.941083349468741, 5.282005393005896 ], [ 35.945280724160348, 5.278217257025092 ], [ 35.954161065559667, 5.268460779276763 ], [ 35.962038278955532, 5.257884366941194 ], [ 35.968836502476805, 5.246589837911542 ], [ 35.974490265514696, 5.234685929152688 ], [ 35.974765839314621, 5.233918963647096 ], [ 35.97716983581013, 5.229924847912553 ], [ 35.982823598848022, 5.218020622078698 ], [ 35.987278452573818, 5.205621614308676 ], [ 35.990491494310859, 5.192847208728171 ], [ 35.992431780710795, 5.179820411442387 ], [ 35.993080625754942, 5.166666666603141 ], [ 35.993080625754942, 5.158333333269802 ], [ 35.992431780710795, 5.145179142742558 ], [ 35.990491494310859, 5.132151366241319 ], [ 35.987278452573818, 5.119375480618913 ], [ 35.982823598848022, 5.106974544023546 ], [ 35.97716983581013, 5.095068010012426 ], [ 35.970371612288858, 5.083770576142037 ], [ 35.962494398893, 5.073191078163918 ], [ 35.961433779618311, 5.072025448323431 ], [ 35.960503169143479, 5.070065539291385 ], [ 35.953704945622206, 5.058767667426594 ], [ 35.945827732226341, 5.048187760169434 ], [ 35.936947390827022, 5.03842774572199 ], [ 35.93583135180068, 5.037420134617836 ], [ 35.935503169143502, 5.03672893040331 ], [ 35.933097231611853, 5.032730353658278 ], [ 35.932823598848067, 5.031968549182406 ], [ 35.931313396746127, 5.028787793646804 ], [ 35.928945119240531, 5.019369424968983 ], [ 35.924490265514741, 5.006966570462117 ], [ 35.918836502476857, 4.995058199412567 ], [ 35.912038278955578, 4.983759026474766 ], [ 35.904161065559713, 4.973177903470859 ], [ 35.895280724160394, 4.963416769759687 ], [ 35.891074491779179, 4.95961874762175 ], [ 35.886947390827061, 4.955082226916161 ], [ 35.877149443966452, 4.946235014664529 ], [ 35.866528251228907, 4.93838708917232 ], [ 35.855186100506629, 4.931614067137353 ], [ 35.843232222911332, 4.925981210368289 ], [ 35.830781740818914, 4.921542796007395 ], [ 35.817954559178034, 4.918341592704138 ], [ 35.804874210759962, 4.916408447824114 ], [ 35.797013990576261, 4.916023720574588 ], [ 35.789115074152278, 4.91320783396751 ], [ 35.776287892511405, 4.910006590611275 ], [ 35.763207544093333, 4.908073421556632 ], [ 35.749999999803777, 4.907426955351644 ], [ 35.733333333137118, 4.907426955351644 ], [ 35.727917057280045, 4.907692064460673 ], [ 35.720827732226553, 4.898168192712373 ], [ 35.711947390827227, 4.888405956469803 ], [ 35.703524628861906, 4.880799734869769 ], [ 35.695280724160575, 4.87173690894296 ], [ 35.691068537633463, 4.867932987028429 ], [ 35.68694739082725, 4.863402388192388 ], [ 35.685823906145124, 4.862387786382217 ], [ 35.685503169143729, 4.861712085156846 ], [ 35.678704945622449, 4.850410647021346 ], [ 35.670827732226591, 4.839827407474123 ], [ 35.661947390827265, 4.830064325276312 ], [ 35.65773253434795, 4.826257757322491 ], [ 35.653614057493947, 4.821729814568966 ], [ 35.649398669759023, 4.817922720083262 ], [ 35.645280724160621, 4.813395305870343 ], [ 35.635482777300005, 4.804546225540416 ], [ 35.62486158456246, 4.796696645796531 ], [ 35.613519433840182, 4.789922198224838 ], [ 35.61320419765876, 4.789773623305971 ], [ 35.611947390827318, 4.78839179182702 ], [ 35.602149443966702, 4.779542387454192 ], [ 35.591528251229157, 4.771692520767147 ], [ 35.580186100506879, 4.764917825931306 ], [ 35.56823222291159, 4.759283579734242 ], [ 35.555781740819164, 4.754844071707697 ], [ 35.542954559178284, 4.751642080219999 ], [ 35.539740192345157, 4.751166912499476 ], [ 35.537494398893379, 4.748149209080275 ], [ 35.52861405749406, 4.738384817979028 ], [ 35.518816110633445, 4.729534770577072 ], [ 35.508194917895899, 4.721684334489402 ], [ 35.496852767173628, 4.71490914899669 ], [ 35.484898889578325, 4.70927449527226 ], [ 35.472448407485899, 4.704834666474939 ], [ 35.459621225845027, 4.701632443817974 ], [ 35.446540877426962, 4.699698683697688 ], [ 35.433333333137391, 4.699052019888873 ], [ 35.416666666470746, 4.699052019888873 ], [ 35.403459122181182, 4.699698683697688 ], [ 35.390378773763111, 4.701632443817974 ], [ 35.390136144093077, 4.701693014877204 ], [ 35.387494398893523, 4.698143010963809 ], [ 35.386419685689702, 4.696961230784095 ], [ 35.385503169144002, 4.695029924378209 ], [ 35.378704945622722, 4.683725740838791 ], [ 35.370827732226864, 4.673139936238346 ], [ 35.361947390827545, 4.66337449281331 ], [ 35.357722082355131, 4.659557563717519 ], [ 35.353614057494219, 4.655040022284878 ], [ 35.343816110633597, 4.646188918151536 ], [ 35.333194917896051, 4.638337546354703 ], [ 35.32185276717378, 4.631561554572228 ], [ 35.309898889578484, 4.625926231176329 ], [ 35.297448407486058, 4.621485875278892 ], [ 35.284621225845186, 4.618283272762142 ], [ 35.271540877427114, 4.616349283378006 ], [ 35.25833333313755, 4.615702542922837 ], [ 35.208333333137602, 4.615702542922837 ], [ 35.195125788848038, 4.616349283378006 ], [ 35.182045440429967, 4.618283272762142 ], [ 35.169218258789094, 4.621485875278892 ], [ 35.156767776696675, 4.625926231176329 ], [ 35.144813899101372, 4.631561554572228 ], [ 35.133471748379101, 4.638337546354703 ], [ 35.122850555641556, 4.646188918151536 ], [ 35.11305260878094, 4.655040022284878 ], [ 35.104172267381621, 4.664805581601519 ], [ 35.096295053985763, 4.675391512102699 ], [ 35.089496830464476, 4.686695830400899 ], [ 35.083843067426585, 4.698609637213109 ], [ 35.082402010139091, 4.702623576098359 ], [ 35.079719275447637, 4.705046875592548 ], [ 35.075608153246939, 4.709567499953138 ], [ 35.071385942114311, 4.713381358175648 ], [ 35.067274300503009, 4.717902499480054 ], [ 35.063052608780978, 4.721715842767777 ], [ 35.054172267381659, 4.731480469165272 ], [ 35.046295053985801, 4.742065386188457 ], [ 35.039496830464529, 4.753368619718963 ], [ 35.033843067426638, 4.765281280468083 ], [ 35.029388213700841, 4.777688613905616 ], [ 35.027186603706554, 4.786447338050761 ], [ 35.019813899101486, 4.789922198224838 ], [ 35.008471748379215, 4.796696645796531 ], [ 34.997850555641662, 4.804546225540416 ], [ 34.988052608781047, 4.813395305870343 ], [ 34.979172267381728, 4.823158627910188 ], [ 34.97129505398587, 4.833742127994314 ], [ 34.96449683046459, 4.845043844975169 ], [ 34.958843067426699, 4.856954903547215 ], [ 34.954388213700909, 4.869360564065007 ], [ 34.951175171963861, 4.882141328695703 ], [ 34.949234885563918, 4.895174093208406 ], [ 34.948586040519785, 4.908333333269603 ], [ 34.948586040519785, 4.924999999936283 ], [ 34.949234885563918, 4.93815865074178 ], [ 34.951175171963861, 4.951190319206146 ], [ 34.954388213700909, 4.963969513725134 ], [ 34.958843067426699, 4.976373181196958 ], [ 34.96449683046459, 4.988281891441521 ], [ 34.97129505398587, 4.999580986475929 ], [ 34.979172267381728, 5.010161683611363 ], [ 34.982262458598733, 5.013558148449419 ], [ 34.979628387319195, 5.017096184453845 ], [ 34.972830163797916, 5.028394781527831 ], [ 34.967176400760025, 5.040302544262587 ], [ 34.966902575329506, 5.041064875357507 ], [ 34.96449683046459, 5.045063080617424 ], [ 34.963567193176004, 5.047021015705005 ], [ 34.962505600715076, 5.048187760169434 ], [ 34.954628387319218, 5.058767667426594 ], [ 34.947830163797938, 5.070065539291385 ], [ 34.942176400760047, 5.081972535963494 ], [ 34.937721547034258, 5.094373955579155 ], [ 34.93450850529721, 5.107150340051158 ], [ 34.932568218897273, 5.120178626517518 ], [ 34.931919373853134, 5.133333333269782 ], [ 34.931919373853134, 5.166666666603141 ], [ 34.932124905490916, 5.170833346980022 ] ] ] } }
]
}
